ID,Pharmacy-Name,Phone,Credential,CredentialId,Location,Address,City,State,Concat,Zip,Found,Coordinates,Lats,Long,County,Color,Size,Label,cluster
1,CVS PHARMACY #388,(203) 245-3165,PCY.0001188,"38,220","613 BOSTON POST RD &amp; ROUTE
CT 06443-3080
",613 BOSTON POST RD & ROUTE 79,MADISON,CT,"613 BOSTON POST RD & ROUTE 79, MADISON, CT",06443-3080,Match,"-72.59795,41.27937",-72.59795,41.27937,New Haven County,Green,Tiny,E,5
2,RITE AID  #10356,(860) 848-7979,PCY.0001257,"38,434","601 ROUTE
STE F, CT 06382-2104
",601 ROUTE 32 STE F,UNCASVILLE,CT,"601 ROUTE 32 STE F, UNCASVILLE, CT",06382-2104,Match,"-72.104866,41.442726",-72.104866,41.442726,New London County,Black,Mid,F,6
3,STOP & SHOP PHARMACY #682,(860) 445-8807,PCY.0001297,"38,451","220 ROUTE CT 06340
",220 ROUTE 12,GROTON,CT,"220 ROUTE 12, GROTON, CT",6340,Match,"-72.071,41.369747",-72.071,41.369747,New London County,Black,Mid,F,6
8,CANDLEWOOD DRUGS,203-312-9999,PCY.0002167,"919,983","11 ROUTE
CT 06812-4615
",11 ROUTE 37,NEW FAIRFIELD,CT,"11 ROUTE 37, NEW FAIRFIELD, CT",06812-4615,Match,"-73.483986,41.465702",-73.483986,41.465702,Fairfield,Red,Tiny,A,1
11,DANBURY PHARMACY LLC,203-679-9999,PCY.0002371,"1,496,749","35 WHITE STREET
CT 06810
(41.396599, -73.453173)",35 WHITE STREET,DANBURY,CT,"35 WHITE STREET, DANBURY, CT",6810,Match,"-73.4539,41.39639",-73.4539,41.39639,Fairfield,Red,Tiny,A,1
12,CVS PHARMACY # 11007,(203) 498-9442,PCY.0002352,"1,408,430","123 CHURCH ST
CT 06510-2001
(41.306238, -72.925632)",123 CHURCH ST,NEW HAVEN,CT,"123 CHURCH ST, NEW HAVEN, CT",06510-2001,Match,"-72.92561,41.306236",-72.92561,41.306236,New Haven County,Green,Tiny,E,5
13,PLAINVILLE COMMUNITY PHARMACY,(860) 222-9422,PCY.0002355,"1,417,364","170 EAST ST
CT 06062-2913
(41.66387, -72.863749)",170 EAST ST,PLAINVILLE,CT,"170 EAST ST, PLAINVILLE, CT",06062-2913,Match,"-72.86365,41.66411",-72.86365,41.66411,Hartford County,Orange,Tiny,B,2
14,HARTFORD PHARMACY III,(860) 422-8888,PCY.0002350,"1,397,349","33 NEW BRITAIN AVE
CT 06106-3306
(41.746708, -72.684414)",33 NEW BRITAIN AVE,HARTFORD,CT,"33 NEW BRITAIN AVE, HARTFORD, CT",06106-3306,Match,"-72.68431,41.746773",-72.68431,41.746773,Hartford County,Orange,Tiny,B,2
15,HARTFORD PHARMACY II,(860) 244-2222,PCY.0002349,"1,397,348","57 PARK ST
CT 06106-2520
(41.757267, -72.677042)",57 PARK ST,HARTFORD,CT,"57 PARK ST, HARTFORD, CT",06106-2520,Match,"-72.67689,41.75722",-72.67689,41.75722,Hartford County,Orange,Tiny,B,2
16,WALGREENS #07935,(203) 795-6001,PCY.0001073,"246,825","54 BOSTON POST RD
CT 06477-3201
(41.278531, -72.987199)",54 BOSTON POST RD,ORANGE,CT,"54 BOSTON POST RD, ORANGE, CT",06477-3201,Match,"-72.989494,41.27665",-72.989494,41.27665,New Haven County,Green,Tiny,E,5
17,STOP & SHOP PHARMACY #684,860-620-9060,PCY.0001487,"39,106","505 N MAIN ST
CT 06489-2051
(41.614257, -72.873858)",505 N MAIN ST,SOUTHINGTON,CT,"505 N MAIN ST, SOUTHINGTON, CT",06489-2051,Match,"-72.88405,41.591293",-72.88405,41.591293,Hartford County,Orange,Tiny,B,2
18,WALGREENS #11825,(860) 583-3638,PCY.0001251,"283,354","525 FARMINGTON AVE
CT 06010-3931
(41.689947, -72.926047)",525 FARMINGTON AVE,BRISTOL,CT,"525 FARMINGTON AVE, BRISTOL, CT",06010-3931,Match,"-72.92612,41.68992",-72.92612,41.68992,Hartford County,Orange,Tiny,B,2
19,RITE AID  #10348,(860) 666-4079,PCY.0001818,"319,294","40 CEDAR ST
CT 06111-2613
(41.697882, -72.725365)",40 CEDAR ST,NEWINGTON,CT,"40 CEDAR ST, NEWINGTON, CT",06111-2613,Match,"-72.72789,41.69759",-72.72789,41.69759,Hartford County,Orange,Tiny,B,2
20,CVS PHARMACY #2220,(860) 742-3543,PCY.0001837,"342,537","3514 MAIN ST
CT 06238-1551
(41.796848, -72.369144)",3514 MAIN ST,COVENTRY,CT,"3514 MAIN ST, COVENTRY, CT",06238-1551,Match,"-72.369156,41.796852",-72.369156,41.796852,Tolland County,Red,Mid,G,7
21,WALGREENS #07047,(860) 667-0461,PCY.0002012,"414,149","2920 BERLIN TPKE
CT 06111-4116
(41.669193, -72.718035)",2920 BERLIN TPKE,NEWINGTON,CT,"2920 BERLIN TPKE, NEWINGTON, CT",06111-4116,Match,"-72.71922,41.66707",-72.71922,41.66707,Hartford County,Orange,Tiny,B,2
25,BEACON PRESCRIPTIONS #3,(860) 589-5587,PCY.0001016,"37,800","25 COLLINS RD
CT 06010-3893
(41.694697, -72.913212)",25 COLLINS RD,BRISTOL,CT,"25 COLLINS RD, BRISTOL, CT",06010-3893,Match,"-72.913155,41.694874",-72.913155,41.694874,Hartford County,Orange,Tiny,B,2
26,WAL-MART PHARMACY #10-2022,(860) 456-2126,PCY.0001498,"39,110","474 BOSTON POST ROAD
CT 06256
(41.745257, -72.169048)",474 BOSTON POST ROAD,NORTH WINDHAM,CT,"474 BOSTON POST ROAD, NORTH WINDHAM, CT",6256,Match,"-72.168,41.74574",-72.168,41.74574,Windham County,Grey,Big,L,8
27,CVS PHARMACY #1166,(860) 298-5925,PCY.0001685,"129,824","219 BROAD ST
CT 06095-2904
(41.851697, -72.643576)",219 BROAD ST,WINDSOR,CT,"219 BROAD ST, WINDSOR, CT",06095-2904,Match,"-72.64498,41.849007",-72.64498,41.849007,Hartford County,Orange,Tiny,B,2
28,STOP & SHOP PHARMACY #648,(203) 389-8863,PCY.0001470,"39,098","112 AMITY RD
CT 06515-1405
(41.338079, -72.979877)",112 AMITY RD,NEW HAVEN,CT,"112 AMITY RD, NEW HAVEN, CT",06515-1405,Match,"-72.98008,41.338303",-72.98008,41.338303,New Haven County,Green,Tiny,E,5
29,EAST ROCK PHARMACY,203-691-5405,PCY.0002218,"1,025,321","767 ORANGE ST
CT 06511-2534
(41.321335, -72.912262)",767 ORANGE ST,NEW HAVEN,CT,"767 ORANGE ST, NEW HAVEN, CT",06511-2534,Match,"-72.9123,41.321312",-72.9123,41.321312,New Haven County,Green,Tiny,E,5
30,CVS/PHARMACY #17373,(860) 618-4008,PCY.0002099,"480,423","1922 E MAIN ST
CT 06790-3101
(41.821044, -73.075874)",1922 E MAIN ST,TORRINGTON,CT,"1922 E MAIN ST, TORRINGTON, CT",06790-3101,Match,"-73.08068,41.82101",-73.08068,41.82101,Litchfield County,Blue,Mid,C,3
31,BIG Y PHARMACY #87,(203) 484-9530,PCY.0002102,"488,181","1289 FOXON RD
CT 06471-1289
(41.326872, -72.779944)",1289 FOXON RD,NORTH BRANFORD,CT,"1289 FOXON RD, NORTH BRANFORD, CT",06471-1289,Match,"-72.77797,41.32625",-72.77797,41.32625,New Haven County,Green,Tiny,E,5
32,RITE AID  #10345,(860) 623-3327,PCY.0001458,"38,905","74 BRIDGE ST
CT 06088-9679
(41.929499, -72.616514)",74 BRIDGE ST,EAST WINDSOR,CT,"74 BRIDGE ST, EAST WINDSOR, CT",06088-9679,Match,"-72.618034,41.929337",-72.618034,41.929337,Hartford County,Orange,Tiny,B,2
33,WALGREENS #11919,(860) 742-5389,PCY.0002148,"894,719","1630 BOSTON TPKE
CT 06238-1205
(41.798323, -72.371276)",1630 BOSTON TPKE,COVENTRY,CT,"1630 BOSTON TPKE, COVENTRY, CT",06238-1205,Match,"-72.370415,41.798344",-72.370415,41.798344,Tolland County,Red,Mid,G,7
34,PETRICONE'S TORRINGTON PHARMACY,(860) 489-5511,PCY.0000773,"37,561","110 E MAIN ST
CT 06790-5429
(41.802021, -73.118856)",110 E MAIN ST,TORRINGTON,CT,"110 E MAIN ST, TORRINGTON, CT",06790-5429,Match,"-73.12141,41.80253",-73.12141,41.80253,Litchfield County,Blue,Mid,C,3
35,STOP & SHOP PHARMACY #632,(860) 563-4462,PCY.0001307,"38,456","80 TOWN LINE ROAD
CT 06067
(41.682422, -72.657347)",80 TOWN LINE ROAD,ROCKY HILL,CT,"80 TOWN LINE ROAD, ROCKY HILL, CT",6067,Match,"-72.658066,41.682217",-72.658066,41.682217,Hartford County,Orange,Tiny,B,2
36,SEYBRIDGE PHARMACY INC,203-888-0073,PCY.0001292,"38,450","37 NEW HAVEN RD
CT 06483-3460
(41.397087, -73.062539)",37 NEW HAVEN RD,SEYMOUR,CT,"37 NEW HAVEN RD, SEYMOUR, CT",06483-3460,Match,"-73.06294,41.397186",-73.06294,41.397186,New Haven County,Green,Tiny,E,5
37,MEDICINE SHOPPE (THE),,PCY.0000793,"37,563","79 EAST ST
CT 06066-3845
(41.86066, -72.431716)",79 EAST ST,VERNON ROCKVILLE,CT,"79 EAST ST, VERNON ROCKVILLE, CT",06066-3845,Match,"-72.431885,41.862827",-72.431885,41.862827,Tolland County,Red,Mid,G,7
38,CVS PHARMACY #1149,(203) 866-0949,PCY.0001370,"38,671","696 WEST AVE
CT 06850-3302
(41.11512, -73.415068)",696 WEST AVE,NORWALK,CT,"696 WEST AVE, NORWALK, CT",06850-3302,Match,"-73.415,41.1155",-73.415,41.1155,Fairfield,Red,Tiny,A,1
39,WAL-MART PHARMACY #10-2854,(860) 376-0132,PCY.0001783,"281,574","180 RIVER RD
CT 06351-3249
(41.584562, -71.994576)",180 RIVER RD,LISBON,CT,"180 RIVER RD, LISBON, CT",06351-3249,Match,"-71.99501,41.58425",-71.99501,41.58425,New London County,Black,Mid,F,6
40,RITE AID  #3440,(203) 838-6141,PCY.0001488,"317,813","190 EAST AVE
CT 06855-1112
(41.107181, -73.405508)",190 EAST AVE,NORWALK,CT,"190 EAST AVE, NORWALK, CT",06855-1112,Match,"-73.40567,41.10761",-73.40567,41.10761,Fairfield,Red,Tiny,A,1
41,WALGREENS #10058,(203) 845-8767,PCY.0002114,"501,179","235 MAIN ST
CT 06851-2720
(41.130894, -73.423445)",235 MAIN ST,NORWALK,CT,"235 MAIN ST, NORWALK, CT",06851-2720,Match,"-73.423004,41.129997",-73.423004,41.129997,Fairfield,Red,Tiny,A,1
42,WALGREENS #01873,(203) 655-8904,PCY.0000973,"246,051","138 HEIGHTS RD
CT 06820-4119
(41.069088, -73.493943)",138 HEIGHTS RD,DARIEN,CT,"138 HEIGHTS RD, DARIEN, CT",06820-4119,Match,"-73.49615,41.069157",-73.49615,41.069157,Fairfield,Red,Tiny,A,1
43,CVS/PHARMACY #17034,(203) 859-3491,PCY.0001896,"381,719","200 UNIVERSAL DR N
CT 06473-3156
(41.354797, -72.87176)",200 UNIVERSAL DR N,NORTH HAVEN,CT,"200 UNIVERSAL DR N, NORTH HAVEN, CT",06473-3156,Match,"-72.87157,41.366985",-72.87157,41.366985,New Haven County,Green,Tiny,E,5
44,STOP & SHOP #623,(860) 346-0160,PCY.0001429,"245,843","416 E MAIN ST
CT 06457-4555
(41.545851, -72.638978)",416 E MAIN ST,MIDDLETOWN,CT,"416 E MAIN ST, MIDDLETOWN, CT",06457-4555,Match,"-72.64963,41.560295",-72.64963,41.560295,Middlesex County,Purple,Small,D,4
45,CVS PHARMACY #1242,(860) 651-1440,PCY.0001422,"246,860","714 HOPMEADOW ST
CT 06070-2234
(41.872036, -72.802877)",714 HOPMEADOW ST,SIMSBURY,CT,"714 HOPMEADOW ST, SIMSBURY, CT",06070-2234,Match,"-72.8021,41.87391",-72.8021,41.87391,Hartford County,Orange,Tiny,B,2
46,SALEM PHARMACY LLC,(860) 949-8624,PCY.0002252,"1,121,463","24 HARTFORD RD
CT 06420-3841
(41.478007, -72.266551)",24 HARTFORD RD UNIT 11,SALEM,CT,"24 HARTFORD RD UNIT 11, SALEM, CT",06420-3841,Match,"-72.2651,41.47705",-72.2651,41.47705,New London County,Black,Mid,F,6
47,RITE AID  #1790,(203) 573-0378,PCY.0001300,"247,749","141 MERIDEN RD
CT 06705-1937
(41.549564, -73.013867)",141 MERIDEN RD,WATERBURY,CT,"141 MERIDEN RD, WATERBURY, CT",06705-1937,Match,"-73.01376,41.549572",-73.01376,41.549572,New Haven County,Green,Tiny,E,5
48,RITE AID  #10385,(203) 748-4134,PCY.0001162,"38,211","1 PADANARAM RD
STE B, CT 06811-4836
(41.413006, -73.457791)",1 PADANARAM RD STE B,DANBURY,CT,"1 PADANARAM RD STE B, DANBURY, CT",06811-4836,Match,"-73.458824,41.413925",-73.458824,41.413925,Fairfield,Red,Tiny,A,1
49,CVS/PHARMACY #17072,(203) 455-0103,PCY.0001956,"394,034","120 HAWLEY LN
CT 06611-5347
(41.232987, -73.149952)",120 HAWLEY LN,TRUMBULL,CT,"120 HAWLEY LN, TRUMBULL, CT",06611-5347,Match,"-73.14976,41.23345",-73.14976,41.23345,Fairfield,Red,Tiny,A,1
50,CVS PHARMACY #2258,(203) 323-1293,PCY.0002313,"1,280,407","537 CANAL ST
CT 06902-5901
(41.047213, -73.534077)",537 CANAL ST,STAMFORD,CT,"537 CANAL ST, STAMFORD, CT",06902-5901,Match,"-73.53392,41.04706",-73.53392,41.04706,Fairfield,Red,Tiny,A,1
51,WALGREENS  #05407,(860) 649-8899,PCY.0001247,"38,245","295 MAIN ST
CT 06040-4128
(41.782905, -72.523)",295 MAIN ST,MANCHESTER,CT,"295 MAIN ST, MANCHESTER, CT",06040-4128,Match,"-72.52304,41.78297",-72.52304,41.78297,Hartford County,Orange,Tiny,B,2
52,CVS PHARMACY #3795,(203) 762-5020,PCY.0001787,"284,296","93 OLD RIDGEFIELD RD
CT 06897-3023
(41.19402, -73.431933)",93 OLD RIDGEFIELD RD,WILTON,CT,"93 OLD RIDGEFIELD RD, WILTON, CT",06897-3023,Match,"-73.439125,41.195686",-73.439125,41.195686,Fairfield,Red,Tiny,A,1
53,CONNECTICUT PHARMACY,(203) 518-1146,PCY.0002254,"1,132,647","664 MAIN AVE
CT 06851-1162
(41.160168, -73.41903)",664 MAIN AVE UNIT B102,NORWALK,CT,"664 MAIN AVE UNIT B102, NORWALK, CT",06851-1162,Match,"-73.424675,41.152397",-73.424675,41.152397,Fairfield,Red,Tiny,A,1
54,CVS PHARMACY #172,(203) 488-9485,PCY.0001414,"38,880","2 6 SHORT BEACH RD
CT 06405-6233
(41.274835, -72.830135)",2-6 SHORT BEACH RD,BRANFORD,CT,"2-6 SHORT BEACH RD, BRANFORD, CT",06405-6233,Match,"-72.83016,41.274967",-72.83016,41.274967,New Haven County,Green,Tiny,E,5
55,RITE AID #198,(860) 528-6115,PCY.0001163,"249,882","329 ELLINGTON RD
CT 06108-1141
(41.79667, -72.620379)",329 ELLINGTON RD,EAST HARTFORD,CT,"329 ELLINGTON RD, EAST HARTFORD, CT",06108-1141,Match,"-72.620674,41.796642",-72.620674,41.796642,Hartford County,Orange,Tiny,B,2
56,WESTOWN PHARMACY,(860) 649-9946,PCY.0000819,"37,567","455 HARTFORD RD
CT 06040
(41.764502, -72.541476)",455 HARTFORD RD,MANCHESTER,CT,"455 HARTFORD RD, MANCHESTER, CT",6040,Match,"-72.541374,41.764484",-72.541374,41.764484,Hartford County,Orange,Tiny,B,2
57,STOP & SHOP PHARMACY #662,203-849-8735,PCY.0001574,"167,371","380 MAIN AVE
CT 06851-1553
(41.141317, -73.425784)",380 MAIN AVE,NORWALK,CT,"380 MAIN AVE, NORWALK, CT",06851-1553,Match,"-73.42617,41.13888",-73.42617,41.13888,Fairfield,Red,Tiny,A,1
59,CVS PHARMACY #1202,(860) 653-4221,PCY.0001484,"342,548","20 BANK ST
CT 06035-2302
(41.952045, -72.785463)",20 BANK ST,GRANBY,CT,"20 BANK ST, GRANBY, CT",06035-2302,Match,"-72.7852,41.95299",-72.7852,41.95299,Hartford County,Orange,Tiny,B,2
61,WAL-MART PHARMACY #10-2331,(860) 447-3747,PCY.0001581,"168,757","155 WATERFORD PARKWAY NORTH
CT 06385
(41.368601, -72.156172)",155 WATERFORD PARKWAY NORTH,WATERFORD,CT,"155 WATERFORD PARKWAY NORTH, WATERFORD, CT",6385,Match,"-72.16108,41.368256",-72.16108,41.368256,New London County,Black,Mid,F,6
62,WALGREENS #04490,(860) 721-7224,PCY.0000951,"37,780","1100 SILAS DEANE HWY
CT 06109-4232
(41.691923, -72.656144)",1100 SILAS DEANE HWY,WETHERSFIELD,CT,"1100 SILAS DEANE HWY, WETHERSFIELD, CT",06109-4232,Match,"-72.65587,41.690376",-72.65587,41.690376,Hartford County,Orange,Tiny,B,2
63,WALGREENS #12338,(860) 704-0135,PCY.0002173,"924,322","311 E MAIN ST
CT 06457-4556
(41.548392, -72.639327)",311 E MAIN ST,MIDDLETOWN,CT,"311 E MAIN ST, MIDDLETOWN, CT",06457-4556,Match,"-72.64848,41.558548",-72.64848,41.558548,Middlesex County,Purple,Small,D,4
64,WALGREENS #07641,(860) 621-3729,PCY.0001901,"382,800","359 MAIN ST
CT 06489-4538
(41.593975, -72.88042)",359 MAIN ST,SOUTHINGTON,CT,"359 MAIN ST, SOUTHINGTON, CT",06489-4538,Match,"-72.88234,41.593433",-72.88234,41.593433,Hartford County,Orange,Tiny,B,2
65,CVS PHARMACY #1051,(203) 967-4600,PCY.0001343,"38,654","593 NEWFIELD AVE
CT 06905-3302
(41.080471, -73.5339)",593 NEWFIELD AVE,STAMFORD,CT,"593 NEWFIELD AVE, STAMFORD, CT",06905-3302,Match,"-73.53388,41.078533",-73.53388,41.078533,Fairfield,Red,Tiny,A,1
66,RITE AID  #10367,(203) 874-0845,PCY.0001159,"225,199","1387 NEW HAVEN AVE
CT 06460-8159
(41.228629, -72.996672)",1387 NEW HAVEN AVE,MILFORD,CT,"1387 NEW HAVEN AVE, MILFORD, CT",06460-8159,Match,"-72.99574,41.228817",-72.99574,41.228817,New Haven County,Green,Tiny,E,5
67,CVS PHARMACY #1268,(860) 443-1244,PCY.0001489,"39,107","106 BOSTON POST RD
CT 06385-2426
(41.341993, -72.123903)",106 BOSTON POST RD,WATERFORD,CT,"106 BOSTON POST RD, WATERFORD, CT",06385-2426,Match,"-72.124084,41.34204",-72.124084,41.34204,New London County,Black,Mid,F,6
68,WALGREENS #06503,(203) 876-7643,PCY.0001810,"316,867","541 BRIDGEPORT AVE
CT 06460-4203
(41.206888, -73.088806)",541 BRIDGEPORT AVE,MILFORD,CT,"541 BRIDGEPORT AVE, MILFORD, CT",06460-4203,Match,"-73.08802,41.207195",-73.08802,41.207195,New Haven County,Green,Tiny,E,5
69,CVS PHARMACY #1080,(860) 443-5359,PCY.0001359,"38,662","817 BANK ST
CT 06320-3503
(41.348725, -72.10706)",817 BANK ST,NEW LONDON,CT,"817 BANK ST, NEW LONDON, CT",06320-3503,Match,"-72.10715,41.348713",-72.10715,41.348713,New London County,Black,Mid,F,6
70,COMPOUNDED SOLUTIONS IN PHARMACY LLC,(203) 268-4964,PCY.0001717,"217,178","810 MAIN ST
CT 06468-2809
(41.346973, -73.259732)",810 MAIN ST,MONROE,CT,"810 MAIN ST, MONROE, CT",06468-2809,Match,"-73.25968,41.345787",-73.25968,41.345787,Fairfield,Red,Tiny,A,1
71,CVS PHARMACY #1028,8606217371,PCY.0001495,"39,109","724 QUEEN STREET
CT 06489
(41.635977, -72.873698)",724 QUEEN STREET,SOUTHINGTON,CT,"724 QUEEN STREET, SOUTHINGTON, CT",6489,Match,"-72.873726,41.63652",-72.873726,41.63652,Hartford County,Orange,Tiny,B,2
72,W H PICKETT DRUG CO,(203) 753-5158,PCY.0000421,"244,522","675 N MAIN ST
CT 06704-3508
(41.562919, -73.032633)",675 N MAIN ST,WATERBURY,CT,"675 N MAIN ST, WATERBURY, CT",06704-3508,Match,"-73.03275,41.56271",-73.03275,41.56271,New Haven County,Green,Tiny,E,5
73,CONNECTICUT PHARMACY MEDICAL SUPPLY,(203) 939-1790,PCY.0000434,"37,319","664 MAIN AVE
CT 06851-1162
(41.160168, -73.41903)",664 MAIN AVE UNIT B101,NORWALK,CT,"664 MAIN AVE UNIT B101, NORWALK, CT",06851-1162,Match,"-73.424675,41.152397",-73.424675,41.152397,Fairfield,Red,Tiny,A,1
75,WAL-MART PHARMACY  #10-2900,(860) 563-4322,PCY.0001749,"245,434","80 TOWN LINE RD
CT 06067-1249
(41.650093, -72.878086)",80 TOWN LINE RD,ROCKY HILL,CT,"80 TOWN LINE RD, ROCKY HILL, CT",06067-1249,Match,"-72.658066,41.682217",-72.658066,41.682217,Hartford County,Orange,Tiny,B,2
76,PEOPLES MEDICAL & PHARMACY,(203) 287-7375,PCY.0001636,"179,324","445 WASHINGTON AVE
CT 06473-1320
(41.411353, -72.842146)",445 WASHINGTON AVE,NORTH HAVEN,CT,"445 WASHINGTON AVE, NORTH HAVEN, CT",06473-1320,Match,"-72.841,41.41535",-72.841,41.41535,New Haven County,Green,Tiny,E,5
77,STOP & SHOP PHARMACY #607,(860) 651-9843,PCY.0001486,"39,105","498 BUSHY HILL RD
CT 06070-2931
(41.820736, -72.864549)",498 BUSHY HILL RD,SIMSBURY,CT,"498 BUSHY HILL RD, SIMSBURY, CT",06070-2931,Match,"-72.85937,41.822582",-72.85937,41.822582,Hartford County,Orange,Tiny,B,2
78,RITE AID  #1404,(203) 797-0223,PCY.0001224,"38,236","30 GERMANTOWN RD
CT 06810-5033
(41.41131, -73.435761)",30 GERMANTOWN RD,DANBURY,CT,"30 GERMANTOWN RD, DANBURY, CT",06810-5033,Match,"-73.43568,41.410046",-73.43568,41.410046,Fairfield,Red,Tiny,A,1
80,MAIN STREET PHARMACY 3 LLC,(203) 870-9902,PCY.0002190,"950,661","2117 BOSTON AVE
CT 06610-3030
(41.192539, -73.155251)",2117 BOSTON AVE,BRIDGEPORT,CT,"2117 BOSTON AVE, BRIDGEPORT, CT",06610-3030,Match,"-73.15514,41.19256",-73.15514,41.19256,Fairfield,Red,Tiny,A,1
82,RITE AID  #10340,(860) 242-5551,PCY.0000066,"36,890","835 PARK AVE
CT 06002-2469
(41.829949, -72.735067)",835 PARK AVE,BLOOMFIELD,CT,"835 PARK AVE, BLOOMFIELD, CT",06002-2469,Match,"-72.735306,41.830044",-72.735306,41.830044,Hartford County,Orange,Tiny,B,2
83,RITE AID  #2574,(203) 877-6774,PCY.0001154,"225,198","1360 BOSTON POST RD
CT 06460-2704
(41.24011, -73.034328)",1360 BOSTON POST RD,MILFORD,CT,"1360 BOSTON POST RD, MILFORD, CT",06460-2704,Match,"-73.034775,41.239666",-73.034775,41.239666,New Haven County,Green,Tiny,E,5
84,STOP & SHOP PHARMACY #613,(860) 871-1053,PCY.0001645,"187,385","10 PITKIN RD
CT 06066-4709
(41.830649, -72.492605)",10 PITKIN RD,VERNON,CT,"10 PITKIN RD, VERNON, CT",06066-4709,Match,"-72.49402,41.83041",-72.49402,41.83041,Tolland County,Red,Mid,G,7
85,CVS PHARMACY #10462,,PCY.0002297,"1,227,898","720 BRANCHVILLE RD
CT 06877-6129
(41.267828, -73.442861)",720 BRANCHVILLE RD,RIDGEFIELD,CT,"720 BRANCHVILLE RD, RIDGEFIELD, CT",06877-6129,Match,"-73.4436,41.267952",-73.4436,41.267952,Fairfield,Red,Tiny,A,1
86,CVS PHARMACY #2584,(203) 931-4541,PCY.0001766,"248,978","252 ORANGE AVE
CT 06516-2003
(41.294972, -72.958739)",252 ORANGE AVE,WEST HAVEN,CT,"252 ORANGE AVE, WEST HAVEN, CT",06516-2003,Match,"-72.956856,41.296085",-72.956856,41.296085,New Haven County,Green,Tiny,E,5
87,NORTH HAVEN PHARMACY,(203) 239-2086,PCY.0000702,"37,547","278 MAPLE AVE
CT 06473-3326
(41.370443, -72.852234)",278 MAPLE AVE,NORTH HAVEN,CT,"278 MAPLE AVE, NORTH HAVEN, CT",06473-3326,Match,"-72.85211,41.37155",-72.85211,41.37155,New Haven County,Green,Tiny,E,5
88,CVS PHARMACY #854,(203) 847-6057,PCY.0001283,"38,444","327 MAIN AVE
CT 06851-6156
(41.13677, -73.424916)",327 MAIN AVE,NORWALK,CT,"327 MAIN AVE, NORWALK, CT",06851-6156,Match,"-73.42608,41.139904",-73.42608,41.139904,Fairfield,Red,Tiny,A,1
89,CVS PHARMACY #1280,(203) 862-9320,PCY.0001432,"38,890","99 GREENWICH AVE
CT 06830-5511
(41.029308, -73.626423)",99 GREENWICH AVE,GREENWICH,CT,"99 GREENWICH AVE, GREENWICH, CT",06830-5511,Match,"-73.62642,41.029327",-73.62642,41.029327,Fairfield,Red,Tiny,A,1
91,CVS/PHARMACY #16872,(203) 448-1030,PCY.0001897,"381,727","21 BROAD ST
CT 06901-2309
(41.055491, -73.541493)",21 BROAD ST,STAMFORD,CT,"21 BROAD ST, STAMFORD, CT",06901-2309,Match,"-73.54131,41.055492",-73.54131,41.055492,Fairfield,Red,Tiny,A,1
92,WHALLEY DRUG,(203) 843-5022,PCY.0002327,"1,323,070","399 WHALLEY AVE
CT 06511-3008
(41.318105, -72.946527)",399 WHALLEY AVE,NEW HAVEN,CT,"399 WHALLEY AVE, NEW HAVEN, CT",06511-3008,Match,"-72.946266,41.318085",-72.946266,41.318085,New Haven County,Green,Tiny,E,5
93,STOP & SHOP PHARMACY #621,(203) 262-4559,PCY.0002018,"416,692","100 MAIN ST N
CT 06488-3839
(41.479314, -73.213302)",100 MAIN ST N,SOUTHBURY,CT,"100 MAIN ST N, SOUTHBURY, CT",06488-3839,Match,"-73.21284,41.478207",-73.21284,41.478207,New Haven County,Green,Tiny,E,5
95,CVS PHARMACY #10100,(860) 273-3171,PCY.0002225,"1,041,043","151 FARMINGTON AVE
CT 06156-0001
(41.768046, -72.688425)",151 FARMINGTON AVE,HARTFORD,CT,"151 FARMINGTON AVE, HARTFORD, CT",06156-0001,Match,"-72.69145,41.767925",-72.69145,41.767925,Hartford County,Orange,Tiny,B,2
96,CVS PHARMACY #953,(860) 675-9210,PCY.0001323,"38,466","45 S MAIN ST
CT 06085-1278
(41.75666, -72.886786)",45 S MAIN ST,UNIONVILLE,CT,"45 S MAIN ST, UNIONVILLE, CT",06085-1278,Match,"-72.88791,41.7588",-72.88791,41.7588,Hartford County,Orange,Tiny,B,2
97,ARROW PRESCRIPTION CENTER #12,(860) 522-9289,PCY.0000347,"37,126","500 FARMINGTON AVE
CT 06105-3106
(41.766539, -72.708405)",500 FARMINGTON AVE,HARTFORD,CT,"500 FARMINGTON AVE, HARTFORD, CT",06105-3106,Match,"-72.70852,41.766556",-72.70852,41.766556,Hartford County,Orange,Tiny,B,2
98,CVS PHARMACY #941,(203) 933-5499,PCY.0001326,"38,467","844 JONES HILL RD
CT 06516-5643
(41.259986, -72.96539)",844 JONES HILL RD,WEST HAVEN,CT,"844 JONES HILL RD, WEST HAVEN, CT",06516-5643,Match,"-72.96538,41.26",-72.96538,41.26,New Haven County,Green,Tiny,E,5
99,HARTFORD HOSPITAL,860-727-1123,PCY.0001282,"283,062","85 SEYMOUR ST
CT 06106-5501
(41.754453, -72.680755)",85 SEYMOUR ST,HARTFORD,CT,"85 SEYMOUR ST, HARTFORD, CT",06106-5501,Match,"-72.68068,41.75521",-72.68068,41.75521,Hartford County,Orange,Tiny,B,2
100,WALGREENS #10309,203-488-9059,PCY.0002100,"483,286","1036 W MAIN ST
CT 06405-3428
(41.275176, -72.832044)",1036 W MAIN ST,BRANFORD,CT,"1036 W MAIN ST, BRANFORD, CT",06405-3428,Match,"-72.8109,41.282166",-72.8109,41.282166,New Haven County,Green,Tiny,E,5
101,CVS PHARMACY #2143,(203) 371-1280,PCY.0001587,"174,280","3710 MAIN ST
CT 06606-3613
(41.211896, -73.210154)",3710 MAIN ST,BRIDGEPORT,CT,"3710 MAIN ST, BRIDGEPORT, CT",06606-3613,Match,"-73.210655,41.212402",-73.210655,41.212402,Fairfield,Red,Tiny,A,1
102,CVS PHARMACY #6807,(203) 237-8997,PCY.0000423,"344,688","153 BROAD ST
CT 06450-6550
(41.525661, -72.799439)",153 BROAD ST,MERIDEN,CT,"153 BROAD ST, MERIDEN, CT",06450-6550,Match,"-72.79972,41.525204",-72.79972,41.525204,New Haven County,Green,Tiny,E,5
103,WAL-MART PHARMACY #10-2284,203-729-2288,PCY.0001640,"184,945","1100 NEW HAVEN RD
CT 06770-5016
(41.469293, -73.028961)",1100 NEW HAVEN RD,NAUGATUCK,CT,"1100 NEW HAVEN RD, NAUGATUCK, CT",06770-5016,Match,"-73.02747,41.46904",-73.02747,41.46904,New Haven County,Green,Tiny,E,5
104,CVS PHARMACY #4436,(860) 533-1156,PCY.0002142,"532,330","241 MIDDLE TPKE W
CT 06040-3834
(41.781296, -72.536396)",241 MIDDLE TPKE W,MANCHESTER,CT,"241 MIDDLE TPKE W, MANCHESTER, CT",06040-3834,Match,"-72.53657,41.78129",-72.53657,41.78129,Hartford County,Orange,Tiny,B,2
107,CVS PHARMACY #1060,(860) 621-1996,PCY.0001351,"38,659","326 MAIN ST
CT 06489-2508
(41.594212, -72.879411)",326 MAIN ST,SOUTHINGTON,CT,"326 MAIN ST, SOUTHINGTON, CT",06489-2508,Match,"-72.87917,41.59431",-72.87917,41.59431,Hartford County,Orange,Tiny,B,2
108,WALGREENS #07750,(860) 231-7665,PCY.0002011,"414,142","940 QUAKER LN S
CT 06110-1458
(41.733232, -72.731177)",940 QUAKER LN S,WEST HARTFORD,CT,"940 QUAKER LN S, WEST HARTFORD, CT",06110-1458,Match,"-72.7311,41.73365",-72.7311,41.73365,Hartford County,Orange,Tiny,B,2
109,WALGREENS #07584,(203) 932-9311,PCY.0001313,"38,463","394 CAMPBELL AVE
CT 06516-5012
(41.269068, -72.948726)",394 CAMPBELL AVE,WEST HAVEN,CT,"394 CAMPBELL AVE, WEST HAVEN, CT",06516-5012,Match,"-72.94861,41.268677",-72.94861,41.268677,New Haven County,Green,Tiny,E,5
110,HANCOCK PHARMACY AT LONG WHARF INC,(203) 787-9908,PCY.0002211,"993,487","1 LONG WHARF DR
CT 06511-5991
(41.288558, -72.929033)",1 LONG WHARF DR STE 116,NEW HAVEN,CT,"1 LONG WHARF DR STE 116, NEW HAVEN, CT",06511-5991,Match,"-72.92726,41.288307",-72.92726,41.288307,New Haven County,Green,Tiny,E,5
111,CVS PHARMACY #2219,(860) 258-4963,PCY.0001734,"223,547","2427 MAIN ST
CT 06067-2503
(41.662461, -72.639088)",2427 MAIN ST,ROCKY HILL,CT,"2427 MAIN ST, ROCKY HILL, CT",06067-2503,Match,"-72.639114,41.66173",-72.639114,41.66173,Hartford County,Orange,Tiny,B,2
112,CVS PHARMACY #71,(203) 783-9058,PCY.0002116,"501,304","989 BOSTON POST RD
CT 06460-3531
(41.231796, -73.047211)",989 BOSTON POST RD,MILFORD,CT,"989 BOSTON POST RD, MILFORD, CT",06460-3531,Match,"-73.04728,41.231777",-73.04728,41.231777,New Haven County,Green,Tiny,E,5
113,RITE AID  #1033,(203) 865-3179,PCY.0000931,"37,773","85 MIDDLETOWN AVE
CT 06473-3927
(41.34023, -72.863418)",85 MIDDLETOWN AVE,NORTH HAVEN,CT,"85 MIDDLETOWN AVE, NORTH HAVEN, CT",06473-3927,Match,"-72.89096,41.32072",-72.89096,41.32072,New Haven County,Green,Tiny,E,5
115,RITE AID  #3264,(203) 469-4609,PCY.0001456,"247,613","10 HEMINGWAY AVE
CT 06512-3404
(41.266838, -72.872485)",10 HEMINGWAY AVE,EAST HAVEN,CT,"10 HEMINGWAY AVE, EAST HAVEN, CT",06512-3404,Match,"-72.87248,41.266983",-72.87248,41.266983,New Haven County,Green,Tiny,E,5
116,STOP & SHOP PHARMACY #636,2032700827,PCY.0001394,"38,871","228 SOUTH MAIN STREET
CT 06470
(41.373447, -73.271551)",228 SOUTH MAIN STREET,NEWTOWN,CT,"228 SOUTH MAIN STREET, NEWTOWN, CT",6470,Match,"-73.271545,41.374634",-73.271545,41.374634,Fairfield,Red,Tiny,A,1
117,GREENVILLE DRUG STORE,(860) 889-9857,PCY.0000731,"247,253","213 CENTRAL AVE
CT 06360-3801
(41.533513, -72.056734)",213 CENTRAL AVE,NORWICH,CT,"213 CENTRAL AVE, NORWICH, CT",06360-3801,Match,"-72.056694,41.533485",-72.056694,41.533485,New London County,Black,Mid,F,6
118,CVS PHARMACY #6702,(203) 422-2022,PCY.0002226,"1,041,537","644 W PUTNAM AVE
CT 06830-6088
(41.017195, -73.647863)",644 W PUTNAM AVE,GREENWICH,CT,"644 W PUTNAM AVE, GREENWICH, CT",06830-6088,Match,"-73.64724,41.017525",-73.64724,41.017525,Fairfield,Red,Tiny,A,1
120,BUNKER HILL PHARMACY,(203) 574-7825,PCY.0000274,"37,113","256 BUNKER HILL AVE
CT 06708-2253
(41.569706, -73.064602)",256 BUNKER HILL AVE,WATERBURY,CT,"256 BUNKER HILL AVE, WATERBURY, CT",06708-2253,Match,"-73.06437,41.569508",-73.06437,41.569508,New Haven County,Green,Tiny,E,5
121,CVS PHARMACY #692,(203) 239-4071,PCY.0001211,"225,201","162 WASHINGTON AVE
CT 06473-1711
(41.398105, -72.853119)",162 WASHINGTON AVE,NORTH HAVEN,CT,"162 WASHINGTON AVE, NORTH HAVEN, CT",06473-1711,Match,"-72.85461,41.396687",-72.85461,41.396687,New Haven County,Green,Tiny,E,5
122,WAL-MART PHARMACY #10-5439,(203) 467-7637,PCY.0001873,"368,470","315 FOXON BLVD
CT 06513-2355
(41.321657, -72.87616)",315 FOXON BLVD,NEW HAVEN,CT,"315 FOXON BLVD, NEW HAVEN, CT",06513-2355,Match,"-72.881386,41.323772",-72.881386,41.323772,New Haven County,Green,Tiny,E,5
125,STOP & SHOP PHARMACY #656,(203) 438-0340,PCY.0001926,"387,749","125 DANBURY ROAD; ROUTE
CT 06877
(41.294583, -73.492898)",125 DANBURY ROAD; ROUTE #35,RIDGEFIELD,CT,"125 DANBURY ROAD; ROUTE #35, RIDGEFIELD, CT",6877,Match,"-73.493,41.293583",-73.493,41.293583,Fairfield,Red,Tiny,A,1
126,RITE AID  #1155,(860) 649-9110,PCY.0001184,"247,752","335 CENTER ST
CT 06040-3922
(41.772523, -72.533752)",335 CENTER ST,MANCHESTER,CT,"335 CENTER ST, MANCHESTER, CT",06040-3922,Match,"-72.53466,41.772484",-72.53466,41.772484,Hartford County,Orange,Tiny,B,2
127,WALGREENS #09820,(203) 238-0910,PCY.0002106,"491,226","825 E MAIN ST
CT 06450-6064
(41.528697, -72.776175)",825 E MAIN ST,MERIDEN,CT,"825 E MAIN ST, MERIDEN, CT",06450-6064,Match,"-72.85283,41.524837",-72.85283,41.524837,New Haven County,Green,Tiny,E,5
128,CVS PHARMACY #348,(860) 529-2535,PCY.0000903,"37,768","1078 SILAS DEANE HWY
CT 06109-4231
(41.692707, -72.656335)",1078 SILAS DEANE HWY,WETHERSFIELD,CT,"1078 SILAS DEANE HWY, WETHERSFIELD, CT",06109-4231,Match,"-72.65611,41.691814",-72.65611,41.691814,Hartford County,Orange,Tiny,B,2
129,"GENOA HEALTHCARE,LLC",203-301-8861,PCY.0002269,"1,169,257","941 BRIDGEPORT AVE
CT 06460-3142
(41.214773, -73.074076)",941 BRIDGEPORT AVE STE M5,MILFORD,CT,"941 BRIDGEPORT AVE STE M5, MILFORD, CT",06460-3142,Match,"-73.0741,41.214733",-73.0741,41.214733,New Haven County,Green,Tiny,E,5
130,CVS PHARMACY #1912,(203) 366-8070,PCY.0001478,"310,359","1968 BLACK ROCK TPKE
CT 06825-3543
(41.18085, -73.24946)",1968 BLACK ROCK TPKE,FAIRFIELD,CT,"1968 BLACK ROCK TPKE, FAIRFIELD, CT",06825-3543,Match,"-73.24888,41.18065",-73.24888,41.18065,Fairfield,Red,Tiny,A,1
131,CVS PHARMACY #2896,(860) 344-1320,PCY.0002128,"517,666","675 WASHINGTON ST
CT 06457-2901
(41.55474, -72.674331)",675 WASHINGTON ST,MIDDLETOWN,CT,"675 WASHINGTON ST, MIDDLETOWN, CT",06457-2901,Match,"-72.67468,41.554707",-72.67468,41.554707,Middlesex County,Purple,Small,D,4
132,WALGREENS #09785,(203) 777-8001,PCY.0001349,"38,656","436 WHALLEY AVE
CT 06511-3012
(41.31855, -72.947771)",436 WHALLEY AVE,NEW HAVEN,CT,"436 WHALLEY AVE, NEW HAVEN, CT",06511-3012,Match,"-72.94781,41.318615",-72.94781,41.318615,New Haven County,Green,Tiny,E,5
133,CVS PHARMACY #775,(203) 287-0835,PCY.0001252,"38,432","2045 DIXWELL AVE
CT 06514-2405
(41.367758, -72.920209)",2045 DIXWELL AVE,HAMDEN,CT,"2045 DIXWELL AVE, HAMDEN, CT",06514-2405,Match,"-72.920425,41.36748",-72.920425,41.36748,New Haven County,Green,Tiny,E,5
134,WAL-MART STORE #3543,(203) 791-1929,PCY.0001820,"319,305","67 NEWTOWN RD
CT 06810-6272
(41.406755, -73.417427)",67 NEWTOWN RD,DANBURY,CT,"67 NEWTOWN RD, DANBURY, CT",06810-6272,Match,"-73.41823,41.40622",-73.41823,41.40622,Fairfield,Red,Tiny,A,1
135,WALGREENS #03523,(203) 791-0405,PCY.0001577,"165,889","75 MAIN ST
CT 06810-7802
(41.390774, -73.448122)",75 MAIN ST,DANBURY,CT,"75 MAIN ST, DANBURY, CT",06810-7802,Match,"-73.44831,41.391075",-73.44831,41.391075,Fairfield,Red,Tiny,A,1
136,CVS PHARMACY #2022,(860) 668-5115,PCY.0000899,"37,767","163 MOUNTAIN RD
CT 06078-2005
(41.779798, -72.490156)",163 MOUNTAIN RD,SUFFIELD,CT,"163 MOUNTAIN RD, SUFFIELD, CT",06078-2005,Match,"-72.65802,41.983665",-72.65802,41.983665,Hartford County,Orange,Tiny,B,2
137,PHARMERICA,800-282-4321,PCY.0001654,"287,079","77 OLD BRICKYARD LN
CT 06037-1423
(41.634256, -72.758699)",77 OLD BRICKYARD LN,BERLIN,CT,"77 OLD BRICKYARD LN, BERLIN, CT",06037-1423,Match,"-72.75958,41.636246",-72.75958,41.636246,Hartford County,Orange,Tiny,B,2
138,WALGREENS #07759,(860) 405-1919,PCY.0001900,"382,793","441 LONG HILL RD
CT 06340-4149
(41.3548, -72.060484)",441 LONG HILL RD,GROTON,CT,"441 LONG HILL RD, GROTON, CT",06340-4149,Match,"-72.06059,41.354958",-72.06059,41.354958,New London County,Black,Mid,F,6
139,CONNECTICUT PHARMACY OF MADISON,(203) 421-2132,PCY.0002300,"1,239,702","200 BOSTON POST RD
CT 06443-2144
(41.281099, -72.630536)",200 BOSTON POST RD STE 9,MADISON,CT,"200 BOSTON POST RD STE 9, MADISON, CT",06443-2144,Match,"-72.63067,41.28121",-72.63067,41.28121,New Haven County,Green,Tiny,E,5
140,CVS PHARMACY #1180,(860) 678-8605,PCY.0001378,"38,678","358 W MAIN ST
CT 06001-3643
(41.815143, -72.860885)",358 W MAIN ST,AVON,CT,"358 W MAIN ST, AVON, CT",06001-3643,Match,"-72.86183,41.81537",-72.86183,41.81537,Hartford County,Orange,Tiny,B,2
141,BIG Y PHARMACY #61,(860) 445-7719,PCY.0001203,"38,224","995 POQUONNOCK ROAD
CT 06340
(41.346324, -72.048843)",995 POQUONNOCK ROAD,GROTON,CT,"995 POQUONNOCK ROAD, GROTON, CT",6340,Match,"-72.052986,41.345863",-72.052986,41.345863,New London County,Black,Mid,F,6
142,CVS PHARMACY #459,(860) 659-1329,PCY.0001165,"38,212","2639 MAIN ST
CT 06033-2023
(41.715548, -72.611078)",2639 MAIN ST,GLASTONBURY,CT,"2639 MAIN ST, GLASTONBURY, CT",06033-2023,Match,"-72.61105,41.715446",-72.61105,41.715446,Hartford County,Orange,Tiny,B,2
145,RITE AID  #10378,(860) 589-7713,PCY.0001221,"38,234","8 S MAIN ST
STE A, CT 06786-6235
(41.677936, -73.011359)",8 S MAIN ST STE A,TERRYVILLE,CT,"8 S MAIN ST STE A, TERRYVILLE, CT",06786-6235,Match,"-72.99685,41.679394",-72.99685,41.679394,Litchfield County,Blue,Mid,C,3
146,WALGREENS #09612,(203) 225-0296,PCY.0002060,"438,884","700 BRIDGEPORT AVE
CT 06484-4734
(41.276547, -73.122473)",700 BRIDGEPORT AVE,SHELTON,CT,"700 BRIDGEPORT AVE, SHELTON, CT",06484-4734,Match,"-73.12213,41.27687",-73.12213,41.27687,Fairfield,Red,Tiny,A,1
147,CVS PHARMACY #691,(860) 667-1888,PCY.0001229,"246,428","1181 MAIN ST
CT 06111-3033
(41.695636, -72.722782)",1181 MAIN ST,NEWINGTON,CT,"1181 MAIN ST, NEWINGTON, CT",06111-3033,Match,"-72.72279,41.69545",-72.72279,41.69545,Hartford County,Orange,Tiny,B,2
148,WALGREENS #06992,(860) 871-6068,PCY.0001856,"358,444","529 TALCOTTVILLE RD
CT 06066-2311
(41.850998, -72.483792)",529 TALCOTTVILLE RD,VERNON ROCKVILLE,CT,"529 TALCOTTVILLE RD, VERNON ROCKVILLE, CT",06066-2311,Match,"-72.48372,41.85122",-72.48372,41.85122,Tolland County,Red,Mid,G,7
149,NEW CANAAN PHARMACY,(203) 920-1385,PCY.0002292,"1,215,066","44 EAST AVE
CT 06840-5518
(41.147668, -73.49005)",44 EAST AVE,NEW CANAAN,CT,"44 EAST AVE, NEW CANAAN, CT",06840-5518,Match,"-73.49065,41.14771",-73.49065,41.14771,Fairfield,Red,Tiny,A,1
150,CIRCLE CARE CENTER PHARMACY,(203) 957-3366,PCY.0002249,"1,117,887","618 WEST AVE
CT 06850-4008
(41.113555, -73.415538)",618 WEST AVE,NORWALK,CT,"618 WEST AVE, NORWALK, CT",06850-4008,Match,"-73.41569,41.113365",-73.41569,41.113365,Fairfield,Red,Tiny,A,1
151,WALGREENS #09521,(203) 696-0127,PCY.0002059,"438,882","1000 PARK AVE
CT 06604-3406
(41.175023, -73.198576)",1000 PARK AVE,BRIDGEPORT,CT,"1000 PARK AVE, BRIDGEPORT, CT",06604-3406,Match,"-73.19857,41.1749",-73.19857,41.1749,Fairfield,Red,Tiny,A,1
152,CVS PHARMACY #822,(860) 354-4455,PCY.0001271,"286,845","40 EAST ST
CT 06776-3014
(41.579274, -73.408642)",40 EAST ST,NEW MILFORD,CT,"40 EAST ST, NEW MILFORD, CT",06776-3014,Match,"-73.40857,41.57889",-73.40857,41.57889,Litchfield County,Blue,Mid,C,3
154,FORD PHARMACY & MED SUPPLY,(203) 729-2680,PCY.0000432,"37,318","2 CHURCH ST
CT 06770-4112
(41.487397, -73.056323)",2 CHURCH ST,NAUGATUCK,CT,"2 CHURCH ST, NAUGATUCK, CT",06770-4112,Match,"-73.05627,41.48734",-73.05627,41.48734,New Haven County,Green,Tiny,E,5
156,CVS PHARMACY #133,(203) 255-1089,PCY.0001561,"134,058","698 POST RD
CT 06824-6247
(41.14795, -73.247154)",698 POST RD,FAIRFIELD,CT,"698 POST RD, FAIRFIELD, CT",06824-6247,Match,"-73.24669,41.14811",-73.24669,41.14811,Fairfield,Red,Tiny,A,1
157,BERNEYS PHARMACY,(203) 562-4447,PCY.0002133,"520,854","615 HOWARD AVE
CT 06519-2112
(41.297662, -72.93422)",615 HOWARD AVE,NEW HAVEN,CT,"615 HOWARD AVE, NEW HAVEN, CT",06519-2112,Match,"-72.93423,41.2977",-72.93423,41.2977,New Haven County,Green,Tiny,E,5
158,VITAL CARE OF CONNECTICUT INC,(203) 845-0616,PCY.0002019,"419,504","189 MAIN ST
CT 06851-3607
(41.12665, -73.421383)",189 MAIN ST,NORWALK,CT,"189 MAIN ST, NORWALK, CT",06851-3607,Match,"-73.42001,41.126022",-73.42001,41.126022,Fairfield,Red,Tiny,A,1
159,CVS PHARMACY #1125,(860) 564-2111,PCY.0001393,"38,870","10 LATHROP RD
CT 06374-2030
(41.667232, -71.915207)",10 LATHROP RD,PLAINFIELD,CT,"10 LATHROP RD, PLAINFIELD, CT",06374-2030,Match,"-71.91515,41.667133",-71.91515,41.667133,Windham County,Grey,Big,L,8
161,STOP & SHOP PHARMACY #663,(203) 877-1912,PCY.0001622,"45,735","1360 E TOWN RD
CT 06460-3623
(41.236198, -73.031697)",1360 E TOWN RD,MILFORD,CT,"1360 E TOWN RD, MILFORD, CT",06460-3623,Match,"-73.03315,41.237576",-73.03315,41.237576,New Haven County,Green,Tiny,E,5
162,CVS PHARMACY #750,(860) 741-5498,PCY.0001234,"38,241","875 ENFIELD ST
CT 06082-3617
(41.998176, -72.594367)",875 ENFIELD ST,ENFIELD,CT,"875 ENFIELD ST, ENFIELD, CT",06082-3617,Match,"-72.59436,41.99833",-72.59436,41.99833,Hartford County,Orange,Tiny,B,2
163,CVS PHARMACY #5450,(860) 633-4668,PCY.0001806,"309,571","766 NEW LONDON TPKE
CT 06033-3076
(41.705187, -72.593851)",766 NEW LONDON TPKE,GLASTONBURY,CT,"766 NEW LONDON TPKE, GLASTONBURY, CT",06033-3076,Match,"-72.593025,41.704807",-72.593025,41.704807,Hartford County,Orange,Tiny,B,2
164,WALGREENS #09818,(860) 613-2324,PCY.0002101,"483,629","4 HAMMERHEAD PL
CT 06416-1805
(41.601972, -72.681227)",4 HAMMERHEAD PL,CROMWELL,CT,"4 HAMMERHEAD PL, CROMWELL, CT",06416-1805,Match,"-72.68129,41.60205",-72.68129,41.60205,Middlesex County,Purple,Small,D,4
165,HANCOCK PHARMACY V,(860) 346-9700,PCY.0002177,"924,761","644 MAIN ST
CT 06457-2731
(41.564897, -72.652324)",644 MAIN ST,MIDDLETOWN,CT,"644 MAIN ST, MIDDLETOWN, CT",06457-2731,Match,"-72.65199,41.564163",-72.65199,41.564163,Middlesex County,Purple,Small,D,4
166,WALGREENS #10003,(203) 634-3241,PCY.0002033,"427,224","134 STATE ST
CT 06450-3293
(41.540708, -72.798732)",134 STATE ST,MERIDEN,CT,"134 STATE ST, MERIDEN, CT",06450-3293,Match,"-72.79899,41.540447",-72.79899,41.540447,New Haven County,Green,Tiny,E,5
167,STOP & SHOP PHARMACY #654,(203) 238-1261,PCY.0001729,"223,411","485 BROAD ST
CT 06450-5801
(41.533258, -72.792516)",485 BROAD ST,MERIDEN,CT,"485 BROAD ST, MERIDEN, CT",06450-5801,Match,"-72.79305,41.5328",-72.79305,41.5328,New Haven County,Green,Tiny,E,5
168,CVS PHARMACY #2018,(203) 237-8984,PCY.0001670,"196,911","540 W MAIN ST
CT 06451-2710
(41.540629, -72.821707)",540 W MAIN ST,MERIDEN,CT,"540 W MAIN ST, MERIDEN, CT",06451-2710,Match,"-72.84453,41.52166",-72.84453,41.52166,New Haven County,Green,Tiny,E,5
169,CVS/PHARMACY #16633,(860) 348-9163,PCY.0001755,"242,630","475 HARTFORD RD
CT 06053-1524
(41.710689, -72.765624)",475 HARTFORD RD,NEW BRITAIN,CT,"475 HARTFORD RD, NEW BRITAIN, CT",06053-1524,Match,"-72.76503,41.712063",-72.76503,41.712063,Hartford County,Orange,Tiny,B,2
170,CVS PHARMACY #11072,(860) 236-3564,PCY.0000256,"37,111","344 N MAIN ST
CT 06117-2526
(41.785155, -72.746913)",344 N MAIN ST,WEST HARTFORD,CT,"344 N MAIN ST, WEST HARTFORD, CT",06117-2526,Match,"-72.74663,41.783134",-72.74663,41.783134,Hartford County,Orange,Tiny,B,2
171,CVS PHARMACY #1968,(203) 468-6594,PCY.0001545,861,"369 MAIN ST
CT 06512-2835
(41.280163, -72.875789)",369 MAIN ST,EAST HAVEN,CT,"369 MAIN ST, EAST HAVEN, CT",06512-2835,Match,"-72.8764,41.28086",-72.8764,41.28086,New Haven County,Green,Tiny,E,5
172,GRAEBER'S PHARMACY INC,(203) 235-4463,PCY.0000416,"37,316","172 WEST MAIN STREET
CT 06450
(41.399312, -72.484858)",172 WEST MAIN STREET,MERIDEN,CT,"172 WEST MAIN STREET, MERIDEN, CT",6450,Match,"-72.7973,41.53572",-72.7973,41.53572,New Haven County,Green,Tiny,E,5
173,CVS PHARMACY #1098,(860) 741-0751,PCY.0001020,"37,803","47 HAZARD AVE
CT 06082-3813
(41.989703, -72.576562)",47 HAZARD AVE,ENFIELD,CT,"47 HAZARD AVE, ENFIELD, CT",06082-3813,Match,"-72.58215,41.990017",-72.58215,41.990017,Hartford County,Orange,Tiny,B,2
174,ARCH STREET PHARMACY,,PCY.0002288,"1,206,019","333 ARCH ST
CT 06051-2520
(41.661331, -72.783038)",333 ARCH ST,NEW BRITAIN,CT,"333 ARCH ST, NEW BRITAIN, CT",06051-2520,Match,"-72.78306,41.661293",-72.78306,41.661293,Hartford County,Orange,Tiny,B,2
175,CVS/PHARMACY #16925,(860) 616-0023,PCY.0001842,"348,647","3265 BERLIN TPKE
CT 06111-5101
(41.659738, -72.723399)",3265 BERLIN TPKE,NEWINGTON,CT,"3265 BERLIN TPKE, NEWINGTON, CT",06111-5101,Match,"-72.72439,41.657593",-72.72439,41.657593,Hartford County,Orange,Tiny,B,2
176,STOP & SHOP PHARMACY #679,(203) 597-1498,PCY.0001269,"38,440","240 CHASE AVE
CT 06704-2237
(41.58102, -73.033669)",240 CHASE AVE,WATERBURY,CT,"240 CHASE AVE, WATERBURY, CT",06704-2237,Match,"-73.03376,41.58106",-73.03376,41.58106,New Haven County,Green,Tiny,E,5
177,CVS PHARMACY #135,(860) 567-0856,PCY.0001568,"134,544","266 WEST ST
CT 06759-3404
(41.745791, -73.201531)",266 WEST ST,LITCHFIELD,CT,"266 WEST ST, LITCHFIELD, CT",06759-3404,Match,"-73.1989,41.746185",-73.1989,41.746185,Litchfield County,Blue,Mid,C,3
178,CVS PHARMACY #3373,(203) 331-4731,PCY.0001832,"334,996","961 BLACK ROCK TPKE
CT 06825-4702
(41.171745, -73.235678)",961 BLACK ROCK TPKE,FAIRFIELD,CT,"961 BLACK ROCK TPKE, FAIRFIELD, CT",06825-4702,Match,"-73.23568,41.171955",-73.23568,41.171955,Fairfield,Red,Tiny,A,1
180,CVS PHARMACY #1123,(203) 262-1831,PCY.0001388,"38,685","22 DEPOT HILL RD
CT 06488-2258
(41.475812, -73.217742)",22 DEPOT HILL RD,SOUTHBURY,CT,"22 DEPOT HILL RD, SOUTHBURY, CT",06488-2258,Match,"-73.21776,41.47577",-73.21776,41.47577,New Haven County,Green,Tiny,E,5
182,STOP & SHOP PHARMACY #611,860-844-8346,PCY.0001793,"289,905","120 SALMON BROOK ST
CT 06035-2604
(41.935283, -72.790567)",120 SALMON BROOK ST,GRANBY,CT,"120 SALMON BROOK ST, GRANBY, CT",06035-2604,Match,"-72.79146,41.936096",-72.79146,41.936096,Hartford County,Orange,Tiny,B,2
183,BIG Y PHARMACY #73,(860) 896-0264,PCY.0002041,"431,881","135 WEST ROAD
CT 06029
(41.888295, -72.463741)",135 WEST ROAD,ELLINGTON,CT,"135 WEST ROAD, ELLINGTON, CT",6029,Match,"-72.46383,41.88789",-72.46383,41.88789,Tolland County,Red,Mid,G,7
184,BIG Y PHARMACY #34,,PCY.0001863,"363,902","141 B Storrs Road
CT 06250
(41.738153, -72.198173)",141 B Storrs Road,Mansfield Center,CT,"141 B Storrs Road, Mansfield Center, CT",6250,Match,"-72.19802,41.73855",-72.19802,41.73855,Tolland County,Red,Mid,G,7
185,WALGREENS #11604,(860) 693-8329,PCY.0001805,"308,663","220 ALBANY TPKE
CT 06019-7068
(41.826975, -72.89881)",220 ALBANY TPKE,CANTON,CT,"220 ALBANY TPKE, CANTON, CT",06019-7068,Match,"-72.89819,41.826572",-72.89819,41.826572,Hartford County,Orange,Tiny,B,2
186,HANCOCK PHARMACY 2,(203) 368-9000,PCY.0002165,"916,005","1020 FAIRFIELD AVE
CT 06605-1187
(41.174276, -73.203808)",1020 FAIRFIELD AVE,BRIDGEPORT,CT,"1020 FAIRFIELD AVE, BRIDGEPORT, CT",06605-1187,Match,"-73.2046,41.174187",-73.2046,41.174187,Fairfield,Red,Tiny,A,1
187,STOP & SHOP PHARMACY #675,(203) 755-9538,PCY.0001781,"277,465","920 WOLCOTT ST
CT 06705-1300
(41.565747, -73.008362)",920 WOLCOTT ST,WATERBURY,CT,"920 WOLCOTT ST, WATERBURY, CT",06705-1300,Match,"-73.00777,41.56654",-73.00777,41.56654,New Haven County,Green,Tiny,E,5
188,WALGREENS #09432,(860) 253-0463,PCY.0002076,"450,313","2 SHAKER RD
CT 06082-3112
(42.001586, -72.56495)",2 SHAKER RD,ENFIELD,CT,"2 SHAKER RD, ENFIELD, CT",06082-3112,Match,"-72.56545,42.00136",-72.56545,42.00136,Hartford County,Orange,Tiny,B,2
189,WAL-MART STORE #3548,(203) 759-1637,PCY.0001813,"317,348","910 WOLCOTT ST
CT 06705-1317
(41.565161, -73.008762)",910 WOLCOTT ST,WATERBURY,CT,"910 WOLCOTT ST, WATERBURY, CT",06705-1317,Match,"-73.0079,41.56631",-73.0079,41.56631,New Haven County,Green,Tiny,E,5
190,CVS PHARMACY #294,(860) 229-3757,PCY.0001128,"318,435","177 COLUMBUS BLVD
CT 06051-2226
(41.666722, -72.776114)",177 COLUMBUS BLVD,NEW BRITAIN,CT,"177 COLUMBUS BLVD, NEW BRITAIN, CT",06051-2226,Match,"-72.77613,41.666737",-72.77613,41.666737,Hartford County,Orange,Tiny,B,2
192,CVS PHARMACY #1155,(860) 829-0800,PCY.0001367,"38,668","308 BERLIN TPKE
CT 06037-1506
(41.641344, -72.733507)",308 BERLIN TPKE,BERLIN,CT,"308 BERLIN TPKE, BERLIN, CT",06037-1506,Match,"-72.73365,41.64105",-72.73365,41.64105,Hartford County,Orange,Tiny,B,2
193,WALGREENS #15207,(860) 523-5849,PCY.0001451,"246,442","668 FARMINGTON AVE
CT 06119-1810
(41.765558, -72.7168)",668 FARMINGTON AVE,WEST HARTFORD,CT,"668 FARMINGTON AVE, WEST HARTFORD, CT",06119-1810,Match,"-72.71644,41.765614",-72.71644,41.765614,Hartford County,Orange,Tiny,B,2
194,SIMPLY PHARMACY,(860) 865-1303,PCY.0002312,"1,276,408","92 BOSTON POST RD
CT 06385-2421
(41.341771, -72.121856)",92 BOSTON POST RD,WATERFORD,CT,"92 BOSTON POST RD, WATERFORD, CT",06385-2421,Match,"-72.12354,41.34195",-72.12354,41.34195,New London County,Black,Mid,F,6
195,CVS PHARMACY #1156,(860) 521-9877,PCY.0001461,"225,204","1240 FARMINGTON AVE
CT 06107-2618
(41.754654, -72.766351)",1240 FARMINGTON AVE,WEST HARTFORD,CT,"1240 FARMINGTON AVE, WEST HARTFORD, CT",06107-2618,Match,"-72.76576,41.754837",-72.76576,41.754837,Hartford County,Orange,Tiny,B,2
196,CVS PHARMACY #1153,(203) 330-8278,PCY.0001435,"38,896","1875 BOSTON AVE
CT 06610-2623
(41.193272, -73.159776)",1875 BOSTON AVE,BRIDGEPORT,CT,"1875 BOSTON AVE, BRIDGEPORT, CT",06610-2623,Match,"-73.15969,41.19332",-73.15969,41.19332,Fairfield,Red,Tiny,A,1
197,CVS PHARMACY #231,(860) 871-1661,PCY.0001085,"38,002","142 TALCOTTVILLE RD
CT 06066-4705
(41.831219, -72.494492)",142 TALCOTTVILLE RD,VERNON,CT,"142 TALCOTTVILLE RD, VERNON, CT",06066-4705,Match,"-72.49358,41.83228",-72.49358,41.83228,Tolland County,Red,Mid,G,7
198,STOLL'S PHARMACY,(203) 575-0199,PCY.0001330,"38,469","185 GROVE ST
CT 06710-2289
(41.55988, -73.042783)",185 GROVE ST,WATERBURY,CT,"185 GROVE ST, WATERBURY, CT",06710-2289,Match,"-73.042816,41.559803",-73.042816,41.559803,New Haven County,Green,Tiny,E,5
200,STOP & SHOP PHARMACY #689,860-645-8050,PCY.0001452,"38,901","286 BROAD ST
CT 06040-4049
(41.779859, -72.534459)",286 BROAD ST,MANCHESTER,CT,"286 BROAD ST, MANCHESTER, CT",06040-4049,Match,"-72.53438,41.779415",-72.53438,41.779415,Hartford County,Orange,Tiny,B,2
201,WALGREENS #07814,(860) 664-4691,PCY.0001891,"377,850","218 E MAIN ST
CT 06413-2230
(41.272771, -72.507021)",218 E MAIN ST,CLINTON,CT,"218 E MAIN ST, CLINTON, CT",06413-2230,Match,"-72.506004,41.2723",-72.506004,41.2723,Middlesex County,Purple,Small,D,4
202,CVS PHARMACY #1219,(203) 921-1313,PCY.0001529,"245,056","229 HOPE ST
CT 06906-1601
(41.068688, -73.526831)",229 HOPE ST,STAMFORD,CT,"229 HOPE ST, STAMFORD, CT",06906-1601,Match,"-73.52676,41.06859",-73.52676,41.06859,Fairfield,Red,Tiny,A,1
203,CVS PHARMACY #343,(203) 541-3972,PCY.0002181,"928,855","66 HIGH RIDGE RD
CT 06905-3807
(41.074539, -73.549001)",66 HIGH RIDGE RD,STAMFORD,CT,"66 HIGH RIDGE RD, STAMFORD, CT",06905-3807,Match,"-73.54887,41.073845",-73.54887,41.073845,Fairfield,Red,Tiny,A,1
204,BEACON FALLS PHARMACY LLC,(203) 729-4567,PCY.0002015,"414,911","20 NORTH MAIN STREET
CT 06403
(41.444311, -73.063685)",20 NORTH MAIN STREET; P.O. BOX #218,BEACON FALLS,CT,"20 NORTH MAIN STREET; P.O. BOX #218, BEACON FALLS, CT",6403,Match,"-73.06284,41.443382",-73.06284,41.443382,New Haven County,Green,Tiny,E,5
206,WALGREENS #05723,(203) 334-6978,PCY.0001418,"38,883","960 NORTH AVE
CT 06606-5750
(41.191272, -73.197473)",960 NORTH AVE,BRIDGEPORT,CT,"960 NORTH AVE, BRIDGEPORT, CT",06606-5750,Match,"-73.19731,41.191483",-73.19731,41.191483,Fairfield,Red,Tiny,A,1
207,CVS PHARMACY #1044,(203) 732-4495,PCY.0001132,"246,060","656 NEW HAVEN AVE
CT 06418-2528
(41.311391, -73.052964)",656 NEW HAVEN AVE,DERBY,CT,"656 NEW HAVEN AVE, DERBY, CT",06418-2528,Match,"-73.05724,41.31217",-73.05724,41.31217,New Haven County,Green,Tiny,E,5
209,CENTRAL ADMIXTURE PHARMACY SERVICES INC,(203) 265-5637,PCY.0002066,"442,636","27 VILLAGE LANE
CT 06492
(41.474848, -72.805197)",27 VILLAGE LANE,WALLINGFORD,CT,"27 VILLAGE LANE, WALLINGFORD, CT",6492,Match,"-72.80578,41.47629",-72.80578,41.47629,New Haven County,Green,Tiny,E,5
210,RITE AID  #3203,860-560-1881,PCY.0001437,"247,605","1291 ALBANY AVE
CT 06112-2198
(41.782319, -72.69659)",1291 ALBANY AVE,HARTFORD,CT,"1291 ALBANY AVE, HARTFORD, CT",06112-2198,Match,"-72.69782,41.782772",-72.69782,41.782772,Hartford County,Orange,Tiny,B,2
211,NORTH STREET PHARMACY,2038692130,PCY.0000741,"225,196","1043 NORTH ST
CT 06831-2701
(41.140844, -73.639421)",1043 NORTH ST,GREENWICH,CT,"1043 NORTH ST, GREENWICH, CT",06831-2701,Match,"-73.638824,41.139305",-73.638824,41.139305,Fairfield,Red,Tiny,A,1
212,STOP & SHOP PHARMACY #605,,PCY.0001821,"319,465","55 OAK STREET
CT 06033
(41.707078, -72.592758)",55 OAK STREET,GLASTONBURY,CT,"55 OAK STREET, GLASTONBURY, CT",6033,Match,"-72.59199,41.709717",-72.59199,41.709717,Hartford County,Orange,Tiny,B,2
213,RITE AID  #441,203-777-7248,PCY.0001045,"225,197","66 CHURCH ST
CT 06510-3304
(41.305271, -72.926349)",66 CHURCH ST,NEW HAVEN,CT,"66 CHURCH ST, NEW HAVEN, CT",06510-3304,Match,"-72.92643,41.305138",-72.92643,41.305138,New Haven County,Green,Tiny,E,5
215,CVS PHARMACY #1960,(203) 755-5490,PCY.0001506,"263,895","1279 W MAIN ST
CT 06708-3101
(41.552145, -73.06434)",1279 W MAIN ST,WATERBURY,CT,"1279 W MAIN ST, WATERBURY, CT",06708-3101,Match,"-73.06452,41.551926",-73.06452,41.551926,New Haven County,Green,Tiny,E,5
217,RITE AID  #10383,(203) 740-1005,PCY.0001890,"377,474","215 FEDERAL RD
CT 06804-2630
(41.443022, -73.404855)",215 FEDERAL RD,BROOKFIELD,CT,"215 FEDERAL RD, BROOKFIELD, CT",06804-2630,Match,"-73.404366,41.444706",-73.404366,41.444706,Fairfield,Red,Tiny,A,1
218,RITE AID  #10342,(860) 829-0740,PCY.0001687,"200,352","900 FARMINGTON AVE
CT 06037-2219
(41.633601, -72.764303)",900 FARMINGTON AVE,KENSINGTON,CT,"900 FARMINGTON AVE, KENSINGTON, CT",06037-2219,Match,"-72.76368,41.633244",-72.76368,41.633244,Hartford County,Orange,Tiny,B,2
219,WALGREENS #10244,(860) 399-6899,PCY.0002107,"491,498","1211 BOSTON POST RD
CT 06498-1949
(41.285489, -72.447934)",1211 BOSTON POST RD,WESTBROOK,CT,"1211 BOSTON POST RD, WESTBROOK, CT",06498-1949,Match,"-72.4469,41.285107",-72.4469,41.285107,Middlesex County,Purple,Small,D,4
220,STOP & SHOP #630,(860) 667-8380,PCY.0001454,"38,903","44 FENN RD
CT 06111-2212
(41.698061, -72.756446)",44 FENN RD,NEWINGTON,CT,"44 FENN RD, NEWINGTON, CT",06111-2212,Match,"-72.757,41.696255",-72.757,41.696255,Hartford County,Orange,Tiny,B,2
221,BEACON PRESCRIPTIONS,(860) 738-2506,PCY.0001719,"219,174","294 MAIN ST
CT 06098-1688
(41.783619, -72.523247)",294 MAIN ST,WINSTED,CT,"294 MAIN ST, WINSTED, CT",06098-1688,Match,"-72.962654,41.869617",-72.962654,41.869617,Litchfield County,Blue,Mid,C,3
222,RITE AID #10350,(860) 963-7230,PCY.0001107,"38,006","203 KENNEDY DR
CT 06260-1628
(41.918985, -71.908505)",203 KENNEDY DR,PUTNAM,CT,"203 KENNEDY DR, PUTNAM, CT",06260-1628,Match,"-71.91026,41.9173",-71.91026,41.9173,Windham County,Grey,Big,L,8
223,BEACON PRESCRIPTIONS,(860) 628-3972,PCY.0001334,"38,649","609 N MAIN ST
CT 06489-2051
(41.616168, -72.873318)",609 N MAIN ST,SOUTHINGTON,CT,"609 N MAIN ST, SOUTHINGTON, CT",06489-2051,Match,"-72.87349,41.61519",-72.87349,41.61519,Hartford County,Orange,Tiny,B,2
224,RITE AID  #3619,(203) 382-0009,PCY.0001540,"3,451","1060 E MAIN ST
CT 06608-1915
(41.189227, -73.180694)",1060 E MAIN ST,BRIDGEPORT,CT,"1060 E MAIN ST, BRIDGEPORT, CT",06608-1915,Match,"-73.189384,41.179024",-73.189384,41.179024,Fairfield,Red,Tiny,A,1
225,RITE AID  #1087,(203) 272-3543,PCY.0000357,"37,129","180 MAIN ST
CT 06410-2406
(41.503573, -72.903987)",180 MAIN ST,CHESHIRE,CT,"180 MAIN ST, CHESHIRE, CT",06410-2406,Match,"-72.903404,41.502934",-72.903404,41.502934,New Haven County,Green,Tiny,E,5
226,CVS PHARMACY #1966,(203) 458-1444,PCY.0001510,"39,119","1057 BOSTON POST RD
CT 06437-2644
(41.287823, -72.684779)",1057 BOSTON POST RD,GUILFORD,CT,"1057 BOSTON POST RD, GUILFORD, CT",06437-2644,Match,"-72.68458,41.287838",-72.68458,41.287838,New Haven County,Green,Tiny,E,5
227,RITE AID #10384,(203) 798-7520,PCY.0001883,"376,861","113 115 MILL PLAIN RD
CT 06811-5277
(41.391829, -73.522363)",113-115 MILL PLAIN RD,DANBURY,CT,"113-115 MILL PLAIN RD, DANBURY, CT",06811-5277,Match,"-73.52107,41.39188",-73.52107,41.39188,Fairfield,Red,Tiny,A,1
228,RITE AID  #4995,(860) 354-6313,PCY.0001703,"211,229","173 DANBURY RD
CT 06776-4309
(41.550702, -73.417829)",173 DANBURY RD,NEW MILFORD,CT,"173 DANBURY RD, NEW MILFORD, CT",06776-4309,Match,"-73.41862,41.5495",-73.41862,41.5495,Litchfield County,Blue,Mid,C,3
229,WALGREENS #11619,(203) 881-9999,PCY.0001402,"38,877","144 BANK ST
CT 06483-2721
(41.397543, -73.078608)",144 BANK ST,SEYMOUR,CT,"144 BANK ST, SEYMOUR, CT",06483-2721,Match,"-73.08118,41.397736",-73.08118,41.397736,New Haven County,Green,Tiny,E,5
230,CVS PHARMACY #738,(203) 431-8888,PCY.0001228,"38,239","467 MAIN ST
CT 06877-4513
(41.282917, -73.498503)",467 MAIN ST,RIDGEFIELD,CT,"467 MAIN ST, RIDGEFIELD, CT",06877-4513,Match,"-73.49845,41.28218",-73.49845,41.28218,Fairfield,Red,Tiny,A,1
231,RITE AID  #10347,(860) 257-8100,PCY.0001325,"342,554","657 SILAS DEANE HWY
CT 06109-3026
(41.706615, -72.66169)",657 SILAS DEANE HWY,WETHERSFIELD,CT,"657 SILAS DEANE HWY, WETHERSFIELD, CT",06109-3026,Match,"-72.661934,41.707306",-72.661934,41.707306,Hartford County,Orange,Tiny,B,2
232,STOP & SHOP #652,(860) 669-6636,PCY.0001232,"249,883","215 E MAIN ST
CT 06413-2200
(41.272692, -72.506861)",215 E MAIN ST,CLINTON,CT,"215 E MAIN ST, CLINTON, CT",06413-2200,Match,"-72.51132,41.27534",-72.51132,41.27534,Middlesex County,Purple,Small,D,4
234,BIG Y PHARMACY #32,(203) 729-4124,PCY.0002193,"953,885","85 BRIDGE ST
CT 06770-2812
(41.501542, -73.051563)",85 BRIDGE ST,NAUGATUCK,CT,"85 BRIDGE ST, NAUGATUCK, CT",06770-2812,Match,"-73.05403,41.500233",-73.05403,41.500233,New Haven County,Green,Tiny,E,5
235,HERITAGE VILLAGE PHARMACY,,PCY.0002289,"1,206,720","493 HERITAGE RD
CT 06488-3847
(41.489512, -73.22512)",493 HERITAGE RD,SOUTHBURY,CT,"493 HERITAGE RD, SOUTHBURY, CT",06488-3847,Match,"-73.22494,41.489174",-73.22494,41.489174,New Haven County,Green,Tiny,E,5
236,WALGREENS #09101,(203) 288-5217,PCY.0002061,"438,886","2505 WHITNEY AVE
CT 06518-3019
(41.38805, -72.900186)",2505 WHITNEY AVE,HAMDEN,CT,"2505 WHITNEY AVE, HAMDEN, CT",06518-3019,Match,"-72.90016,41.388218",-72.90016,41.388218,New Haven County,Green,Tiny,E,5
237,WALGREENS #07566,(860) 569-4120,PCY.0001352,"364,682","922 SILVER LN
CT 06118-1248
(41.765282, -72.603423)",922 SILVER LN,EAST HARTFORD,CT,"922 SILVER LN, EAST HARTFORD, CT",06118-1248,Match,"-72.60299,41.76538",-72.60299,41.76538,Hartford County,Orange,Tiny,B,2
238,RITE AID #6601,(860) 434-8111,PCY.0000342,"37,125","90 HALLS RD
CT 06371-4406
(41.323831, -72.33595)",90 HALLS RD,OLD LYME,CT,"90 HALLS RD, OLD LYME, CT",06371-4406,Match,"-72.33706,41.32363",-72.33706,41.32363,New London County,Black,Mid,F,6
239,CVS PHARMACY #145,(860) 677-5047,PCY.0001544,"50,900","330 MAIN ST
CT 06032-2961
(41.704333, -72.843216)",330 MAIN ST,FARMINGTON,CT,"330 MAIN ST, FARMINGTON, CT",06032-2961,Match,"-72.84324,41.704247",-72.84324,41.704247,Hartford County,Orange,Tiny,B,2
240,SHOPRITE PHARMACY OF WATERBURY,2037531718,PCY.0001125,"249,885","943 WOLCOTT ST
CT 06705-1301
(41.566052, -73.008151)",943 WOLCOTT ST,WATERBURY,CT,"943 WOLCOTT ST, WATERBURY, CT",06705-1301,Match,"-73.00718,41.56753",-73.00718,41.56753,New Haven County,Green,Tiny,E,5
241,CVS PHARMACY #1151,(203) 596-0909,PCY.0001381,"225,202","464 REIDVILLE DR
CT 06705-2650
(41.539435, -72.997367)",464 REIDVILLE DR,WATERBURY,CT,"464 REIDVILLE DR, WATERBURY, CT",06705-2650,Match,"-73.009346,41.539345",-73.009346,41.539345,New Haven County,Green,Tiny,E,5
242,STOP & SHOP #631,3013414387,PCY.0001596,"172,001","215 GLASTONBURY BLVD
CT 06033-4408
(41.721089, -72.623445)",215 GLASTONBURY BLVD,GLASTONBURY,CT,"215 GLASTONBURY BLVD, GLASTONBURY, CT",06033-4408,Match,"-72.622696,41.721134",-72.622696,41.721134,Hartford County,Orange,Tiny,B,2
243,RITE AID  #1882,(203) 777-0695,PCY.0001308,"38,457","325 FERRY ST
CT 06513-3702
(41.308742, -72.895391)",325 FERRY ST,NEW HAVEN,CT,"325 FERRY ST, NEW HAVEN, CT",06513-3702,Match,"-72.89545,41.308872",-72.89545,41.308872,New Haven County,Green,Tiny,E,5
244,WALGREENS #09821,(203) 801-0121,PCY.0000956,"504,522","36 PINE ST
CT 06840-5430
(41.144914, -73.496781)",36 PINE ST,NEW CANAAN,CT,"36 PINE ST, NEW CANAAN, CT",06840-5430,Match,"-73.49657,41.14509",-73.49657,41.14509,Fairfield,Red,Tiny,A,1
245,WALGREENS #01455,(203) 453-1619,PCY.0001985,"405,763","1116 BOSTON POST RD
CT 06437-2624
(41.287615, -72.687132)",1116 BOSTON POST RD,GUILFORD,CT,"1116 BOSTON POST RD, GUILFORD, CT",06437-2624,Match,"-72.68652,41.287605",-72.68652,41.287605,New Haven County,Green,Tiny,E,5
246,CVS PHARMACY #10367,(203) 261-2541,PCY.0000208,"37,100","930 WHITE PLAINS RD
CT 06611-4550
(41.245281, -73.197198)",930 WHITE PLAINS RD,TRUMBULL,CT,"930 WHITE PLAINS RD, TRUMBULL, CT",06611-4550,Match,"-73.19721,41.24533",-73.19721,41.24533,Fairfield,Red,Tiny,A,1
247,WAL-MART  #10-2200,(860) 449-6902,PCY.0001518,"65,235","150 GOLD STAR HWY
CT 06340-3442
(41.368752, -72.063105)",150 GOLD STAR HWY,GROTON,CT,"150 GOLD STAR HWY, GROTON, CT",06340-3442,Match,"-72.067276,41.36653",-72.067276,41.36653,New London County,Black,Mid,F,6
248,WALGREENS #12120,(203) 468-9732,PCY.0002144,"536,229","157 MAIN ST
CT 06512-2525
(41.276136, -72.867521)",157 MAIN ST,EAST HAVEN,CT,"157 MAIN ST, EAST HAVEN, CT",06512-2525,Match,"-72.86774,41.27622",-72.86774,41.27622,New Haven County,Green,Tiny,E,5
249,STOP & SHOP PHARMACY #614,860-828-0772,PCY.0002004,"412,188","1135 FARMINGTON AVE
CT 06037-5200
(41.629095, -72.757383)",1135 FARMINGTON AVE,BERLIN,CT,"1135 FARMINGTON AVE, BERLIN, CT",06037-5200,Match,"-72.75792,41.629436",-72.75792,41.629436,Hartford County,Orange,Tiny,B,2
250,WAL-MART PHARMACY #10-2170,(860) 889-7530,PCY.0001519,"65,233","220 SALEM TPKE
CT 06360-6455
(41.507432, -72.122696)",220 SALEM TPKE,NORWICH,CT,"220 SALEM TPKE, NORWICH, CT",06360-6455,Match,"-72.1298,41.50616",-72.1298,41.50616,New London County,Black,Mid,F,6
251,RITE AID  #10382,(203) 792-6190,PCY.0000850,"244,287","289 GREENWOOD AVE
CT 06801-2402
(41.374594, -73.423346)",289 GREENWOOD AVE,BETHEL,CT,"289 GREENWOOD AVE, BETHEL, CT",06801-2402,Match,"-73.42371,41.374607",-73.42371,41.374607,Fairfield,Red,Tiny,A,1
252,CVS PHARMACY #918,(203) 655-2865,PCY.0001462,"38,907","964 POST RD
CT 06820-4508
(41.076492, -73.47094)",964 POST RD,DARIEN,CT,"964 POST RD, DARIEN, CT",06820-4508,Match,"-73.47166,41.075783",-73.47166,41.075783,Fairfield,Red,Tiny,A,1
254,CVS PHARMACY #954,(860) 314-2891,PCY.0001584,"173,086","311 MAIN ST
CT 06786-5928
(41.67989, -73.019399)",311 MAIN ST,TERRYVILLE,CT,"311 MAIN ST, TERRYVILLE, CT",06786-5928,Match,"-73.01893,41.68001",-73.01893,41.68001,Litchfield County,Blue,Mid,C,3
255,RITE AID  #744,(860) 437-8880,PCY.0000942,"37,778","75 BOSTON POST RD
CT 06385-2423
(41.341727, -72.120052)",75 BOSTON POST RD,WATERFORD,CT,"75 BOSTON POST RD, WATERFORD, CT",06385-2423,Match,"-72.12507,41.342155",-72.12507,41.342155,New London County,Black,Mid,F,6
256,CVS PHARMACY #1244,(203) 758-3316,PCY.0000688,"37,546","26 WATERBURY RD
CT 06712-1215
(41.507264, -72.980826)",26 WATERBURY RD,PROSPECT,CT,"26 WATERBURY RD, PROSPECT, CT",06712-1215,Match,"-72.980415,41.506573",-72.980415,41.506573,New Haven County,Green,Tiny,E,5
257,BIG Y # 84,203-386-1489,PCY.0002103,"488,798","355 HAWLEY LN
CT 06614-1514
(41.233693, -73.149639)",355 HAWLEY LN,STRATFORD,CT,"355 HAWLEY LN, STRATFORD, CT",06614-1514,Match,"-73.14965,41.23365",-73.14965,41.23365,Fairfield,Red,Tiny,A,1
258,BIG Y PHARMACY #55,(203) 453-7446,PCY.0002219,"1,026,099","830 BOSTON POST RD
CT 06437-2701
(41.288566, -72.678716)",830 BOSTON POST RD,GUILFORD,CT,"830 BOSTON POST RD, GUILFORD, CT",06437-2701,Match,"-72.67726,41.288696",-72.67726,41.288696,New Haven County,Green,Tiny,E,5
259,WALGREENS #02976,(860) 885-0389,PCY.0001471,"39,099","399 W MAIN ST
CT 06360-5414
(41.520782, -72.092373)",399 W MAIN ST,NORWICH,CT,"399 W MAIN ST, NORWICH, CT",06360-5414,Match,"-72.06827,41.523567",-72.06827,41.523567,New London County,Black,Mid,F,6
260,CVS PHARMACY #1948,(860) 296-1155,PCY.0001516,"39,123","690 WETHERSFIELD AVE
CT 06114-1930
(41.737257, -72.671071)",690 WETHERSFIELD AVE,HARTFORD,CT,"690 WETHERSFIELD AVE, HARTFORD, CT",06114-1930,Match,"-72.67095,41.736763",-72.67095,41.736763,Hartford County,Orange,Tiny,B,2
262,WAL-MART PHARMACY #10-2954,(203) 979-8394,PCY.0001756,"242,635","650 MAIN AVE
CT 06851-1126
(41.159231, -73.419538)",650 MAIN AVE,NORWALK,CT,"650 MAIN AVE, NORWALK, CT",06851-1126,Match,"-73.42471,41.152245",-73.42471,41.152245,Fairfield,Red,Tiny,A,1
263,STOP & SHOP PHARMACY #658,2038342204,PCY.0001849,"351,206","5 RIVER ROAD
CT 06897
(41.190976, -73.430412)",5 RIVER ROAD,WILTON,CT,"5 RIVER ROAD, WILTON, CT",6897,Match,"-73.4304,41.191147",-73.4304,41.191147,Fairfield,Red,Tiny,A,1
264,STOP & SHOP PHARMACY #694,(203) 234-1757,PCY.0001745,"227,038","79 WASHINGTON AVE
CT 06473-1704
(41.39259, -72.858629)",79 WASHINGTON AVE,NORTH HAVEN,CT,"79 WASHINGTON AVE, NORTH HAVEN, CT",06473-1704,Match,"-72.85942,41.391247",-72.85942,41.391247,New Haven County,Green,Tiny,E,5
265,MEDICAL ARTS PHARMACY,(203) 590-3737,PCY.0002335,"1,343,151","15 CORPORATE DR
CT 06611-1351
(41.29616, -73.227272)",15 CORPORATE DR STE 1-1,TRUMBULL,CT,"15 CORPORATE DR STE 1-1, TRUMBULL, CT",06611-1351,Match,"-73.227554,41.295986",-73.227554,41.295986,Fairfield,Red,Tiny,A,1
266,CVS PHARMACY #123,(860) 388-1145,PCY.0001515,"39,122","519 BOSTON POST RD
CT 06475-1526
(41.299259, -72.375675)",519 BOSTON POST RD,OLD SAYBROOK,CT,"519 BOSTON POST RD, OLD SAYBROOK, CT",06475-1526,Match,"-72.37575,41.299164",-72.37575,41.299164,Middlesex County,Purple,Small,D,4
267,GENOA HEALTHCARE LLC,(860) 288-2119,PCY.0002151,"900,273","444 CENTER ST
CT 06040-3926
(41.773073, -72.539008)",444 CENTER ST,MANCHESTER,CT,"444 CENTER ST, MANCHESTER, CT",06040-3926,Match,"-72.53946,41.77315",-72.53946,41.77315,Hartford County,Orange,Tiny,B,2
268,STOP & SHOP PHARMACY #692,(203) 468-1113,PCY.0001220,"38,233","370 HEMINGWAY AVE
CT 06512-3240
(41.278549, -72.867457)",370 HEMINGWAY AVE,EAST HAVEN,CT,"370 HEMINGWAY AVE, EAST HAVEN, CT",06512-3240,Match,"-72.86765,41.27721",-72.86765,41.27721,New Haven County,Green,Tiny,E,5
270,OUTPATIENT PHARMACY SERVICES AT YALE NEW HAVEN HEALTH,844-881-0043,PCY.0002330,"1,327,980","1100 SHERMAN AVE
CT 06514-1363
(41.396475, -72.920042)",1100 SHERMAN AVE,HAMDEN,CT,"1100 SHERMAN AVE, HAMDEN, CT",06514-1363,Match,"-72.92006,41.396046",-72.92006,41.396046,New Haven County,Green,Tiny,E,5
271,STOP & SHOP PHARMACY #600,(203) 248-9631,PCY.0001565,"134,308","2335 DIXWELL AVE
CT 06514-2100
(41.372994, -72.916778)",2335 DIXWELL AVE,HAMDEN,CT,"2335 DIXWELL AVE, HAMDEN, CT",06514-2100,Match,"-72.91647,41.373566",-72.91647,41.373566,New Haven County,Green,Tiny,E,5
272,CVS PHARMACY #2525,(860) 563-9393,PCY.0001690,"239,318","323 CROMWELL AVE
CT 06067-1801
(41.661597, -72.678765)",323 CROMWELL AVE,ROCKY HILL,CT,"323 CROMWELL AVE, ROCKY HILL, CT",06067-1801,Match,"-72.67988,41.654892",-72.67988,41.654892,Hartford County,Orange,Tiny,B,2
273,WAL-MART STORE #3545,(203) 230-2841,PCY.0001809,"309,818","2300 DIXWELL AVE
CT 06514-2108
(41.371914, -72.917506)",2300 DIXWELL AVE,HAMDEN,CT,"2300 DIXWELL AVE, HAMDEN, CT",06514-2108,Match,"-72.9169,41.37292",-72.9169,41.37292,New Haven County,Green,Tiny,E,5
275,STOP & SHOP PHARMACY #622,8604892433,PCY.0001397,"38,873","211 HIGH ST
CT 06790-6301
(41.800054, -73.128701)",211 HIGH ST,TORRINGTON,CT,"211 HIGH ST, TORRINGTON, CT",06790-6301,Match,"-73.1291,41.800632",-73.1291,41.800632,Litchfield County,Blue,Mid,C,3
277,WAL-MART STORE #3803,(203) 931-2221,PCY.0002080,"460,144","515 SAW MILL RD
CT 06516-4000
(41.26951, -72.976004)",515 SAW MILL RD,WEST HAVEN,CT,"515 SAW MILL RD, WEST HAVEN, CT",06516-4000,Match,"-72.976875,41.268913",-72.976875,41.268913,New Haven County,Green,Tiny,E,5
280,ALBION-HANCOCK PHARMACY,(203) 331-9200,PCY.0002332,"1,337,244","2125 FAIRFIELD AVE
CT 06605-2639
(41.16529, -73.218818)",2125 FAIRFIELD AVE,BRIDGEPORT,CT,"2125 FAIRFIELD AVE, BRIDGEPORT, CT",06605-2639,Match,"-73.21892,41.165253",-73.21892,41.165253,Fairfield,Red,Tiny,A,1
281,VISELS DRUG STORE,(203) 562-6878,PCY.0000089,"36,896","714 DIXWELL AVE
CT 06511-1038
(41.332663, -72.935206)",714 DIXWELL AVE,NEW HAVEN,CT,"714 DIXWELL AVE, NEW HAVEN, CT",06511-1038,Match,"-72.935165,41.333122",-72.935165,41.333122,New Haven County,Green,Tiny,E,5
282,BIG Y PHARMACY #60,860-623-1407,PCY.0001788,"285,801","67 PROSPECT HILL RD
CT 06088-3605
(41.921132, -72.607761)",67 PROSPECT HILL RD,EAST WINDSOR,CT,"67 PROSPECT HILL RD, EAST WINDSOR, CT",06088-3605,Match,"-72.60923,41.91936",-72.60923,41.91936,Hartford County,Orange,Tiny,B,2
283,STOP & SHOP #624,(203) 245-7467,PCY.0001748,"230,525","136 SAMSON ROCK DR
CT 06443-3018
(41.278666, -72.596284)",136 SAMSON ROCK DR,MADISON,CT,"136 SAMSON ROCK DR, MADISON, CT",06443-3018,Match,"-72.594406,41.27933",-72.594406,41.27933,New Haven County,Green,Tiny,E,5
284,RITE AID  #576,(203) 265-3600,PCY.0001059,"37,995","605 N COLONY RD
CT 06492-3109
(41.469772, -72.816573)",605 N COLONY RD,WALLINGFORD,CT,"605 N COLONY RD, WALLINGFORD, CT",06492-3109,Match,"-72.812164,41.49802",-72.812164,41.49802,New Haven County,Green,Tiny,E,5
285,RITE AID  #10371,(203) 488-8703,PCY.0001449,"38,899","280 BRANFORD RD
CT 06471-9995
(41.32508, -72.770164)",280 BRANFORD RD,NORTH BRANFORD,CT,"280 BRANFORD RD, NORTH BRANFORD, CT",06471-9995,Match,"-72.77027,41.32479",-72.77027,41.32479,New Haven County,Green,Tiny,E,5
286,RITE AID  #10357,(860) 564-5871,PCY.0001657,"191,845","20 PROSPECT ST
CT 06354-1425
(41.712921, -71.882092)",20 PROSPECT ST,MOOSUP,CT,"20 PROSPECT ST, MOOSUP, CT",06354-1425,Match,"-71.88233,41.712944",-71.88233,41.712944,Windham County,Grey,Big,L,8
287,TRUMBULL PHARMACY LLC,203-880-9954,PCY.0002336,"1,357,638","10 BROADWAY
BLDG B, CT 06611-1302
(41.277717, -73.227215)",10 BROADWAY BLDG B,TRUMBULL,CT,"10 BROADWAY BLDG B, TRUMBULL, CT",06611-1302,Match,"-73.22723,41.277588",-73.22723,41.277588,Fairfield,Red,Tiny,A,1
288,WALGREENS #07258,(203) 267-6718,PCY.0001922,"387,327","370 MAIN ST S
CT 06488-4200
(41.47182, -73.222851)",370 MAIN ST S,SOUTHBURY,CT,"370 MAIN ST S, SOUTHBURY, CT",06488-4200,Match,"-73.22277,41.471832",-73.22277,41.471832,New Haven County,Green,Tiny,E,5
289,CVS PHARMACY #185,(203) 888-9068,PCY.0001103,"234,685","215 WEST ST
CT 06483-2640
(41.397394, -73.086459)",215 WEST ST,SEYMOUR,CT,"215 WEST ST, SEYMOUR, CT",06483-2640,Match,"-73.08534,41.396046",-73.08534,41.396046,New Haven County,Green,Tiny,E,5
290,CVS PHARMACY #2682,(860) 738-6250,PCY.0001801,"306,093","47 MAIN ST
CT 06098-1703
(41.920562, -73.059379)",47 MAIN ST,WINSTED,CT,"47 MAIN ST, WINSTED, CT",06098-1703,Match,"-73.06055,41.920986",-73.06055,41.920986,Litchfield County,Blue,Mid,C,3
292,CVS/PHARMACY #16712,(203) 634-6060,PCY.0001795,"286,709","474 CHAMBERLAIN HWY
CT 06451-1818
(41.552129, -72.813338)",474 CHAMBERLAIN HWY,MERIDEN,CT,"474 CHAMBERLAIN HWY, MERIDEN, CT",06451-1818,Match,"-72.813095,41.552887",-72.813095,41.552887,New Haven County,Green,Tiny,E,5
293,WAL-MART STORE #3547,(203) 854-8519,PCY.0001833,"334,629","680 CONNECTICUT AVE
CT 06854-1616
(41.094874, -73.449392)",680 CONNECTICUT AVE,NORWALK,CT,"680 CONNECTICUT AVE, NORWALK, CT",06854-1616,Match,"-73.44991,41.0946",-73.44991,41.0946,Fairfield,Red,Tiny,A,1
294,BIG Y PHARMACY #82,203-791-9820,PCY.0002078,"457,835","81 STONY HILL RD
CT 06801-3038
(41.414051, -73.37831)",81 STONY HILL RD,BETHEL,CT,"81 STONY HILL RD, BETHEL, CT",06801-3038,Match,"-73.380165,41.414368",-73.380165,41.414368,Fairfield,Red,Tiny,A,1
296,ENGLISH APOTHECARY,203-792-3363,PCY.0002208,"986,516","140 GREENWOOD AVE
CT 06801-2530
(41.371144, -73.412319)",140 GREENWOOD AVE,BETHEL,CT,"140 GREENWOOD AVE, BETHEL, CT",06801-2530,Match,"-73.412125,41.371162",-73.412125,41.371162,Fairfield,Red,Tiny,A,1
297,STOP & SHOP PHARMACY #645,(860) 348-9830,PCY.0001761,"243,636","1309 CORBIN AVE
CT 06053-3857
(41.669384, -72.805828)",1309 CORBIN AVE,NEW BRITAIN,CT,"1309 CORBIN AVE, NEW BRITAIN, CT",06053-3857,Match,"-72.80565,41.669674",-72.80565,41.669674,Hartford County,Orange,Tiny,B,2
298,STOP & SHOP SUPERMARKET #635,(203) 732-3907,PCY.0001371,"38,672","100 DIVISION ST
CT 06401-2147
(41.331998, -73.08221)",100 DIVISION ST,ANSONIA,CT,"100 DIVISION ST, ANSONIA, CT",06401-2147,Match,"-73.08628,41.334045",-73.08628,41.334045,New Haven County,Green,Tiny,E,5
299,CVS PHARMACY #349,(860) 947-5078,PCY.0000006,"36,880","484 WINDSOR AVE
CT 06095-4401
(41.820112, -72.656585)",484 WINDSOR AVE,WINDSOR,CT,"484 WINDSOR AVE, WINDSOR, CT",06095-4401,Match,"-72.65675,41.818302",-72.65675,41.818302,Hartford County,Orange,Tiny,B,2
300,RITE AID  #1375,(203) 723-7745,PCY.0001214,"246,251","56 RUBBER AVE
CT 06770-4136
(41.487055, -73.057198)",56 RUBBER AVE,NAUGATUCK,CT,"56 RUBBER AVE, NAUGATUCK, CT",06770-4136,Match,"-73.056595,41.487217",-73.056595,41.487217,New Haven County,Green,Tiny,E,5
301,ROCKY HILL COMMUNITY PHARMACY,(860) 372-4618,PCY.0002299,"1,237,800","366 CROMWELL AVE
CT 06067-1841
(41.66061, -72.678609)",366 CROMWELL AVE,ROCKY HILL,CT,"366 CROMWELL AVE, ROCKY HILL, CT",06067-1841,Match,"-72.67854,41.660145",-72.67854,41.660145,Hartford County,Orange,Tiny,B,2
302,STOP & SHOP #604,(203) 729-4182,PCY.0001348,"246,647","727 RUBBER AVE
CT 06770-3642
(41.49262, -73.078807)",727 RUBBER AVE,NAUGATUCK,CT,"727 RUBBER AVE, NAUGATUCK, CT",06770-3642,Match,"-73.078705,41.492596",-73.078705,41.492596,New Haven County,Green,Tiny,E,5
303,WAL-MART PHARMACY #10-2144,(860) 496-9193,PCY.0001588,"174,489","970 TORRINGFORD ST
CT 06790-3542
(41.819197, -73.081438)",970 TORRINGFORD ST,TORRINGTON,CT,"970 TORRINGFORD ST, TORRINGTON, CT",06790-3542,Match,"-73.08115,41.820007",-73.08115,41.820007,Litchfield County,Blue,Mid,C,3
304,"EYE OF HORUS PHARMACEUTICAL SERVICES, LLC",8607450183,PCY.0001177,"38,216","15 PALOMBA DRIVE
CT 06082
(41.997147, -72.573657)",15 PALOMBA DRIVE; SUITE #8,ENFIELD,CT,"15 PALOMBA DRIVE; SUITE #8, ENFIELD, CT",6082,Match,"-72.573975,41.9976",-72.573975,41.9976,Hartford County,Orange,Tiny,B,2
306,BIG Y PHARMACY #5,(860) 536-5835,PCY.0001647,"187,702","79 STONINGTON RD
CT 06355-2931
(41.344565, -71.951223)",79 STONINGTON RD,MYSTIC,CT,"79 STONINGTON RD, MYSTIC, CT",06355-2931,Match,"-71.95387,41.346592",-71.95387,41.346592,New London County,Black,Mid,F,6
307,BISSELL PHARMACY,(203) 438-6600,PCY.0000023,"249,877","23 GOVERNOR ST
CT 06877-4687
(41.280656, -73.496291)",23 GOVERNOR ST,RIDGEFIELD,CT,"23 GOVERNOR ST, RIDGEFIELD, CT",06877-4687,Match,"-73.49717,41.28051",-73.49717,41.28051,Fairfield,Red,Tiny,A,1
308,THE WESTON CENTER PHARMACY,(203) 226-7800,PCY.0002098,"478,003","190 WESTON RD
CT 06883-2126
(41.202358, -73.381734)",190 WESTON RD,WESTON,CT,"190 WESTON RD, WESTON, CT",06883-2126,Match,"-73.38168,41.20226",-73.38168,41.20226,Fairfield,Red,Tiny,A,1
309,WAL-MART PHARMACY #10-5777,(860) 412-5144,PCY.0002274,"1,170,931","450 PROVIDENCE RD
CT 06234-1823
(41.797104, -71.912123)",450 PROVIDENCE RD,BROOKLYN,CT,"450 PROVIDENCE RD, BROOKLYN, CT",06234-1823,Match,"-71.91114,41.79722",-71.91114,41.79722,Windham County,Grey,Big,L,8
310,WAL-MART STORE #3546,(860) 350-4823,PCY.0001819,"319,300","164 DANBURY RD
CT 06776-4332
(41.55015, -73.418189)",164 DANBURY RD,NEW MILFORD,CT,"164 DANBURY RD, NEW MILFORD, CT",06776-4332,Match,"-73.41712,41.552082",-73.41712,41.552082,Litchfield County,Blue,Mid,C,3
311,CVS PHARMACY #16614,(860) 443-3171,PCY.0001760,"241,812","900 HARTFORD TPKE
CT 06385-4246
(41.380206, -72.151509)",900 HARTFORD TPKE,WATERFORD,CT,"900 HARTFORD TPKE, WATERFORD, CT",06385-4246,Match,"-72.14967,41.379055",-72.14967,41.379055,New London County,Black,Mid,F,6
312,ROTARY DRUG,(203) 378-9394,PCY.0000898,"246,024","1030 BARNUM AVE
CT 06614-4985
(41.199016, -73.132056)",1030 BARNUM AVE,STRATFORD,CT,"1030 BARNUM AVE, STRATFORD, CT",06614-4985,Match,"-73.133194,41.198727",-73.133194,41.198727,Fairfield,Red,Tiny,A,1
313,WALGREENS #03827,(860) 522-5005,PCY.0000958,"359,708","161 WASHINGTON ST
CT 06106-2464
(41.757799, -72.682328)",161 WASHINGTON ST,HARTFORD,CT,"161 WASHINGTON ST, HARTFORD, CT",06106-2464,Match,"-72.68237,41.757774",-72.68237,41.757774,Hartford County,Orange,Tiny,B,2
314,WALGREENS #16080,(203) 336-3551,PCY.0001108,"38,007","414 KINGS HWY E
CT 06825-4846
(41.172435, -73.229209)",414 KINGS HWY E,FAIRFIELD,CT,"414 KINGS HWY E, FAIRFIELD, CT",06825-4846,Match,"-73.22894,41.17305",-73.22894,41.17305,Fairfield,Red,Tiny,A,1
315,CVS PHARMACY #350,(860) 233-9673,PCY.0000448,"37,323","566 FARMINGTON AVE
CT 06105-3050
(41.766167, -72.711395)",566 FARMINGTON AVE,HARTFORD,CT,"566 FARMINGTON AVE, HARTFORD, CT",06105-3050,Match,"-72.71132,41.766197",-72.71132,41.766197,Hartford County,Orange,Tiny,B,2
316,WALGREENS #05406,(203) 230-2803,PCY.0001768,"258,886","1191 DIXWELL AVE
CT 06514-4733
(41.345324, -72.934147)",1191 DIXWELL AVE,HAMDEN,CT,"1191 DIXWELL AVE, HAMDEN, CT",06514-4733,Match,"-72.934326,41.344334",-72.934326,41.344334,New Haven County,Green,Tiny,E,5
317,CVS/PHARMACY #17425,(203) 873-2013,PCY.0000982,"513,947","5065 MAIN ST
STE TARGET, CT 06611-4204
(41.2295, -73.219663)",5065 MAIN ST STE TARGET,TRUMBULL,CT,"5065 MAIN ST STE TARGET, TRUMBULL, CT",06611-4204,Match,"-73.2199,41.229984",-73.2199,41.229984,Fairfield,Red,Tiny,A,1
318,RITE AID  #10370,(203) 261-6493,PCY.0001366,"38,667","435 MAIN ST
CT 06468-1151
(41.322413, -73.265029)",435 MAIN ST,MONROE,CT,"435 MAIN ST, MONROE, CT",06468-1151,Match,"-73.26455,41.321987",-73.26455,41.321987,Fairfield,Red,Tiny,A,1
319,WALGREENS #06968,(203) 798-7753,PCY.0001238,"38,242","101 FEDERAL RD
CT 06811-4019
(41.429371, -73.416516)",101 FEDERAL RD,DANBURY,CT,"101 FEDERAL RD, DANBURY, CT",06811-4019,Match,"-73.42699,41.41125",-73.42699,41.41125,Fairfield,Red,Tiny,A,1
320,WOODBURY DRUG,(203) 263-2282,PCY.0001712,"204,631","682 MAIN ST S
CT 06798-3736
(41.527115, -73.203531)",682 MAIN ST S UNIT E 1,WOODBURY,CT,"682 MAIN ST S UNIT E 1, WOODBURY, CT",06798-3736,Match,"-73.203964,41.52848",-73.203964,41.52848,Litchfield County,Blue,Mid,C,3
321,STOP & SHOP PHARMACY #2614,(860) 870-6255,PCY.0001551,"74,160","50 WINDSORVILLE RD
CT 06066-2385
(41.865032, -72.482059)",50 WINDSORVILLE RD,VERNON,CT,"50 WINDSORVILLE RD, VERNON, CT",06066-2385,Match,"-72.48572,41.865623",-72.48572,41.865623,Tolland County,Red,Mid,G,7
323,CVS PHARMACY #798,(203) 790-9485,PCY.0001261,"38,436","299 WHITE ST
CT 06810-6934
(41.399293, -73.431751)",299 WHITE ST # 305,DANBURY,CT,"299 WHITE ST # 305, DANBURY, CT",06810-6934,Match,"-73.43223,41.3993",-73.43223,41.3993,Fairfield,Red,Tiny,A,1
324,CVS PHARMACY #2573,(203) 383-7741,PCY.0001758,"243,544","1425 BARNUM AVE
CT 06614-5404
(41.19659, -73.138103)",1425 BARNUM AVE,STRATFORD,CT,"1425 BARNUM AVE, STRATFORD, CT",06614-5404,Match,"-73.14059,41.195477",-73.14059,41.195477,Fairfield,Red,Tiny,A,1
325,WALGREENS #07585,(860) 826-7272,PCY.0001427,"38,887","102 WASHINGTON ST
CT 06051-1826
(41.670479, -72.784005)",102 WASHINGTON ST,NEW BRITAIN,CT,"102 WASHINGTON ST, NEW BRITAIN, CT",06051-1826,Match,"-72.78409,41.67091",-72.78409,41.67091,Hartford County,Orange,Tiny,B,2
326,CVS PHARMACY #8249,(860) 963-2548,PCY.0002149,"897,486","57 PROVIDENCE PIKE
CT 06260-2413
(41.924975, -71.87677)",57 PROVIDENCE PIKE,PUTNAM,CT,"57 PROVIDENCE PIKE, PUTNAM, CT",06260-2413,Match,"-71.874435,41.925213",-71.874435,41.925213,Windham County,Grey,Big,L,8
327,STOP & SHOP PHARMACY #608,8605372570,PCY.0001599,"175,335","99 LINWOOD AVE
CT 06415-1159
(41.572306, -72.33562)",99 LINWOOD AVE,COLCHESTER,CT,"99 LINWOOD AVE, COLCHESTER, CT",06415-1159,Match,"-72.335464,41.572384",-72.335464,41.572384,New London County,Black,Mid,F,6
328,WALGREENS #03579,(203) 389-2143,PCY.0000131,"36,904","1471 WHALLEY AVE
CT 06515-1153
(41.334125, -72.976393)",1471 WHALLEY AVE,NEW HAVEN,CT,"1471 WHALLEY AVE, NEW HAVEN, CT",06515-1153,Match,"-72.97658,41.33699",-72.97658,41.33699,New Haven County,Green,Tiny,E,5
329,CVS PHARMACY #2259,(203) 401-4661,PCY.0001799,"293,760","215 WHALLEY AVE
CT 06511-3205
(41.315688, -72.939715)",215 WHALLEY AVE,NEW HAVEN,CT,"215 WHALLEY AVE, NEW HAVEN, CT",06511-3205,Match,"-72.93983,41.31577",-72.93983,41.31577,New Haven County,Green,Tiny,E,5
330,RITE AID  #10389,(203) 438-7378,PCY.0001885,"376,869","125 DANBURY RD
CT 06877-4139
(41.294583, -73.492898)",125 DANBURY RD,RIDGEFIELD,CT,"125 DANBURY RD, RIDGEFIELD, CT",06877-4139,Match,"-73.493,41.293583",-73.493,41.293583,Fairfield,Red,Tiny,A,1
331,CVS PHARMACY #10605,(860) 684-0015,PCY.0002305,"1,255,563","37 W MAIN ST
CT 06076-1459
(41.955037, -72.31007)",37 W MAIN ST,STAFFORD SPRINGS,CT,"37 W MAIN ST, STAFFORD SPRINGS, CT",06076-1459,Match,"-72.30418,41.95349",-72.30418,41.95349,Tolland County,Red,Mid,G,7
332,GENOA HEALTHCARE LLC,(860) 215-4321,PCY.0002298,"1,227,902","47 TOWN ST
STE G, CT 06360-2323
(41.546948, -72.092172)",47 TOWN ST STE G,NORWICH,CT,"47 TOWN ST STE G, NORWICH, CT",06360-2323,Match,"-72.09245,41.54714",-72.09245,41.54714,New London County,Black,Mid,F,6
333,RITE AID  #10355,(860) 376-1206,PCY.0001727,"221,601","27 MAIN ST
CT 06351-2203
(41.605135, -71.98342)",27 MAIN ST,JEWETT CITY,CT,"27 MAIN ST, JEWETT CITY, CT",06351-2203,Match,"-71.98356,41.605045",-71.98356,41.605045,New London County,Black,Mid,F,6
334,CVS PHARMACY #124,(203) 723-1172,PCY.0001556,"73,598","98 BRIDGE ST
CT 06770-2822
(41.501055, -73.052556)",98 BRIDGE ST,NAUGATUCK,CT,"98 BRIDGE ST, NAUGATUCK, CT",06770-2822,Match,"-73.052246,41.501167",-73.052246,41.501167,New Haven County,Green,Tiny,E,5
336,RITE AID  #10386,(203) 259-2353,PCY.0001413,"38,879","1619 POST RD
CT 06824-5910
(41.141035, -73.260217)",1619 POST RD,FAIRFIELD,CT,"1619 POST RD, FAIRFIELD, CT",06824-5910,Match,"-73.25828,41.14107",-73.25828,41.14107,Fairfield,Red,Tiny,A,1
337,GREAT HILLS LLC,(203) 906-3993,PCY.0002333,"1,337,671","152 COLONY ST
A, CT 06451-3225
(41.542155, -72.800102)",152 COLONY ST # A,MERIDEN,CT,"152 COLONY ST # A, MERIDEN, CT",06451-3225,Match,"-72.80019,41.542004",-72.80019,41.542004,New Haven County,Green,Tiny,E,5
338,CONNECTICUT PHARMACY DIRECT,(203) 295-4629,PCY.0002331,"1,336,533","10 FAIRFIELD BLVD
UNIT C, CT 06492-5903
(41.487895, -72.789004)",10 FAIRFIELD BLVD UNIT C,WALLINGFORD,CT,"10 FAIRFIELD BLVD UNIT C, WALLINGFORD, CT",06492-5903,Match,"-72.78987,41.483334",-72.78987,41.483334,New Haven County,Green,Tiny,E,5
339,WALGREENS #06474,(203) 752-9893,PCY.0001778,"279,100","88 YORK ST
CT 06511-5619
(41.306019, -72.933447)",88 YORK ST,NEW HAVEN,CT,"88 YORK ST, NEW HAVEN, CT",06511-5619,Match,"-72.93351,41.305878",-72.93351,41.305878,New Haven County,Green,Tiny,E,5
340,WALGREENS #03359,(203) 377-2851,PCY.0001539,"228,049","1606 BARNUM AVE
CT 06614-5301
(41.19494, -73.141788)",1606 BARNUM AVE,STRATFORD,CT,"1606 BARNUM AVE, STRATFORD, CT",06614-5301,Match,"-73.14151,41.19508",-73.14151,41.19508,Fairfield,Red,Tiny,A,1
341,BRIDGEPORT PHARMACY,(203) 367-9000,PCY.0002115,"501,289","978 E MAIN ST
CT 06608-1913
(41.187985, -73.18076)",978 E MAIN ST,BRIDGEPORT,CT,"978 E MAIN ST, BRIDGEPORT, CT",06608-1913,Match,"-73.18072,41.187973",-73.18072,41.187973,Fairfield,Red,Tiny,A,1
342,WALGREENS #07602,(203) 268-1216,PCY.0001874,"369,191","275 MONROE TPKE
CT 06468-2246
(41.303554, -73.223171)",275 MONROE TPKE,MONROE,CT,"275 MONROE TPKE, MONROE, CT",06468-2246,Match,"-73.225426,41.299473",-73.225426,41.299473,Fairfield,Red,Tiny,A,1
343,RITE AID #10376,(203) 377-8065,PCY.0001264,"38,438","3680 MAIN ST
CT 06614-4102
(41.209854, -73.129875)",3680 MAIN ST,STRATFORD,CT,"3680 MAIN ST, STRATFORD, CT",06614-4102,Match,"-73.129654,41.210007",-73.129654,41.210007,Fairfield,Red,Tiny,A,1
344,RITE AID  #10366,(860) 346-8601,PCY.0000717,"37,551","10 MAIN ST
STE A, CT 06457-3407
(41.557125, -72.647533)",10 MAIN ST STE A,MIDDLETOWN,CT,"10 MAIN ST STE A, MIDDLETOWN, CT",06457-3407,Match,"-72.646614,41.55607",-72.646614,41.55607,Middlesex County,Purple,Small,D,4
345,NATHAN HALE PHARMACY,(860) 873-1481,PCY.0001028,"37,985","26 FALLS RD
CT 06469
(41.505271, -72.447227)",26 FALLS RD,MOODUS,CT,"26 FALLS RD, MOODUS, CT",6469,Match,"-72.44528,41.505768",-72.44528,41.505768,Middlesex County,Purple,Small,D,4
346,SHORELINE INTEGRATIVE PHARMACY LLC,(203) 451-8852,PCY.0002342,"1,378,169","1835 POST RD E
CT 06880-5666
(41.138268, -73.299587)",1835 POST RD E,WESTPORT,CT,"1835 POST RD E, WESTPORT, CT",06880-5666,Match,"-73.299545,41.1383",-73.299545,41.1383,Fairfield,Red,Tiny,A,1
347,RITE AID  #10369,(203) 268-9091,PCY.0001179,"38,217","508 MONROE TPKE
CT 06468-2309
(41.317392, -73.215594)",508 MONROE TPKE,MONROE,CT,"508 MONROE TPKE, MONROE, CT",06468-2309,Match,"-73.21491,41.318123",-73.21491,41.318123,Fairfield,Red,Tiny,A,1
348,RITE AID  #10362,(860)537-9034,PCY.0001453,"38,902","27 BROADWAY ST
CT 06415-1001
(41.576574, -72.333181)",27 BROADWAY ST,COLCHESTER,CT,"27 BROADWAY ST, COLCHESTER, CT",06415-1001,Match,"-72.33449,41.577324",-72.33449,41.577324,New London County,Black,Mid,F,6
349,JEWETT CITY PHARMACY,(860) 376-4468,PCY.0000657,"37,539","78 MAIN ST
CT 06351-2226
(41.60609, -71.982069)",78 MAIN ST,JEWETT CITY,CT,"78 MAIN ST, JEWETT CITY, CT",06351-2226,Match,"-71.98255,41.605785",-71.98255,41.605785,New London County,Black,Mid,F,6
350,STOP & SHOP #628,(860) 582-5674,PCY.0001315,"246,463","597 FARMINGTON AVE
CT 06010-3932
(41.690427, -72.924037)",597 FARMINGTON AVE,BRISTOL,CT,"597 FARMINGTON AVE, BRISTOL, CT",06010-3932,Match,"-72.92465,41.69026",-72.92465,41.69026,Hartford County,Orange,Tiny,B,2
351,ARROW PRESCRIPTION CENTER #11,8605245304,PCY.0001698,"360,481","500 ALBANY AVENUE
CT 06120-2599
(41.777722, -72.685016)",500 ALBANY AVENUE,HARTFORD,CT,"500 ALBANY AVENUE, HARTFORD, CT",06120-2599,Match,"-72.68471,41.77761",-72.68471,41.77761,Hartford County,Orange,Tiny,B,2
352,CVS PHARMACY #17490,(860) 823-2961,PCY.0002143,"533,235","195 RIVER RD
CT 06351-3253
(41.584165, -71.995148)",195 RIVER RD,LISBON,CT,"195 RIVER RD, LISBON, CT",06351-3253,Match,"-71.9979,41.581112",-71.9979,41.581112,New London County,Black,Mid,F,6
353,RITE AID  #1437,(860) 482-5522,PCY.0000021,"36,884","92 WILLOW ST
CT 06790-5501
(41.802662, -73.117)",92 WILLOW ST,TORRINGTON,CT,"92 WILLOW ST, TORRINGTON, CT",06790-5501,Match,"-73.11732,41.802895",-73.11732,41.802895,Litchfield County,Blue,Mid,C,3
354,SHOPRITE PHARMACY OF BRISTOL #308,860-584-5733,PCY.0001700,"212,643","1200 FARMINGTON AVE
CT 06010-4714
(41.697521, -72.903645)",1200 FARMINGTON AVE,BRISTOL,CT,"1200 FARMINGTON AVE, BRISTOL, CT",06010-4714,Match,"-72.90453,41.697186",-72.90453,41.697186,Hartford County,Orange,Tiny,B,2
355,CVS PHARMACY #671,(860) 236-6181,PCY.0001205,"38,225","1099 NEW BRITAIN AVE
CT 06110-2418
(41.731911, -72.729914)",1099 NEW BRITAIN AVE,WEST HARTFORD,CT,"1099 NEW BRITAIN AVE, WEST HARTFORD, CT",06110-2418,Match,"-72.72993,41.731884",-72.72993,41.731884,Hartford County,Orange,Tiny,B,2
357,CVS PHARMACY #857,(203) 467-8876,PCY.0001304,"38,455","660 FOXON RD
CT 06513-1863
(41.322029, -72.852454)",660 FOXON RD,EAST HAVEN,CT,"660 FOXON RD, EAST HAVEN, CT",06513-1863,Match,"-72.85309,41.322056",-72.85309,41.322056,New Haven County,Green,Tiny,E,5
358,RITE AID  #10349,860-296-3478,PCY.0001854,"358,510","315 FRANKLIN AVE
CT 06114-1851
(41.741668, -72.676075)",315 FRANKLIN AVE,HARTFORD,CT,"315 FRANKLIN AVE, HARTFORD, CT",06114-1851,Match,"-72.67609,41.741524",-72.67609,41.741524,Hartford County,Orange,Tiny,B,2
359,WALGREENS #01824,(860) 741-3503,PCY.0001267,"38,439","30 HAZARD AVE
CT 06082-3713
(41.989731, -72.579224)",30 HAZARD AVE,ENFIELD,CT,"30 HAZARD AVE, ENFIELD, CT",06082-3713,Match,"-72.58264,41.99003",-72.58264,41.99003,Hartford County,Orange,Tiny,B,2
360,WALGREENS #07086,(860) 793-9356,PCY.0001811,"314,837","5 FARMINGTON AVE
CT 06062-1726
(41.674928, -72.858142)",5 FARMINGTON AVE,PLAINVILLE,CT,"5 FARMINGTON AVE, PLAINVILLE, CT",06062-1726,Match,"-72.85829,41.674713",-72.85829,41.674713,Hartford County,Orange,Tiny,B,2
361,BEACON PHARMACY LLC DBA ROCKVILLE PHARMACY,(860) 875-9263,PCY.0000358,"37,130","40 W MAIN ST
CT 06066-3501
(41.671199, -72.867942)",40 W MAIN ST,VERNON ROCKVILLE,CT,"40 W MAIN ST, VERNON ROCKVILLE, CT",06066-3501,Match,"-72.49982,41.819817",-72.49982,41.819817,Tolland County,Red,Mid,G,7
362,BIG Y  PHARMACY #56,(860) 354-5554,PCY.0002160,"911,596","1 KENT RD
CT 06776-3405
(41.575324, -73.41912)",1 KENT RD,NEW MILFORD,CT,"1 KENT RD, NEW MILFORD, CT",06776-3405,Match,"-73.4299,41.58158",-73.4299,41.58158,Litchfield County,Blue,Mid,C,3
363,CVS PHARMACY #10130,(860) 228-3888,PCY.0002236,"1,056,533","110 MAIN ST
CT 06248-1518
(41.660415, -72.357698)",110 MAIN ST,HEBRON,CT,"110 MAIN ST, HEBRON, CT",06248-1518,Match,"-72.35575,41.66077",-72.35575,41.66077,Tolland County,Red,Mid,G,7
364,CVS PHARMACY #2253,(860) 693-8077,PCY.0002248,"1,116,909","111 ALBANY TPKE
CT 06019-2507
(41.824274, -72.885443)",111 ALBANY TPKE,CANTON,CT,"111 ALBANY TPKE, CANTON, CT",06019-2507,Match,"-72.8856,41.82422",-72.8856,41.82422,Hartford County,Orange,Tiny,B,2
365,RITE AID  #4687,(860) 747-5787,PCY.0001600,"176,939","52 EAST ST
CT 06062-2309
(41.670865, -72.860084)",52 EAST ST,PLAINVILLE,CT,"52 EAST ST, PLAINVILLE, CT",06062-2309,Match,"-72.86011,41.67088",-72.86011,41.67088,Hartford County,Orange,Tiny,B,2
367,RITE AID  #10381,860-274-7559,PCY.0001277,"246,434","620 MAIN ST
CT 06795-2614
(41.601985, -73.116098)",620 MAIN ST,WATERTOWN,CT,"620 MAIN ST, WATERTOWN, CT",06795-2614,Match,"-73.116165,41.602165",-73.116165,41.602165,Litchfield County,Blue,Mid,C,3
368,WALGREENS #05134,(860) 658-0479,PCY.0001029,"37,986","540 BUSHY HILL RD
CT 06070-2925
(41.81833, -72.866681)",540 BUSHY HILL RD,SIMSBURY,CT,"540 BUSHY HILL RD, SIMSBURY, CT",06070-2925,Match,"-72.86091,41.82182",-72.86091,41.82182,Hartford County,Orange,Tiny,B,2
369,CVS PHARMACY #942,(860) 779-0523,PCY.0001328,"38,468","542 PROVIDENCE RD
CT 06234-3413
(41.798718, -71.903435)",542 PROVIDENCE RD,BROOKLYN,CT,"542 PROVIDENCE RD, BROOKLYN, CT",06234-3413,Match,"-71.90266,41.798923",-71.90266,41.798923,Windham County,Grey,Big,L,8
370,CVS PHARMACY #1139,(203) 368-0944,PCY.0001576,"165,876","2610 E MAIN ST
CT 06610-1422
(41.210914, -73.179049)",2610 E MAIN ST,BRIDGEPORT,CT,"2610 E MAIN ST, BRIDGEPORT, CT",06610-1422,Match,"-73.17898,41.21041",-73.17898,41.21041,Fairfield,Red,Tiny,A,1
371,"GENOA HEALTHCARE, LLC",(860) 447-9145,PCY.0002090,"469,503","21 MONTAUK AVE
CT 06320-4906
(41.348373, -72.105669)",21 MONTAUK AVE STE 102,NEW LONDON,CT,"21 MONTAUK AVE STE 102, NEW LONDON, CT",06320-4906,Match,"-72.10568,41.348473",-72.10568,41.348473,New London County,Black,Mid,F,6
372,WEST HAVEN PHARMACY,(203) 9347100,PCY.0002294,"1,219,165","764 CAMPBELL AVE
CT 06516-3786
(41.279459, -72.955114)",764 CAMPBELL AVE,WEST HAVEN,CT,"764 CAMPBELL AVE, WEST HAVEN, CT",06516-3786,Match,"-72.95513,41.279507",-72.95513,41.279507,New Haven County,Green,Tiny,E,5
373,HEALTH PLUS PHARMACY INC,(203) 304-2900,PCY.0002344,"1,383,345","114 CONNECTICUT AVE
CT 06854-1525
(41.105841, -73.427137)",114 CONNECTICUT AVE,NORWALK,CT,"114 CONNECTICUT AVE, NORWALK, CT",06854-1525,Match,"-73.42792,41.105618",-73.42792,41.105618,Fairfield,Red,Tiny,A,1
375,CVS PHARMACY #5703,(860) 585-0122,PCY.0002221,"1,030,220","60 MIDDLE ST
CT 06010-5201
(41.667477, -72.922511)",60 MIDDLE ST,BRISTOL,CT,"60 MIDDLE ST, BRISTOL, CT",06010-5201,Match,"-72.92251,41.667423",-72.92251,41.667423,Hartford County,Orange,Tiny,B,2
376,STOP & SHOP PHARMACY #642,(860) 583-9213,PCY.0001676,"157,733","747 PINE ST
CT 06010-6959
(41.668884, -72.89558)",747 PINE ST,BRISTOL,CT,"747 PINE ST, BRISTOL, CT",06010-6959,Match,"-72.89505,41.668858",-72.89505,41.668858,Hartford County,Orange,Tiny,B,2
378,CVS PHARMACY #1241,(203) 877-8127,PCY.0001424,"233,450","734 BRIDGEPORT AVE
CT 06460-3169
(41.210545, -73.081773)",734 BRIDGEPORT AVE,MILFORD,CT,"734 BRIDGEPORT AVE, MILFORD, CT",06460-3169,Match,"-73.08159,41.210705",-73.08159,41.210705,New Haven County,Green,Tiny,E,5
379,RITE AID #6708,(203) 492-0090,PCY.0002325,"1,320,894","249 LEGION AVE
CT 06519-5508
(41.306042, -72.942405)",249 LEGION AVE,NEW HAVEN,CT,"249 LEGION AVE, NEW HAVEN, CT",06519-5508,Match,"-72.942474,41.306038",-72.942474,41.306038,New Haven County,Green,Tiny,E,5
380,CVS PHARMACY #85,(860) 569-0888,PCY.0002246,"1,082,304","972 SILVER LN
CT 06118-1248
(41.765618, -72.60116)",972 SILVER LN,EAST HARTFORD,CT,"972 SILVER LN, EAST HARTFORD, CT",06118-1248,Match,"-72.60272,41.76542",-72.60272,41.76542,Hartford County,Orange,Tiny,B,2
383,GENOA HEALTHCARE LLC,860-479-2667,PCY.0002270,"1,169,395","91 NORTHWEST DR
CT 06062-1534
(41.691175, -72.879261)",91 NORTHWEST DR STE L-14,PLAINVILLE,CT,"91 NORTHWEST DR STE L-14, PLAINVILLE, CT",06062-1534,Match,"-72.87947,41.690914",-72.87947,41.690914,Hartford County,Orange,Tiny,B,2
384,TOWNE APOTHECARY LLC,(203) 266-7801,PCY.0001133,"38,018","95 MAIN ST S
CT 06751-2004
(41.634565, -73.208822)",95 MAIN ST S,BETHLEHEM,CT,"95 MAIN ST S, BETHLEHEM, CT",06751-2004,Match,"-73.20882,41.634895",-73.20882,41.634895,Litchfield County,Blue,Mid,C,3
386,MEDICINE SHOPPE (THE),(860) 442-0669,PCY.0001118,"246,038","613 BROAD STREET
CT 06320
(41.366457, -72.122918)",613 BROAD STREET,NEW LONDON,CT,"613 BROAD STREET, NEW LONDON, CT",6320,Match,"-72.12294,41.366467",-72.12294,41.366467,New London County,Black,Mid,F,6
387,CVS PHARMACY #1089,(860) 290-2091,PCY.0001368,"38,669","20 BURNSIDE AVE
CT 06108-3403
(41.774302, -72.638702)",20 BURNSIDE AVE,EAST HARTFORD,CT,"20 BURNSIDE AVE, EAST HARTFORD, CT",06108-3403,Match,"-72.63889,41.774265",-72.63889,41.774265,Hartford County,Orange,Tiny,B,2
389,RITE AID #10373,(860) 342-2121,PCY.0001648,"186,771","227 MAIN ST
CT 06480-1858
(41.573414, -72.640333)",227 MAIN ST,PORTLAND,CT,"227 MAIN ST, PORTLAND, CT",06480-1858,Match,"-72.63988,41.574047",-72.63988,41.574047,Middlesex County,Purple,Small,D,4
390,CVS/PHARMACY #17324,(203) 278-5056,PCY.0002092,"472,011","20 W MAIN ST
CT 06401-1812
(41.3434, -73.079591)",20 W MAIN ST,ANSONIA,CT,"20 W MAIN ST, ANSONIA, CT",06401-1812,Match,"-73.07974,41.345768",-73.07974,41.345768,New Haven County,Green,Tiny,E,5
391,HANCOCK LTC INC,(203) 235-0335,PCY.0002306,"1,261,901","29 GRAVEL ST
CT 06450-4607
(41.529289, -72.775236)",29 GRAVEL ST,MERIDEN,CT,"29 GRAVEL ST, MERIDEN, CT",06450-4607,Match,"-72.77529,41.52923",-72.77529,41.52923,New Haven County,Green,Tiny,E,5
392,CVS PHARMACY #1183,(860) 244-9424,PCY.0001450,"38,900","777 MAIN ST
CT 06103-2308
(41.765961, -72.673301)",777 MAIN ST,HARTFORD,CT,"777 MAIN ST, HARTFORD, CT",06103-2308,Match,"-72.673355,41.765785",-72.673355,41.765785,Hartford County,Orange,Tiny,B,2
393,CVS PHARMACY #3835,(860) 613-0499,PCY.0002130,"519,278","72 BERLIN RD
CT 06416-2602
(41.601781, -72.691696)",72 BERLIN RD,CROMWELL,CT,"72 BERLIN RD, CROMWELL, CT",06416-2602,Match,"-72.69197,41.601807",-72.69197,41.601807,Middlesex County,Purple,Small,D,4
394,CVS PHARMACY #1102,(860) 243-8351,PCY.0001024,"37,984","341 COTTAGE GROVE RD
CT 06002-3148
(41.817624, -72.713663)",341 COTTAGE GROVE RD,BLOOMFIELD,CT,"341 COTTAGE GROVE RD, BLOOMFIELD, CT",06002-3148,Match,"-72.715775,41.81816",-72.715775,41.81816,Hartford County,Orange,Tiny,B,2
395,WALGREENS #01977,(860) 896-1485,PCY.0002013,"414,164","188 UNION ST
CT 06066-2429
(41.868478, -72.46499)",188 UNION ST,VERNON,CT,"188 UNION ST, VERNON, CT",06066-2429,Match,"-72.46514,41.86846",-72.46514,41.86846,Tolland County,Red,Mid,G,7
396,WALGREENS #10144,(860) 482-8837,PCY.0002088,"467,090","1745 E MAIN ST
CT 06790-3520
(41.821, -73.082179)",1745 E MAIN ST,TORRINGTON,CT,"1745 E MAIN ST, TORRINGTON, CT",06790-3520,Match,"-73.08156,41.82101",-73.08156,41.82101,Litchfield County,Blue,Mid,C,3
397,CVS PHARMACY #2572,(203) 383-7735,PCY.0001757,"306,652","1 HAWLEY LN
CT 06614-1200
(41.231119, -73.153264)",1 HAWLEY LN,STRATFORD,CT,"1 HAWLEY LN, STRATFORD, CT",06614-1200,Match,"-73.15362,41.23094",-73.15362,41.23094,Fairfield,Red,Tiny,A,1
398,CVS PHARMACY #865,(203) 235-8285,PCY.0001289,"38,448","839 E MAIN ST
CT 06450-6006
(41.52827, -72.775136)",839 E MAIN ST,MERIDEN,CT,"839 E MAIN ST, MERIDEN, CT",06450-6006,Match,"-72.77517,41.528305",-72.77517,41.528305,New Haven County,Green,Tiny,E,5
399,CVS/PHARMACY #16603,(860) 741-8054,PCY.0001790,"288,615","90 ELM ST
CT 06082-3770
(41.997903, -72.583405)",90 ELM ST,ENFIELD,CT,"90 ELM ST, ENFIELD, CT",06082-3770,Match,"-72.584755,41.997856",-72.584755,41.997856,Hartford County,Orange,Tiny,B,2
400,CVS PHARMACY #629,(203) 794-9438,PCY.0001212,"38,228","146 SOUTH ST
CT 06810-7951
(41.386125, -73.444576)",146 SOUTH ST,DANBURY,CT,"146 SOUTH ST, DANBURY, CT",06810-7951,Match,"-73.44447,41.38606",-73.44447,41.38606,Fairfield,Red,Tiny,A,1
401,CVS/PHARMACY #17071,(203) 859-3695,PCY.0001954,"394,019","25 BOSTON POST RD
CT 06477-3203
(41.279319, -72.986055)",25 BOSTON POST RD,ORANGE,CT,"25 BOSTON POST RD, ORANGE, CT",06477-3203,Match,"-72.990265,41.27603",-72.990265,41.27603,New Haven County,Green,Tiny,E,5
403,WALGREENS #13945,(203) 777-7863,PCY.0002203,"981,024","800 HOWARD AVE
CT 06519-1369
(41.302786, -72.93611)",800 HOWARD AVE STE 197,NEW HAVEN,CT,"800 HOWARD AVE STE 197, NEW HAVEN, CT",06519-1369,Match,"-72.9363,41.303062",-72.9363,41.303062,New Haven County,Green,Tiny,E,5
405,WAL-MART PHARMACY #10-2299,(860) 635-1507,PCY.0001635,"182,094","161 BERLIN RD
CT 06416-1021
(41.607262, -72.712776)",161 BERLIN RD,CROMWELL,CT,"161 BERLIN RD, CROMWELL, CT",06416-1021,Match,"-72.71462,41.607918",-72.71462,41.607918,Middlesex County,Purple,Small,D,4
406,CVS/PHARMACY #17238,(203) 437-3674,PCY.0002069,"445,112","300 CHASE AVE
CT 06704-2246
(41.581419, -73.034503)",300 CHASE AVE,WATERBURY,CT,"300 CHASE AVE, WATERBURY, CT",06704-2246,Match,"-73.034134,41.58124",-73.034134,41.58124,New Haven County,Green,Tiny,E,5
407,NORWALK PHARMACY LLC,(203) 536-4901,PCY.0002172,"923,918","250 WESTPORT AVE
CT 06851-4158
(41.124839, -73.395781)",250 WESTPORT AVE,NORWALK,CT,"250 WESTPORT AVE, NORWALK, CT",06851-4158,Match,"-73.39737,41.12444",-73.39737,41.12444,Fairfield,Red,Tiny,A,1
408,CVS PHARMACY #785,(860) 487-2034,PCY.0001674,"199,501","632 MIDDLE TPKE
CT 06268-1308
(41.827323, -72.267022)",632 MIDDLE TPKE,STORRS MANSFIELD,CT,"632 MIDDLE TPKE, STORRS MANSFIELD, CT",06268-1308,Match,"-72.26489,41.82804",-72.26489,41.82804,Tolland County,Red,Mid,G,7
409,WAL-MART PHARMACY #10-1980,(860) 928-4199,PCY.0001553,"74,162","625 SCHOOL ST
CT 06260-2424
(41.924541, -71.889099)",625 SCHOOL ST,PUTNAM,CT,"625 SCHOOL ST, PUTNAM, CT",06260-2424,Match,"-71.8886,41.924446",-71.8886,41.924446,Windham County,Grey,Big,L,8
410,WALGREENS #15389,(860) 673-3219,PCY.0002245,"1,081,997","5 MILL ST
CT 06085-1019
(41.756672, -72.887014)",5 MILL ST,UNIONVILLE,CT,"5 MILL ST, UNIONVILLE, CT",06085-1019,Match,"-72.88724,41.756733",-72.88724,41.756733,Hartford County,Orange,Tiny,B,2
411,CVS PHARMACY #1276,(860) 584-8998,PCY.0001473,"39,100","81 NORTH ST
CT 06010-4152
(41.681278, -72.94622)",81 NORTH ST,BRISTOL,CT,"81 NORTH ST, BRISTOL, CT",06010-4152,Match,"-72.94679,41.6813",-72.94679,41.6813,Hartford County,Orange,Tiny,B,2
412,TOWNE PHARMACY,(203) 488-1631,PCY.0000457,"37,326","1012 MAIN ST
CT 06405-3730
(41.281805, -72.81119)",1012 MAIN ST,BRANFORD,CT,"1012 MAIN ST, BRANFORD, CT",06405-3730,Match,"-72.81163,41.281414",-72.81163,41.281414,New Haven County,Green,Tiny,E,5
413,CVS PHARMACY #1101,(860) 568-1700,PCY.0000989,"37,794","16 MAIN ST
CT 06118-3208
(41.727907, -72.616753)",16 MAIN ST,EAST HARTFORD,CT,"16 MAIN ST, EAST HARTFORD, CT",06118-3208,Match,"-72.62221,41.731155",-72.62221,41.731155,Hartford County,Orange,Tiny,B,2
414,CVS PHARMACY #1070,(860) 623-2407,PCY.0000703,"37,548","90 MAIN ST
CT 06096-1913
(41.931169, -72.627541)",90 MAIN ST,WINDSOR LOCKS,CT,"90 MAIN ST, WINDSOR LOCKS, CT",06096-1913,Match,"-72.62753,41.93064",-72.62753,41.93064,Hartford County,Orange,Tiny,B,2
415,WALGREENS #11605,(203) 924-7740,PCY.0001682,"153,281","73 CENTER ST
CT 06484-3243
(41.316164, -73.093967)",73 CENTER ST,SHELTON,CT,"73 CENTER ST, SHELTON, CT",06484-3243,Match,"-73.09403,41.316154",-73.09403,41.316154,Fairfield,Red,Tiny,A,1
416,RITE AID  #1839,203-933-5260,PCY.0001666,"194,050","70 ELM ST
CT 06516-3810
(41.27894, -72.942171)",70 ELM ST,WEST HAVEN,CT,"70 ELM ST, WEST HAVEN, CT",06516-3810,Match,"-72.94336,41.278572",-72.94336,41.278572,New Haven County,Green,Tiny,E,5
417,WAL-MART PHARMACY #10-2163,(203) 929-1144,PCY.0001582,"168,761","465 BRIDGEPORT AVE
CT 06484-4751
(41.290272, -73.111998)",465 BRIDGEPORT AVE,SHELTON,CT,"465 BRIDGEPORT AVE, SHELTON, CT",06484-4751,Match,"-73.11189,41.290462",-73.11189,41.290462,Fairfield,Red,Tiny,A,1
418,WALGREENS #06966,(203) 757-1998,PCY.0001812,"314,839","11 MERIDEN RD
CT 06705-1933
(41.547122, -73.017334)",11 MERIDEN RD,WATERBURY,CT,"11 MERIDEN RD, WATERBURY, CT",06705-1933,Match,"-73.01737,41.547035",-73.01737,41.547035,New Haven County,Green,Tiny,E,5
420,APOTHECARY & WELLNESS CENTER,(203) 789-4076,PCY.0002086,"462,999","1450 CHAPEL ST
CT 06511-4405
(41.311054, -72.943228)",1450 CHAPEL ST,NEW HAVEN,CT,"1450 CHAPEL ST, NEW HAVEN, CT",06511-4405,Match,"-72.94401,41.311165",-72.94401,41.311165,New Haven County,Green,Tiny,E,5
422,STOP & SHOP PHARMACY #693,860-569-7135,PCY.0001505,"39,116","940 SILVER LN
CT 06118-1235
(41.765491, -72.602083)",940 SILVER LN,EAST HARTFORD,CT,"940 SILVER LN, EAST HARTFORD, CT",06118-1235,Match,"-72.602974,41.765385",-72.602974,41.765385,Hartford County,Orange,Tiny,B,2
423,CVS PHARMACY #1038,(860) 236-9348,PCY.0001329,"247,224","1044 BOULEVARD
CT 06119-1801
(41.760184, -72.716333)",1044 BOULEVARD,WEST HARTFORD,CT,"1044 BOULEVARD, WEST HARTFORD, CT",06119-1801,Match,"-72.716484,41.76019",-72.716484,41.76019,Hartford County,Orange,Tiny,B,2
424,CVS PHARMACY #2140,(203) 465-7055,PCY.0001649,"186,608","526 MERIDEN RD
CT 06705-2217
(41.552506, -73.001172)",526 MERIDEN RD,WATERBURY,CT,"526 MERIDEN RD, WATERBURY, CT",06705-2217,Match,"-73.00092,41.552505",-73.00092,41.552505,New Haven County,Green,Tiny,E,5
425,CVS PHARMACY #288,(860) 582-8167,PCY.0000331,"244,512","839 FARMINGTON AVE
CT 06010-3922
(41.693108, -72.915596)",839 FARMINGTON AVE,BRISTOL,CT,"839 FARMINGTON AVE, BRISTOL, CT",06010-3922,Match,"-72.9152,41.69324",-72.9152,41.69324,Hartford County,Orange,Tiny,B,2
426,STOP & SHOP PHARMACY #647,(203) 876-0654,PCY.0001747,"230,523","855 BRIDGEPORT AVE
CT 06460-3171
(41.21283, -73.078157)",855 BRIDGEPORT AVE,MILFORD,CT,"855 BRIDGEPORT AVE, MILFORD, CT",06460-3171,Match,"-73.07688,41.213493",-73.07688,41.213493,New Haven County,Green,Tiny,E,5
427,WALGREENS #01451,(203) 878-7265,PCY.0001950,"392,857","1083 BOSTON POST RD
CT 06460-3550
(41.233253, -73.043097)",1083 BOSTON POST RD,MILFORD,CT,"1083 BOSTON POST RD, MILFORD, CT",06460-3550,Match,"-73.04489,41.232338",-73.04489,41.232338,New Haven County,Green,Tiny,E,5
428,CVS PHARMACY #760,(860) 224-3494,PCY.0001242,"233,493","713 W MAIN ST
CT 06053-3969
(41.666418, -72.806642)",713 W MAIN ST,NEW BRITAIN,CT,"713 W MAIN ST, NEW BRITAIN, CT",06053-3969,Match,"-72.80723,41.666492",-72.80723,41.666492,Hartford County,Orange,Tiny,B,2
429,RITE AID #4620,(203) 879-5853,PCY.0001618,"50,409","744 WOLCOTT RD
CT 06716-1906
(41.602586, -72.986604)",744 WOLCOTT RD,WOLCOTT,CT,"744 WOLCOTT RD, WOLCOTT, CT",06716-1906,Match,"-72.9864,41.604416",-72.9864,41.604416,New Haven County,Green,Tiny,E,5
430,PROFESSIONAL HOMECARE SERVICES INC,(860) 632-3600,PCY.0001879,"375,235","106 SEBETHE DR
STE A, CT 06416-1094
(41.611702, -72.707638)",106 SEBETHE DR STE A,CROMWELL,CT,"106 SEBETHE DR STE A, CROMWELL, CT",06416-1094,Match,"-72.71131,41.616848",-72.71131,41.616848,Middlesex County,Purple,Small,D,4
431,WALGREENS #11620,(203) 322-7669,PCY.0002159,"910,823","1203 HIGH RIDGE RD
CT 06905-1214
(41.110623, -73.546781)",1203 HIGH RIDGE RD,STAMFORD,CT,"1203 HIGH RIDGE RD, STAMFORD, CT",06905-1214,Match,"-73.5472,41.109364",-73.5472,41.109364,Fairfield,Red,Tiny,A,1
432,STAMFORD RX INC,(203) 883-8484,PCY.0002198,"980,174","1055 HIGH RIDGE RD
CT 06905-1121
(41.108562, -73.547451)",1055 HIGH RIDGE RD,STAMFORD,CT,"1055 HIGH RIDGE RD, STAMFORD, CT",06905-1121,Match,"-73.54819,41.105972",-73.54819,41.105972,Fairfield,Red,Tiny,A,1
433,CVS PHARMACY #7916,(860) 673-8006,PCY.0002036,"428,875","292 SPIELMAN HWY
CT 06013-1727
(41.770277, -72.970287)",292 SPIELMAN HWY,BURLINGTON,CT,"292 SPIELMAN HWY, BURLINGTON, CT",06013-1727,Match,"-72.97271,41.772324",-72.97271,41.772324,Hartford County,Orange,Tiny,B,2
434,"GENOA HEALTHCARE, LLC",(888) 436-6277,PCY.0002140,"531,263","883 PADDOCK AVE
CT 06450-7044
(41.50608, -72.776372)",883 PADDOCK AVE,MERIDEN,CT,"883 PADDOCK AVE, MERIDEN, CT",06450-7044,Match,"-72.77632,41.505993",-72.77632,41.505993,New Haven County,Green,Tiny,E,5
436,CVS PHARMACY #1027,(860) 887-5970,PCY.0001318,"239,701","372 W MAIN ST
CT 06360-5421
(41.520924, -72.092165)",372 W MAIN ST,NORWICH,CT,"372 W MAIN ST, NORWICH, CT",06360-5421,Match,"-72.070015,41.524185",-72.070015,41.524185,New London County,Black,Mid,F,6
438,CVS PHARMACY #1152,(860) 691-0380,PCY.0001392,"38,686","58 PENNSYLVANIA AVE
CT 06357-3230
(41.325988, -72.193166)",58 PENNSYLVANIA AVE,NIANTIC,CT,"58 PENNSYLVANIA AVE, NIANTIC, CT",06357-3230,Match,"-72.19297,41.32565",-72.19297,41.32565,New London County,Black,Mid,F,6
439,CVS PHARMACY #1213,(203) 966-6758,PCY.0001420,"258,094","94 PARK ST
CT 06840-5401
(41.146134, -73.49535)",94 PARK ST,NEW CANAAN,CT,"94 PARK ST, NEW CANAAN, CT",06840-5401,Match,"-73.49535,41.146442",-73.49535,41.146442,Fairfield,Red,Tiny,A,1
440,CVS PHARMACY #2099,(860) 769-6870,PCY.0001792,"289,298","479 BLUE HILLS AVE
CT 06112-1514
(41.798813, -72.695496)",479 BLUE HILLS AVE,HARTFORD,CT,"479 BLUE HILLS AVE, HARTFORD, CT",06112-1514,Match,"-72.69527,41.79935",-72.69527,41.79935,Hartford County,Orange,Tiny,B,2
441,RITE AID  #10343,(860) 224-7798,PCY.0001731,"223,000","1350 STANLEY ST
CT 06053-3224
(41.683953, -72.76754)",1350 STANLEY ST,NEW BRITAIN,CT,"1350 STANLEY ST, NEW BRITAIN, CT",06053-3224,Match,"-72.76754,41.68363",-72.76754,41.68363,Hartford County,Orange,Tiny,B,2
442,WALGREENS #02228,(860) 633-4186,PCY.0002112,"499,977","2900 MAIN ST
CT 06033-1027
(41.722464, -72.614772)",2900 MAIN ST,GLASTONBURY,CT,"2900 MAIN ST, GLASTONBURY, CT",06033-1027,Match,"-72.61504,41.72357",-72.61504,41.72357,Hartford County,Orange,Tiny,B,2
443,GPG LLC,(203) 801-0808,PCY.0002314,"1,283,179","118 MAIN ST
CT 06840-4709
(41.147034, -73.492196)",118 MAIN ST,NEW CANAAN,CT,"118 MAIN ST, NEW CANAAN, CT",06840-4709,Match,"-73.491745,41.145836",-73.491745,41.145836,Fairfield,Red,Tiny,A,1
444,BRIDGEPORT CHEMISTS,(203) 367-3666,PCY.0000591,"289,336","1407 FAIRFIELD AVE
CT 06605-1928
(41.172842, -73.210472)",1407 FAIRFIELD AVE,BRIDGEPORT,CT,"1407 FAIRFIELD AVE, BRIDGEPORT, CT",06605-1928,Match,"-73.210526,41.172813",-73.210526,41.172813,Fairfield,Red,Tiny,A,1
445,WALGREENS #11164,(203) 894-8744,PCY.0002136,"525,744","46A DANBURY RD
CT 06877-4019
(41.290613, -73.496708)",46A DANBURY RD,RIDGEFIELD,CT,"46A DANBURY RD, RIDGEFIELD, CT",06877-4019,Match,"-73.49738,41.290127",-73.49738,41.290127,Fairfield,Red,Tiny,A,1
446,CVS PHARMACY #5881,(203) 322-1520,PCY.0002304,"1,248,309","969 HIGH RIDGE RD
CT 06905-1608
(41.104813, -73.548435)",969 HIGH RIDGE RD,STAMFORD,CT,"969 HIGH RIDGE RD, STAMFORD, CT",06905-1608,Match,"-73.548355,41.104122",-73.548355,41.104122,Fairfield,Red,Tiny,A,1
447,WALGREENS #10177,(203) 299-1215,PCY.0002125,"515,615","54 WEST AVE
CT 06854-2225
(41.103787, -73.419825)",54 WEST AVE,NORWALK,CT,"54 WEST AVE, NORWALK, CT",06854-2225,Match,"-73.419846,41.10355",-73.419846,41.10355,Fairfield,Red,Tiny,A,1
448,WAL-MART STORE #5095,(860) 953-0725,PCY.0001938,"390,332","495 FLATBUSH AVE
CT 06106-3601
(41.742599, -72.711909)",495 FLATBUSH AVE,HARTFORD,CT,"495 FLATBUSH AVE, HARTFORD, CT",06106-3601,Match,"-72.71262,41.742516",-72.71262,41.742516,Hartford County,Orange,Tiny,B,2
449,UNITY PHARMACY,(203) 955-1781,PCY.0002282,"1,188,316","1326 POST RD
CT 06824-6012
(41.142235, -73.255675)",1326 POST RD,FAIRFIELD,CT,"1326 POST RD, FAIRFIELD, CT",06824-6012,Match,"-73.255196,41.142673",-73.255196,41.142673,Fairfield,Red,Tiny,A,1
450,BORDONARO'S PHARMACY INC,(860) 342-3390,PCY.0000752,"37,558","283 MAIN ST
CT 06480-1856
(41.484472, -73.212844)",283 MAIN ST,PORTLAND,CT,"283 MAIN ST, PORTLAND, CT",06480-1856,Match,"-72.63811,41.576355",-72.63811,41.576355,Middlesex County,Purple,Small,D,4
451,LANGS PHARMACY OF WILTON CENTER,(203) 241-4711,PCY.0002343,"1,383,339","28 CENTER ST
CT 06897-3007
(41.195131, -73.432869)",28 CENTER ST,WILTON,CT,"28 CENTER ST, WILTON, CT",06897-3007,Match,"-73.43297,41.19525",-73.43297,41.19525,Fairfield,Red,Tiny,A,1
452,RITE AID  #4778,(203) 469-7648,PCY.0001644,"186,746","588 MAIN ST
CT 06512-2001
(41.283646, -72.882729)",588 MAIN ST,EAST HAVEN,CT,"588 MAIN ST, EAST HAVEN, CT",06512-2001,Match,"-72.88263,41.2836",-72.88263,41.2836,New Haven County,Green,Tiny,E,5
453,CVS PHARMACY #2545,(203) 730-4870,PCY.0001875,"369,198","35 PADANARAM RD
CT 06811-3701
(41.417385, -73.463018)",35 PADANARAM RD,DANBURY,CT,"35 PADANARAM RD, DANBURY, CT",06811-3701,Match,"-73.46321,41.417553",-73.46321,41.417553,Fairfield,Red,Tiny,A,1
454,STOP & SHOP PHARMACY #657,(860) 274-7461,PCY.0001794,"289,907","763 STRAITS TPKE
CT 06795-3318
(41.572009, -73.099253)",763 STRAITS TPKE,WATERTOWN,CT,"763 STRAITS TPKE, WATERTOWN, CT",06795-3318,Match,"-73.09899,41.570923",-73.09899,41.570923,Litchfield County,Blue,Mid,C,3
455,WAL-MART PHARMACY #10-2719,(860) 585-1103,PCY.0001765,"244,351","1400 FARMINGTON AVE
CT 06010-4701
(41.698858, -72.896917)",1400 FARMINGTON AVE,BRISTOL,CT,"1400 FARMINGTON AVE, BRISTOL, CT",06010-4701,Match,"-72.90152,41.698063",-72.90152,41.698063,Hartford County,Orange,Tiny,B,2
456,WALGREENS #12315,(203) 270-4658,PCY.0002209,"987,411","49 S MAIN ST
CT 06470-2141
(41.401473, -73.296936)",49 S MAIN ST,NEWTOWN,CT,"49 S MAIN ST, NEWTOWN, CT",06470-2141,Match,"-73.31021,41.415516",-73.31021,41.415516,Fairfield,Red,Tiny,A,1
457,STOP & SHOP PHARMACY #696,(203) 931-9478,PCY.0002048,"433,320","460 ELM STREET
CT 06516
(41.272872, -72.957388)",460 ELM STREET,WEST HAVEN,CT,"460 ELM STREET, WEST HAVEN, CT",6516,Match,"-72.95779,41.272263",-72.95779,41.272263,New Haven County,Green,Tiny,E,5
458,WALGREENS #13947,(203) 777-7880,PCY.0002200,"981,006","1415 CHAPEL ST
CT 06511-4421
(41.310882, -72.942477)",1415 CHAPEL ST,NEW HAVEN,CT,"1415 CHAPEL ST, NEW HAVEN, CT",06511-4421,Match,"-72.94239,41.31085",-72.94239,41.31085,New Haven County,Green,Tiny,E,5
459,WALGREENS #03944,(203) 481-0386,PCY.0000997,"37,798","329 E MAIN ST
CT 06405-3106
(41.292868, -72.785292)",329 E MAIN ST,BRANFORD,CT,"329 E MAIN ST, BRANFORD, CT",06405-3106,Match,"-72.82111,41.2774",-72.82111,41.2774,New Haven County,Green,Tiny,E,5
461,WAL-MART PHARMACY #10-2232,2034883914,PCY.0001633,"180,340","120 COMMERCIAL PARKWAY
CT 06405
(41.280481, -72.831521)",120 COMMERCIAL PARKWAY,BRANFORD,CT,"120 COMMERCIAL PARKWAY, BRANFORD, CT",6405,Match,"-72.830894,41.278152",-72.830894,41.278152,New Haven County,Green,Tiny,E,5
462,RIVERSIDE PHARMACY INC,(201) 270-8013,PCY.0002311,"1,275,709","926 MAIN ST
CT 06108-2237
(41.770237, -72.643217)",926 MAIN ST,EAST HARTFORD,CT,"926 MAIN ST, EAST HARTFORD, CT",06108-2237,Match,"-72.643295,41.770065",-72.643295,41.770065,Hartford County,Orange,Tiny,B,2
463,CVS PHARMACY #839,(860) 793-9248,PCY.0001276,"38,443","14 FARMINGTON AVE
CT 06062-1780
(41.675272, -72.857973)",14 FARMINGTON AVE,PLAINVILLE,CT,"14 FARMINGTON AVE, PLAINVILLE, CT",06062-1780,Match,"-72.85763,41.676033",-72.85763,41.676033,Hartford County,Orange,Tiny,B,2
464,CVS PHARMACY #1154,(203) 750-6901,PCY.0001585,"172,480","6 WILLARD RD
CT 06851-4414
(41.127394, -73.387624)",6 WILLARD RD,NORWALK,CT,"6 WILLARD RD, NORWALK, CT",06851-4414,Match,"-73.38762,41.128155",-73.38762,41.128155,Fairfield,Red,Tiny,A,1
465,CVS PHARMACY #2056,(860) 536-5635,PCY.0001736,"225,616","25 BROADWAY AVE
CT 06355-2834
(41.352619, -71.963886)",25 BROADWAY AVE,MYSTIC,CT,"25 BROADWAY AVE, MYSTIC, CT",06355-2834,Match,"-71.96391,41.352592",-71.96391,41.352592,New London County,Black,Mid,F,6
466,CVS PHARMACY #1097,(860) 482-8298,PCY.0001156,"38,210","661 MAIN ST
CT 06790-3602
(41.813859, -73.121464)",661 MAIN ST,TORRINGTON,CT,"661 MAIN ST, TORRINGTON, CT",06790-3602,Match,"-73.121376,41.81302",-73.121376,41.81302,Litchfield County,Blue,Mid,C,3
468,WALGREENS #09784,(860) 289-4944,PCY.0001465,"284,403","20 CONNECTICUT BLVD
CT 06108-3007
(41.769426, -72.64476)",20 CONNECTICUT BLVD,EAST HARTFORD,CT,"20 CONNECTICUT BLVD, EAST HARTFORD, CT",06108-3007,Match,"-72.64602,41.76942",-72.64602,41.76942,Hartford County,Orange,Tiny,B,2
470,UNCAS PHARMACY,(860) 889-8413,PCY.0000514,"245,285","20 TOWN STREET
CT 06360
(41.545877, -72.09001)",20 TOWN STREET,NORWICH,CT,"20 TOWN STREET, NORWICH, CT",6360,Match,"-72.08949,41.545765",-72.08949,41.545765,New London County,Black,Mid,F,6
471,CVS PHARMACY #1903,(860) 243-1704,PCY.0001499,"39,111","799 824 PARK AVE
CT 06002-2417
(41.837096, -72.687562)",799-824 PARK AVE,BLOOMFIELD,CT,"799-824 PARK AVE, BLOOMFIELD, CT",06002-2417,Match,"-72.73374,41.82924",-72.73374,41.82924,Hartford County,Orange,Tiny,B,2
474,STOP & SHOP PHARMACY #2605,(860) 741-2200,PCY.0001345,"38,655","54 HAZARD AVE
CT 06082-3845
(41.989505, -72.574563)",54 HAZARD AVE,ENFIELD,CT,"54 HAZARD AVE, ENFIELD, CT",06082-3845,Match,"-72.57698,41.98973",-72.57698,41.98973,Hartford County,Orange,Tiny,B,2
475,CVS PHARMACY #840,(860) 956-7107,PCY.0001286,"38,445","908 MAPLE AVE
CT 06114-2723
(41.734359, -72.687204)",908 MAPLE AVE,HARTFORD,CT,"908 MAPLE AVE, HARTFORD, CT",06114-2723,Match,"-72.68721,41.734383",-72.68721,41.734383,Hartford County,Orange,Tiny,B,2
476,WALGREENS #10483,(860) 440-3566,PCY.0001728,"222,256","698 BANK ST
CT 06320-5040
(41.349444, -72.104482)",698 BANK ST,NEW LONDON,CT,"698 BANK ST, NEW LONDON, CT",06320-5040,Match,"-72.10405,41.349564",-72.10405,41.349564,New London County,Black,Mid,F,6
477,SAM'S CLUB PHARMACY #10-6636,(860) 665-0867,PCY.0002129,"519,234","3465 BERLIN TPKE
CT 06111-5106
(41.649893, -72.728824)",3465 BERLIN TPKE,NEWINGTON,CT,"3465 BERLIN TPKE, NEWINGTON, CT",06111-5106,Match,"-72.72716,41.65257",-72.72716,41.65257,Hartford County,Orange,Tiny,B,2
478,CVS PHARMACY #1775,(203) 325-5172,PCY.0002034,"427,489","1058 HOPE ST
CT 06907-2110
(41.094772, -73.518628)",1058 HOPE ST,STAMFORD,CT,"1058 HOPE ST, STAMFORD, CT",06907-2110,Match,"-73.51851,41.094654",-73.51851,41.094654,Fairfield,Red,Tiny,A,1
479,RITE AID  #1427,(860) 582-3491,PCY.0001231,"38,240","430 N MAIN ST
STE A, CT 06010-4117
(41.680146, -72.947189)",430 N MAIN ST STE A,BRISTOL,CT,"430 N MAIN ST STE A, BRISTOL, CT",06010-4117,Match,"-72.9472,41.67986",-72.9472,41.67986,Hartford County,Orange,Tiny,B,2
480,CVS PHARMACY #2119,(860) 828-6584,PCY.0001683,"149,954","1055 FARMINGTON AVE
CT 06037-2244
(41.630901, -72.760138)",1055 FARMINGTON AVE,KENSINGTON,CT,"1055 FARMINGTON AVE, KENSINGTON, CT",06037-2244,Match,"-72.76102,41.631466",-72.76102,41.631466,Hartford County,Orange,Tiny,B,2
481,CORNERSTONE PHARMACY,203-324-0251,PCY.0002241,"1,077,257","134 STILLWATER AVE
CT 06902-4839
(41.052001, -73.551872)",134 STILLWATER AVE,STAMFORD,CT,"134 STILLWATER AVE, STAMFORD, CT",06902-4839,Match,"-73.55154,41.051975",-73.55154,41.051975,Fairfield,Red,Tiny,A,1
482,WALGREENS #02858,(860) 346-7372,PCY.0001511,"39,120","633 WASHINGTON ST
CT 06457-2542
(41.555008, -72.672769)",633 WASHINGTON ST,MIDDLETOWN,CT,"633 WASHINGTON ST, MIDDLETOWN, CT",06457-2542,Match,"-72.67168,41.555275",-72.67168,41.555275,Middlesex County,Purple,Small,D,4
483,MANCHESTER RX LLC,(860) 649-1025,PCY.0001290,"38,449","348 MAIN ST
CT 06040-4123
(41.781428, -72.522239)",348 MAIN ST,MANCHESTER,CT,"348 MAIN ST, MANCHESTER, CT",06040-4123,Match,"-72.52234,41.781536",-72.52234,41.781536,Hartford County,Orange,Tiny,B,2
484,STOP & SHOP PHARMACY #603,203-881-2756,PCY.0001763,"245,610","15 FRANKLIN ST
CT 06483-2809
(41.400614, -73.072106)",15 FRANKLIN ST,SEYMOUR,CT,"15 FRANKLIN ST, SEYMOUR, CT",06483-2809,Match,"-73.07506,41.39703",-73.07506,41.39703,New Haven County,Green,Tiny,E,5
485,CVS PHARMACY #5263,(860) 595-1750,PCY.0002253,"1,122,178","150 WASHINGTON ST
CT 06106-4405
(41.758225, -72.682282)",150 WASHINGTON ST,HARTFORD,CT,"150 WASHINGTON ST, HARTFORD, CT",06106-4405,Match,"-72.68222,41.759533",-72.68222,41.759533,Hartford County,Orange,Tiny,B,2
486,HIGGANUM PHARMACY,(860) 345-3607,PCY.0002191,"950,970","23 KILLINGWORTH RD
CT 06441-4242
(41.494954, -72.558359)",23 KILLINGWORTH RD,HIGGANUM,CT,"23 KILLINGWORTH RD, HIGGANUM, CT",06441-4242,Match,"-72.55846,41.495846",-72.55846,41.495846,Middlesex County,Purple,Small,D,4
487,RITE AID  #4772,8607494184,PCY.0001671,"198,649","71 PALOMBA DRIVE
CT 06082-3801
(41.989896, -72.571235)",71 PALOMBA DRIVE,ENFIELD,CT,"71 PALOMBA DRIVE, ENFIELD, CT",06082-3801,Match,"-72.572556,41.994995",-72.572556,41.994995,Hartford County,Orange,Tiny,B,2
488,WALGREENS #10203,(860) 585-7426,PCY.0002089,"467,093","25 MAIN ST
CT 06010-6528
(41.668617, -72.943208)",25 MAIN ST,BRISTOL,CT,"25 MAIN ST, BRISTOL, CT",06010-6528,Match,"-72.943275,41.66838",-72.943275,41.66838,Hartford County,Orange,Tiny,B,2
489,WAL-MART PHARMACY #10-2899,860-409-0406,PCY.0001764,"244,347","255 W MAIN ST
CT 06001-4352
(41.669419, -72.885326)",255 W MAIN ST,AVON,CT,"255 W MAIN ST, AVON, CT",06001-4352,Match,"-72.85602,41.813335",-72.85602,41.813335,Hartford County,Orange,Tiny,B,2
490,WAL-MART STORE #2897,(860) 621-9540,PCY.0001746,"232,557","235 QUEEN ST
CT 06489-1915
(41.623058, -72.873124)",235 QUEEN ST,SOUTHINGTON,CT,"235 QUEEN ST, SOUTHINGTON, CT",06489-1915,Match,"-72.87336,41.62588",-72.87336,41.62588,Hartford County,Orange,Tiny,B,2
491,BRASS MILL PHARMACY LLC,(203) 997-2009,PCY.0002329,"1,327,027","1405 E MAIN ST
CT 06705-1081
(41.547599, -73.018974)",1405 E MAIN ST UNIT 3,WATERBURY,CT,"1405 E MAIN ST UNIT 3, WATERBURY, CT",06705-1081,Match,"-73.01897,41.54759",-73.01897,41.54759,New Haven County,Green,Tiny,E,5
492,STOP & SHOP PHARMACY #637,(203) 356-0126,PCY.0001642,"185,419","2200 BEDFORD ST
CT 06905-3905
(41.06854, -73.544635)",2200 BEDFORD ST,STAMFORD,CT,"2200 BEDFORD ST, STAMFORD, CT",06905-3905,Match,"-73.543236,41.06747",-73.543236,41.06747,Fairfield,Red,Tiny,A,1
493,WALGREENS #05948,(203) 639-8166,PCY.0001769,"258,891","425 W MAIN ST
CT 06451-3816
(41.539972, -72.817677)",425 W MAIN ST,MERIDEN,CT,"425 W MAIN ST, MERIDEN, CT",06451-3816,Match,"-72.84074,41.52051",-72.84074,41.52051,New Haven County,Green,Tiny,E,5
494,RITE AID  #922,(860) 274-9191,PCY.0001076,"38,000","1271 MAIN ST
CT 06795-3107
(41.591236, -73.106661)",1271 MAIN ST,WATERTOWN,CT,"1271 MAIN ST, WATERTOWN, CT",06795-3107,Match,"-73.10681,41.591316",-73.10681,41.591316,Litchfield County,Blue,Mid,C,3
495,ANNEX PHARMACY,(203) 287-3127,PCY.0001981,"402,514","2380A DIXWELL AVE
CT 06514-1810
(41.376122, -72.915735)",2380A DIXWELL AVE,HAMDEN,CT,"2380A DIXWELL AVE, HAMDEN, CT",06514-1810,Match,"-72.916016,41.375004",-72.916016,41.375004,New Haven County,Green,Tiny,E,5
496,STOP & SHOP PHARMACY #670,(203) 372-6538,PCY.0001707,"214,917","4531 MAIN ST
CT 06606-1846
(41.222061, -73.21803)",4531 MAIN ST,BRIDGEPORT,CT,"4531 MAIN ST, BRIDGEPORT, CT",06606-1846,Match,"-73.217865,41.221478",-73.217865,41.221478,Fairfield,Red,Tiny,A,1
498,RITE AID  #10372,(203) 484-0431,PCY.0001459,"38,906","1395 MIDDLETOWN AVE
CT 06472-1395
(41.392796, -72.792014)",1395 MIDDLETOWN AVE,NORTHFORD,CT,"1395 MIDDLETOWN AVE, NORTHFORD, CT",06472-1395,Match,"-72.79187,41.393017",-72.79187,41.393017,New Haven County,Green,Tiny,E,5
499,CVS PHARMACY #7856,(203) 299-5486,PCY.0002278,"1,179,472","281 CONNECTICUT AVE
CT 06854-1938
(41.102854, -73.435069)",281 CONNECTICUT AVE,NORWALK,CT,"281 CONNECTICUT AVE, NORWALK, CT",06854-1938,Match,"-73.4345,41.103123",-73.4345,41.103123,Fairfield,Red,Tiny,A,1
500,STOP & SHOP PHARMACY #640,203-299-1718,PCY.0001688,"200,353","385 CONNECTICUT AVE
CT 06854-1805
(41.100367, -73.440807)",385 CONNECTICUT AVE,NORWALK,CT,"385 CONNECTICUT AVE, NORWALK, CT",06854-1805,Match,"-73.441444,41.099922",-73.441444,41.099922,Fairfield,Red,Tiny,A,1
501,"HOWES DRUG & MEDICAL, INC",(203) 878-2441,PCY.0000444,"37,321","78 BROAD ST
CT 06460-3353
(41.221277, -73.058429)",78 BROAD ST,MILFORD,CT,"78 BROAD ST, MILFORD, CT",06460-3353,Match,"-73.058395,41.22127",-73.058395,41.22127,New Haven County,Green,Tiny,E,5
502,CVS PHARMACY #3549,(203) 931-1198,PCY.0002280,"1,184,423","355 CAMPBELL AVE
CT 06516-5329
(41.268081, -72.948398)",355 CAMPBELL AVE,WEST HAVEN,CT,"355 CAMPBELL AVE, WEST HAVEN, CT",06516-5329,Match,"-72.9484,41.2681",-72.9484,41.2681,New Haven County,Green,Tiny,E,5
503,CVS PHARMACY #623,(203) 227-7343,PCY.0001244,"38,247","397 POST RD E
CT 06880-4401
(41.140163, -73.351807)",397 POST RD E,WESTPORT,CT,"397 POST RD E, WESTPORT, CT",06880-4401,Match,"-73.35188,41.1402",-73.35188,41.1402,Fairfield,Red,Tiny,A,1
504,RITE AID  #4092,203-468-1039,PCY.0002132,"518,168","645 FOXON RD
CT 06513-1951
(41.321908, -72.85054)",645 FOXON RD,EAST HAVEN,CT,"645 FOXON RD, EAST HAVEN, CT",06513-1951,Match,"-72.85096,41.321938",-72.85096,41.321938,New Haven County,Green,Tiny,E,5
505,BEACON PRESCRIPTIONS,(860) 225-6487,PCY.0000332,"37,123","543 W MAIN ST
CT 06053-3915
(41.665728, -72.800391)",543 W MAIN ST,NEW BRITAIN,CT,"543 W MAIN ST, NEW BRITAIN, CT",06053-3915,Match,"-72.800644,41.665787",-72.800644,41.665787,Hartford County,Orange,Tiny,B,2
506,CVS PHARMACY #1897,(203) 426-2595,PCY.0001625,"182,374","6 QUEEN ST
CT 06470-2146
(41.412899, -73.30295)",6 QUEEN ST,NEWTOWN,CT,"6 QUEEN ST, NEWTOWN, CT",06470-2146,Match,"-73.303116,41.413063",-73.303116,41.413063,Fairfield,Red,Tiny,A,1
507,HANCOCK PHARMACY VI,(203) 734-8900,PCY.0002176,"924,696","95 WAKELEE AVE
CT 06401-1151
(41.338549, -73.090174)",95 WAKELEE AVE,ANSONIA,CT,"95 WAKELEE AVE, ANSONIA, CT",06401-1151,Match,"-73.090324,41.340023",-73.090324,41.340023,New Haven County,Green,Tiny,E,5
508,HANCOCK'S PHARMACY AND SURGICAL CENTER,(203) 235-6323,PCY.0000897,"37,770","840 E MAIN ST
CT 06450-6008
(41.528321, -72.775253)",840 E MAIN ST,MERIDEN,CT,"840 E MAIN ST, MERIDEN, CT",06450-6008,Match,"-72.77519,41.528328",-72.77519,41.528328,New Haven County,Green,Tiny,E,5
509,WAL-MART PHARMACY #10-5294,(203) 301-0559,PCY.0002091,"472,003","1365 BOSTON POST RD
CT 06460-2755
(41.240267, -73.033791)",1365 BOSTON POST RD,MILFORD,CT,"1365 BOSTON POST RD, MILFORD, CT",06460-2755,Match,"-73.03386,41.240387",-73.03386,41.240387,New Haven County,Green,Tiny,E,5
510,WALGREENS #12058,(860) 774-0490,PCY.0002150,"890,582","1093 N MAIN ST
CT 06241-2124
(41.840903, -71.876621)",1093 N MAIN ST,DAYVILLE,CT,"1093 N MAIN ST, DAYVILLE, CT",06241-2124,Match,"-71.87652,41.83714",-71.87652,41.83714,Windham County,Grey,Big,L,8
511,STOP & SHOP PHARMACY #618,(203) 755-5814,PCY.0001439,"245,847","410 REIDVILLE DR
CT 06705-2660
(41.5388, -72.999166)",410 REIDVILLE DR,WATERBURY,CT,"410 REIDVILLE DR, WATERBURY, CT",06705-2660,Match,"-73.00953,41.53934",-73.00953,41.53934,New Haven County,Green,Tiny,E,5
512,CVS  #3719,203-363-0627,PCY.0002184,"944,177","11 FOREST ST
CT 06901-1877
(41.056934, -73.537152)",11 FOREST ST,STAMFORD,CT,"11 FOREST ST, STAMFORD, CT",06901-1877,Match,"-73.537476,41.057026",-73.537476,41.057026,Fairfield,Red,Tiny,A,1
513,RELIANT  PHARMACY,(203) 262-8000,PCY.0002189,"949,798","200 MAIN ST S
CT 06488-4250
(41.475579, -73.218911)",200 MAIN ST S,SOUTHBURY,CT,"200 MAIN ST S, SOUTHBURY, CT",06488-4250,Match,"-73.219185,41.475266",-73.219185,41.475266,New Haven County,Green,Tiny,E,5
515,CVS PHARMACY #718,(203) 735-7837,PCY.0001239,"38,243","24 PERSHING DR
CT 06401-2214
(41.33337, -73.083826)",24 PERSHING DR,ANSONIA,CT,"24 PERSHING DR, ANSONIA, CT",06401-2214,Match,"-73.08494,41.33018",-73.08494,41.33018,New Haven County,Green,Tiny,E,5
516,CVS PHARMACY #2210,(203) 698-4005,PCY.0001627,"181,999","1239 E PUTNAM AVE
CT 06878-1522
(41.041815, -73.577693)",1239 E PUTNAM AVE,RIVERSIDE,CT,"1239 E PUTNAM AVE, RIVERSIDE, CT",06878-1522,Match,"-73.57959,41.041584",-73.57959,41.041584,Fairfield,Red,Tiny,A,1
517,STOP & SHOP #610,(860) 956-0477,PCY.0001391,"283,272","1380 BERLIN TPKE
CT 06109-1093
(41.716934, -72.696077)",1380 BERLIN TPKE,WETHERSFIELD,CT,"1380 BERLIN TPKE, WETHERSFIELD, CT",06109-1093,Match,"-72.69412,41.720856",-72.69412,41.720856,Hartford County,Orange,Tiny,B,2
518,COMMUNITY CARE PHARMACY INC,(860) 560-2000,PCY.0002272,"1,170,519","408 NEW BRITAIN AVE
CT 06106-3832
(41.740047, -72.696253)",408 NEW BRITAIN AVE,HARTFORD,CT,"408 NEW BRITAIN AVE, HARTFORD, CT",06106-3832,Match,"-72.696526,41.739906",-72.696526,41.739906,Hartford County,Orange,Tiny,B,2
519,HOPMEADOW APOTHECARY,(860)651-3331,PCY.0001100,"38,004","1300 HOPMEADOW ST
CT 06070-1411
(41.901298, -72.786252)",1300 HOPMEADOW ST,SIMSBURY,CT,"1300 HOPMEADOW ST, SIMSBURY, CT",06070-1411,Match,"-72.786476,41.899677",-72.786476,41.899677,Hartford County,Orange,Tiny,B,2
520,CVS PHARMACY #1109,(203) 794-9500,PCY.0001380,"38,679","7 DURANT AVE
CT 06801-1906
(41.373509, -73.414344)",7 DURANT AVE,BETHEL,CT,"7 DURANT AVE, BETHEL, CT",06801-1906,Match,"-73.41724,41.37738",-73.41724,41.37738,Fairfield,Red,Tiny,A,1
522,STOP & SHOP PHARMACY #644,(203) 797-8476,PCY.0001375,"38,675","44 LAKE AVENUE EXT
CT 06811-5244
(41.38654, -73.487638)",44 LAKE AVENUE EXT,DANBURY,CT,"44 LAKE AVENUE EXT, DANBURY, CT",06811-5244,Match,"-73.486374,41.386013",-73.486374,41.386013,Fairfield,Red,Tiny,A,1
523,CVS PHARMACY #1910,(860) 646-4510,PCY.0000993,"37,797","260 N MAIN ST
CT 06042-2004
(41.794955, -72.52636)",260 N MAIN ST,MANCHESTER,CT,"260 N MAIN ST, MANCHESTER, CT",06042-2004,Match,"-72.52354,41.784824",-72.52354,41.784824,Hartford County,Orange,Tiny,B,2
524,WAL-MART PHARMACY #10-2965,(860) 667-0152,PCY.0001786,"284,623","3164 BERLIN TPKE
CT 06111-4627
(41.663091, -72.721341)",3164 BERLIN TPKE,NEWINGTON,CT,"3164 BERLIN TPKE, NEWINGTON, CT",06111-4627,Match,"-72.721695,41.66243",-72.721695,41.66243,Hartford County,Orange,Tiny,B,2
525,CVS PHARMACY #2151,(203) 255-0060,PCY.0002212,"994,573","330 GRASMERE AVE
CT 06824-6102
(41.156702, -73.241511)",330 GRASMERE AVE,FAIRFIELD,CT,"330 GRASMERE AVE, FAIRFIELD, CT",06824-6102,Match,"-73.24296,41.1582",-73.24296,41.1582,Fairfield,Red,Tiny,A,1
526,STOP & SHOP PHARMACY #619,(860) 688-1744,PCY.0001597,"171,992","1095 KENNEDY RD
CT 06095-1339
(41.894047, -72.650724)",1095 KENNEDY RD,WINDSOR,CT,"1095 KENNEDY RD, WINDSOR, CT",06095-1339,Match,"-72.65022,41.893353",-72.65022,41.893353,Hartford County,Orange,Tiny,B,2
527,STOP & SHOP PHARMACY #639,2033755717,PCY.0001320,"38,464","200 E MAIN ST
CT 06614-5114
(41.20238, -73.117459)",200 E MAIN ST,STRATFORD,CT,"200 E MAIN ST, STRATFORD, CT",06614-5114,Match,"-73.11798,41.20333",-73.11798,41.20333,Fairfield,Red,Tiny,A,1
528,SERAFINO'S PHARMCY INC,(860) 628-7979,PCY.0000495,"37,335","36 N MAIN ST
CT 06489-2517
(41.602656, -72.878252)",36 N MAIN ST,SOUTHINGTON,CT,"36 N MAIN ST, SOUTHINGTON, CT",06489-2517,Match,"-72.87823,41.60079",-72.87823,41.60079,Hartford County,Orange,Tiny,B,2
529,CVS PHARMACY #0943,(860) 456-5931,PCY.0001713,"217,504","1200 MAIN ST
CT 06226-1908
(41.713915, -72.224943)",1200 MAIN ST,WILLIMANTIC,CT,"1200 MAIN ST, WILLIMANTIC, CT",06226-1908,Match,"-72.22421,41.71378",-72.22421,41.71378,Windham County,Grey,Big,L,8
530,"DIXWELL PHARMACY, LLC",(203) 281-6571,PCY.0000382,"37,314","2380 DIXWELL AVE
CT 06514-1847
(41.376122, -72.915735)",2380 DIXWELL AVE,HAMDEN,CT,"2380 DIXWELL AVE, HAMDEN, CT",06514-1847,Match,"-72.916016,41.375",-72.916016,41.375,New Haven County,Green,Tiny,E,5
533,COMMUNITY HEALTH PHARMACY LLC,(203) 645-1450,PCY.0002341,"1,377,032","210 DIXWELL AVE
CT 06511-3416
(41.318733, -72.933813)",210 DIXWELL AVE,NEW HAVEN,CT,"210 DIXWELL AVE, NEW HAVEN, CT",06511-3416,Match,"-72.93378,41.31848",-72.93378,41.31848,New Haven County,Green,Tiny,E,5
534,WALGREENS #15465,(860) 595-1813,PCY.0002259,"1,142,987","100 RETREAT AVE
CT 06106-2528
(41.753267, -72.678849)",100 RETREAT AVE STE 102B,HARTFORD,CT,"100 RETREAT AVE STE 102B, HARTFORD, CT",06106-2528,Match,"-72.678696,41.753407",-72.678696,41.753407,Hartford County,Orange,Tiny,B,2
536,STOP & SHOP #667,(860) 444-6772,PCY.0001260,"241,634","117 BOSTON POST RD
CT 06385-2400
(41.34205, -72.124278)",117 BOSTON POST RD,WATERFORD,CT,"117 BOSTON POST RD, WATERFORD, CT",06385-2400,Match,"-72.12577,41.342197",-72.12577,41.342197,New London County,Black,Mid,F,6
537,GREENWICH PHARMACY LLC,(203)6612721,PCY.0002186,"947,070","116 GREENWICH AVE
CT 06830-5504
(41.028979, -73.626347)",116 GREENWICH AVE,GREENWICH,CT,"116 GREENWICH AVE, GREENWICH, CT",06830-5504,Match,"-73.62636,41.029057",-73.62636,41.029057,Fairfield,Red,Tiny,A,1
539,MCQUADE'S PHARMACY INC,(860) 536-4606,PCY.0001547,"283,469","10 CLARA DR
CT 06355-1957
(41.37216, -71.954736)",10 CLARA DR,MYSTIC,CT,"10 CLARA DR, MYSTIC, CT",06355-1957,Match,"-71.954704,41.372322",-71.954704,41.372322,New London County,Black,Mid,F,6
540,CVS/PHARMACY #17137,(203) 306-5064,PCY.0002035,"428,243","1191 BOSTON POST RD
CT 06460-2763
(41.235868, -73.039575)",1191 BOSTON POST RD,MILFORD,CT,"1191 BOSTON POST RD, MILFORD, CT",06460-2763,Match,"-73.04041,41.235302",-73.04041,41.235302,New Haven County,Green,Tiny,E,5
541,RITE AID  #667,(203)734-3152,PCY.0001022,"225,195","404 MAIN ST
CT 06401-2307
(41.339991, -73.077994)",404 MAIN ST,ANSONIA,CT,"404 MAIN ST, ANSONIA, CT",06401-2307,Match,"-73.07805,41.34132",-73.07805,41.34132,New Haven County,Green,Tiny,E,5
542,CVS PHARMACY #7093,(203) 778-7471,PCY.0002003,"412,187","47 LAKE AVENUE EXT
CT 06811-5259
(41.386727, -73.488796)",47 LAKE AVENUE EXT,DANBURY,CT,"47 LAKE AVENUE EXT, DANBURY, CT",06811-5259,Match,"-73.48871,41.386692",-73.48871,41.386692,Fairfield,Red,Tiny,A,1
543,CHAPEL STREET PHARMACY,(203) 522-1893,PCY.0002262,"1,154,425","1245 CHAPEL ST
CT 06511-4611
(41.309443, -72.936081)",1245 CHAPEL ST,NEW HAVEN,CT,"1245 CHAPEL ST, NEW HAVEN, CT",06511-4611,Match,"-72.9362,41.309433",-72.9362,41.309433,New Haven County,Green,Tiny,E,5
545,STOP & SHOP PHARMACY #2613,860-594-7123,PCY.0001586,"172,482","206 KITTS LN
CT 06111-4250
(41.682639, -72.709468)",206 KITTS LN,NEWINGTON,CT,"206 KITTS LN, NEWINGTON, CT",06111-4250,Match,"-72.709465,41.680733",-72.709465,41.680733,Hartford County,Orange,Tiny,B,2
546,RITE AID  #10375,(203) 230-0274,PCY.0000494,"245,282","2175 DIXWELL AVE
CT 06514-2405
(41.370191, -72.918598)",2175 DIXWELL AVE,HAMDEN,CT,"2175 DIXWELL AVE, HAMDEN, CT",06514-2405,Match,"-72.918945,41.369728",-72.918945,41.369728,New Haven County,Green,Tiny,E,5
548,BIG Y PHARMACY #30,(860) 886-1301,PCY.0001975,"400,245","224 SALEM TURNPIKE
CT 06360
(41.507436, -72.123584)",224 SALEM TURNPIKE,NORWICH,CT,"224 SALEM TURNPIKE, NORWICH, CT",6360,Match,"-72.12983,41.506157",-72.12983,41.506157,New London County,Black,Mid,F,6
549,CVS/PHARMACY #17291,(860) 907-3069,PCY.0002070,"445,206","1075 KENNEDY RD
CT 06095-1308
(41.892735, -72.649854)",1075 KENNEDY RD,WINDSOR,CT,"1075 KENNEDY RD, WINDSOR, CT",06095-1308,Match,"-72.65008,41.893124",-72.65008,41.893124,Hartford County,Orange,Tiny,B,2
550,WALGREENS #06308,(203) 845-0457,PCY.0001767,"258,118","55 WESTPORT AVE
CT 06851-3931
(41.121989, -73.404265)",55 WESTPORT AVE,NORWALK,CT,"55 WESTPORT AVE, NORWALK, CT",06851-3931,Match,"-73.40518,41.121353",-73.40518,41.121353,Fairfield,Red,Tiny,A,1
551,HARTFORD PHARMACY INC,(860) 422-8888,PCY.0002255,"1,132,955","469 PARK ST
CT 06106-1519
(41.757985, -72.684862)",469 PARK ST,HARTFORD,CT,"469 PARK ST, HARTFORD, CT",06106-1519,Match,"-72.684616,41.75797",-72.684616,41.75797,Hartford County,Orange,Tiny,B,2
553,"GENOA HEALTHCARE,LLC",(860) 253-2605,PCY.0002266,"1,161,448","153 HAZARD AVE
CT 06082-4592
(41.987459, -72.557022)",153 HAZARD AVE STE 100,ENFIELD,CT,"153 HAZARD AVE STE 100, ENFIELD, CT",06082-4592,Match,"-72.55881,41.987797",-72.55881,41.987797,Hartford County,Orange,Tiny,B,2
555,WALGREENS #10119,(860) 828-6844,PCY.0001827,"327,763","980 FARMINGTON AVE
CT 06037-2219
(41.632161, -72.76199)",980 FARMINGTON AVE,BERLIN,CT,"980 FARMINGTON AVE, BERLIN, CT",06037-2219,Match,"-72.76192,41.632065",-72.76192,41.632065,Hartford County,Orange,Tiny,B,2
556,GRANBY PHARMACY LLC,(860) 653-2517,PCY.0000810,"37,564","9 HARTFORD AVE
CT 06035-2308
(41.952346, -72.78782)",9 HARTFORD AVE,GRANBY,CT,"9 HARTFORD AVE, GRANBY, CT",06035-2308,Match,"-72.7892,41.952812",-72.7892,41.952812,Hartford County,Orange,Tiny,B,2
557,WALGREENS #02410,(203) 230-0610,PCY.0001395,"241,512","1697 WHITNEY AVE
CT 06517-1928
(41.360647, -72.909431)",1697 WHITNEY AVE,HAMDEN,CT,"1697 WHITNEY AVE, HAMDEN, CT",06517-1928,Match,"-72.90932,41.361214",-72.90932,41.361214,New Haven County,Green,Tiny,E,5
558,ORONOQUE PHARMACY,2033781111,PCY.0001287,"38,446","7365 MAIN STREET
CT 06614
(41.253464, -73.100455)",7365 MAIN STREET,STRATFORD,CT,"7365 MAIN STREET, STRATFORD, CT",6614,Match,"-73.10022,41.25389",-73.10022,41.25389,Fairfield,Red,Tiny,A,1
559,WALGREENS #15590,(203) 792-2044,PCY.0001255,"38,433","95 LOCUST AVE
CT 06810-6148
(41.404723, -73.446913)",95 LOCUST AVE STE 100,DANBURY,CT,"95 LOCUST AVE STE 100, DANBURY, CT",06810-6148,Match,"-73.44704,41.40475",-73.44704,41.40475,Fairfield,Red,Tiny,A,1
560,WALGREENS #13969,(203) 777-7809,PCY.0002192,"953,048","55 PARK ST
CT 06511-5474
(41.306688, -72.935185)",55 PARK ST STE 1A,NEW HAVEN,CT,"55 PARK ST STE 1A, NEW HAVEN, CT",06511-5474,Match,"-72.93589,41.30571",-72.93589,41.30571,New Haven County,Green,Tiny,E,5
562,STOP & SHOP PHARMACY #683,(860) 355-3763,PCY.0001206,"246,250","180 DANBURY RD
CT 06776-4328
(41.550033, -73.418267)",180 DANBURY RD,NEW MILFORD,CT,"180 DANBURY RD, NEW MILFORD, CT",06776-4328,Match,"-73.41856,41.549618",-73.41856,41.549618,Litchfield County,Blue,Mid,C,3
563,SHARON PHARMACY,(860) 364-5272,PCY.0000294,"37,117","8 GAY ST
CT 06069-0116
(41.92314, -73.069718)",8 GAY ST,SHARON,CT,"8 GAY ST, SHARON, CT",06069-0116,Match,"-73.46803,41.88496",-73.46803,41.88496,Litchfield County,Blue,Mid,C,3
564,CVS PHARMACY #1941,(203) 261-1185,PCY.0001532,"137,281","511 MONROE TPKE
CT 06468-2386
(41.317523, -73.215476)",511 MONROE TPKE,MONROE,CT,"511 MONROE TPKE, MONROE, CT",06468-2386,Match,"-73.21408,41.319004",-73.21408,41.319004,Fairfield,Red,Tiny,A,1
566,CVS PHARMACY #2839,(860) 848-3202,PCY.0002126,"516,389","2005 NORWICH NEW LONDON TPKE
CT 06382-1369
(41.479553, -72.099397)",2005 NORWICH NEW LONDON TPKE,UNCASVILLE,CT,"2005 NORWICH NEW LONDON TPKE, UNCASVILLE, CT",06382-1369,Match,"-72.09935,41.479485",-72.09935,41.479485,New London County,Black,Mid,F,6
567,WALGREENS #06914,(203) 469-3016,PCY.0001943,"391,067","87 FOXON ST
CT 06513-2365
(41.319802, -72.871459)",87 FOXON ST,NEW HAVEN,CT,"87 FOXON ST, NEW HAVEN, CT",06513-2365,Match,"-72.87272,41.319576",-72.87272,41.319576,New Haven County,Green,Tiny,E,5
568,STOP & SHOP PHARMACY #659,203-798-0735,PCY.0001249,"38,431","72 NEWTOWN RD
CT 06810-6254
(41.40563, -73.419778)",72 NEWTOWN RD,DANBURY,CT,"72 NEWTOWN RD, DANBURY, CT",06810-6254,Match,"-73.41486,41.409336",-73.41486,41.409336,Fairfield,Red,Tiny,A,1
569,STOP & SHOP PHARMACY #606,860-635-6303,PCY.0001225,"38,237","35 SHUNPIKE RD
CT 06416-2414
(41.602303, -72.676099)",35 SHUNPIKE RD,CROMWELL,CT,"35 SHUNPIKE RD, CROMWELL, CT",06416-2414,Match,"-72.67608,41.60296",-72.67608,41.60296,Middlesex County,Purple,Small,D,4
570,RITE AID  #10341,(860) 824-5481,PCY.0001677,"159,990","76 MAIN ST
CT 06018-2460
(42.026712, -73.329161)",76 MAIN ST,CANAAN,CT,"76 MAIN ST, CANAAN, CT",06018-2460,Match,"-73.32931,42.026814",-73.32931,42.026814,Litchfield County,Blue,Mid,C,3
571,CVS PHARMACY #811,(203) 389-4714,PCY.0001270,"246,433","1150 WHALLEY AVE
CT 06515-1790
(41.32911, -72.968379)",1150 WHALLEY AVE,NEW HAVEN,CT,"1150 WHALLEY AVE, NEW HAVEN, CT",06515-1790,Match,"-72.9682,41.32908",-72.9682,41.32908,New Haven County,Green,Tiny,E,5
572,RITE AID  #2089,(203) 754-3636,PCY.0001696,"208,021","1030 WOLCOTT ST
CT 06705-1316
(41.569016, -73.006198)",1030 WOLCOTT ST,WATERBURY,CT,"1030 WOLCOTT ST, WATERBURY, CT",06705-1316,Match,"-73.00588,41.56944",-73.00588,41.56944,New Haven County,Green,Tiny,E,5
573,ST VINCENTS OUTPATIENT PHARMACY,(203) 576-5713,PCY.0002237,"1,065,025","2800 MAIN ST
CT 06606-4201
(41.200083, -73.202486)",2800 MAIN ST,BRIDGEPORT,CT,"2800 MAIN ST, BRIDGEPORT, CT",06606-4201,Match,"-73.20263,41.20014",-73.20263,41.20014,Fairfield,Red,Tiny,A,1
574,CVS PHARMACY #1898,(203) 698-1457,PCY.0001492,"39,108","225 SOUND BEACH AVE
CT 06870-1607
(41.031164, -73.567601)",225 SOUND BEACH AVE,OLD GREENWICH,CT,"225 SOUND BEACH AVE, OLD GREENWICH, CT",06870-1607,Match,"-73.567535,41.03099",-73.567535,41.03099,Fairfield,Red,Tiny,A,1
575,STOP & SHOP #653,(203) 254-9461,PCY.0001426,"38,886","1790 POST RD E
CT 06880-5607
(41.138347, -73.30227)",1790 POST RD E,WESTPORT,CT,"1790 POST RD E, WESTPORT, CT",06880-5607,Match,"-73.304,41.138397",-73.304,41.138397,Fairfield,Red,Tiny,A,1
577,STOP & SHOP PHARMACY #615,(860) 887-1615,PCY.0000937,"37,774","42 TOWN ST
CT 06360-2316
(41.546508, -72.091505)",42 TOWN ST,NORWICH,CT,"42 TOWN ST, NORWICH, CT",06360-2316,Match,"-72.09018,41.545906",-72.09018,41.545906,New London County,Black,Mid,F,6
578,RITE AID  # 6599,(860) 276-8511,PCY.0002146,"889,150","500 QUEEN ST
CT 06489-1801
(41.630224, -72.873755)",500 QUEEN ST,SOUTHINGTON,CT,"500 QUEEN ST, SOUTHINGTON, CT",06489-1801,Match,"-72.87363,41.631218",-72.87363,41.631218,Hartford County,Orange,Tiny,B,2
579,RITE AID  #10352,(860) 447-0661,PCY.0001138,"38,022","280 BROAD ST
CT 06320-5227
(41.360937, -72.109521)",280 BROAD ST,NEW LONDON,CT,"280 BROAD ST, NEW LONDON, CT",06320-5227,Match,"-72.10954,41.36096",-72.10954,41.36096,New London County,Black,Mid,F,6
580,STOP & SHOP #688,(860) 388-6461,PCY.0001357,"249,867","105 ELM ST
CT 06475-4132
(41.357567, -72.726967)",105 ELM ST,OLD SAYBROOK,CT,"105 ELM ST, OLD SAYBROOK, CT",06475-4132,Match,"-72.38311,41.295082",-72.38311,41.295082,Middlesex County,Purple,Small,D,4
581,"GENOA HEALTHCARE, LLC",(860) 785-6052,PCY.0002309,"1,273,736","287 MAIN ST
CT 06118-1885
(41.742639, -72.632662)",287 MAIN ST STE A-2,EAST HARTFORD,CT,"287 MAIN ST STE A-2, EAST HARTFORD, CT",06118-1885,Match,"-72.63261,41.742416",-72.63261,41.742416,Hartford County,Orange,Tiny,B,2
582,STOP & SHOP PHARMACY #674,8604567240,PCY.0001248,"38,430","1391 MAIN ST
CT 06226-1949
(41.716057, -72.230877)",1391 MAIN ST,WILLIMANTIC,CT,"1391 MAIN ST, WILLIMANTIC, CT",06226-1949,Match,"-72.23049,41.715973",-72.23049,41.715973,Windham County,Grey,Big,L,8
583,CVS PHARMACY #916,(860) 945-3390,PCY.0001299,"38,453","26 DAVIS ST
CT 06779-1925
(41.588159, -73.088803)",26 DAVIS ST,OAKVILLE,CT,"26 DAVIS ST, OAKVILLE, CT",06779-1925,Match,"-73.08884,41.58805",-73.08884,41.58805,Litchfield County,Blue,Mid,C,3
585,RITE AID  #2666,(203) 596-8192,PCY.0001404,"38,878","277 FAIRFIELD AVE
CT 06708-4068
(41.535571, -73.059624)",277 FAIRFIELD AVE,WATERBURY,CT,"277 FAIRFIELD AVE, WATERBURY, CT",06708-4068,Match,"-73.06083,41.535404",-73.06083,41.535404,New Haven County,Green,Tiny,E,5
586,NEW BRITAIN PHARMACY,860-223-0522,PCY.0002260,"1,146,910","46 BROAD ST
CT 06053-4305
(41.67338, -72.785028)",46 BROAD ST,NEW BRITAIN,CT,"46 BROAD ST, NEW BRITAIN, CT",06053-4305,Match,"-72.7852,41.6734",-72.7852,41.6734,Hartford County,Orange,Tiny,B,2
587,WALGREENS #07522,(203) 374-2819,PCY.0001855,"358,276","4083 MAIN ST
CT 06606-2302
(41.216427, -73.213467)",4083 MAIN ST,BRIDGEPORT,CT,"4083 MAIN ST, BRIDGEPORT, CT",06606-2302,Match,"-73.21404,41.217213",-73.21404,41.217213,Fairfield,Red,Tiny,A,1
588,CVS PHARMACY #377,(860) 446-0912,PCY.0001142,"38,023","915 POQUONNOCK RD
CT 06340-4257
(41.346664, -72.051088)",915 POQUONNOCK RD,GROTON,CT,"915 POQUONNOCK RD, GROTON, CT",06340-4257,Match,"-72.05367,41.34518",-72.05367,41.34518,New London County,Black,Mid,F,6
590,"GENOA HEALTHCARE, LLC",(860) 457-4690,PCY.0002135,"525,060","1007 N MAIN ST
CT 06241-2170
(41.834753, -71.877388)",1007 N MAIN ST,DAYVILLE,CT,"1007 N MAIN ST, DAYVILLE, CT",06241-2170,Match,"-71.87721,41.83333",-71.87721,41.83333,Windham County,Grey,Big,L,8
592,NB HEALTH CARE LLC,,PCY.0002291,"1,212,758","200 MAIN ST
CT 06051-2222
(41.666983, -72.782254)",200 MAIN ST,NEW BRITAIN,CT,"200 MAIN ST, NEW BRITAIN, CT",06051-2222,Match,"-72.7819,41.6678",-72.7819,41.6678,Hartford County,Orange,Tiny,B,2
594,CVS PHARMACY #2475,(203) 422-2129,PCY.0000980,"513,023","122 E PUTNAM AVE
CT 06807-2720
(41.037369, -73.600707)",122 E PUTNAM AVE,COS COB,CT,"122 E PUTNAM AVE, COS COB, CT",06807-2720,Match,"-73.60177,41.036808",-73.60177,41.036808,Fairfield,Red,Tiny,A,1
595,MEDICAL PHARMACY INC,(860) 423-1661,PCY.0000892,"37,766","1213 MAIN ST
CT 06226-1907
(41.714043, -72.225524)",1213 MAIN ST,WILLIMANTIC,CT,"1213 MAIN ST, WILLIMANTIC, CT",06226-1907,Match,"-72.22586,41.71416",-72.22586,41.71416,Windham County,Grey,Big,L,8
